{"type":"FeatureCollection","features":[{"type":"Feature","properties":{"kind":"district","id":127,"name":"Centro Histórico"},"geometry":{"type":"MultiPolygon","coordinates":[[[[1209.6,2150.4],[1248,2150.4],[1248,2246.4],[1267.2,2246.4],[1267.2,2380.7999999999997],[1286.3999999999999,2380.7999999999997],[1286.3999999999999,2476.7999999999997],[1305.6,2476.7999999999997],[1305.6,2572.7999999999997],[1324.8,2572.7999999999997],[1324.8,2630.4],[1344,2630.4],[1344,2688],[1363.2,2688],[1363.2,2745.6],[1382.3999999999999,2745.6],[1382.3999999999999,2822.4],[1401.6,2822.4],[1401.6,3072],[1382.3999999999999,3072],[1382.3999999999999,3148.7999999999997],[1363.2,3148.7999999999997],[1363.2,3168],[1344,3168],[1344,3206.4],[1324.8,3206.4],[1324.8,3225.6],[1305.6,3225.6],[1305.6,3244.7999999999997],[1267.2,3244.7999999999997],[1267.2,3264],[1248,3264],[1248,3283.2],[1209.6,3283.2],[1209.6,3302.4],[1171.2,3302.4],[1171.2,3321.6],[1132.8,3321.6],[1132.8,3340.7999999999997],[1113.6,3340.7999999999997],[1113.6,3360],[1075.2,3360],[1075.2,3379.2],[1017.5999999999999,3379.2],[1017.5999999999999,3398.4],[979.1999999999999,3398.4],[979.1999999999999,3417.6],[940.8,3417.6],[940.8,3436.7999999999997],[902.4,3436.7999999999997],[902.4,3456],[864,3456],[864,3475.2],[825.6,3475.2],[825.6,3494.4],[806.4,3494.4],[806.4,3513.6],[768,3513.6],[768,3532.7999999999997],[729.6,3532.7999999999997],[729.6,3552],[710.4,3552],[710.4,3571.2],[691.1999999999999,3571.2],[691.1999999999999,3590.4],[652.8,3590.4],[652.8,3609.6],[633.6,3609.6],[633.6,3628.7999999999997],[614.4,3628.7999999999997],[614.4,3648],[595.1999999999999,3648],[595.1999999999999,3667.2],[576,3667.2],[576,3686.3999999999996],[556.8,3686.3999999999996],[556.8,3705.6],[537.6,3705.6],[537.6,3724.7999999999997],[518.4,3724.7999999999997],[518.4,3744],[499.2,3744],[499.2,3724.7999999999997],[460.79999999999995,3724.7999999999997],[460.79999999999995,3705.6],[441.59999999999997,3705.6],[441.59999999999997,3686.3999999999996],[403.2,3686.3999999999996],[403.2,3667.2],[384,3667.2],[384,3648],[345.59999999999997,3648],[345.59999999999997,3628.7999999999997],[326.4,3628.7999999999997],[326.4,3609.6],[288,3609.6],[288,3590.4],[268.8,3590.4],[268.8,3571.2],[230.39999999999998,3571.2],[230.39999999999998,3552],[211.2,3552],[211.2,3532.7999999999997],[192,3532.7999999999997],[192,3513.6],[153.6,3513.6],[153.6,3494.4],[134.4,3494.4],[134.4,3475.2],[96,3475.2],[96,3456],[76.8,3456],[76.8,3436.7999999999997],[38.4,3436.7999999999997],[38.4,3417.6],[19.2,3417.6],[19.2,3398.4],[-19.2,3398.4],[-19.2,3379.2],[-38.4,3379.2],[-38.4,3360],[-76.8,3360],[-76.8,3302.4],[-57.599999999999994,3302.4],[-57.599999999999994,3283.2],[-38.4,3283.2],[-38.4,3244.7999999999997],[-19.2,3244.7999999999997],[-19.2,3187.2],[0,3187.2],[0,3148.7999999999997],[19.2,3148.7999999999997],[19.2,3091.2],[38.4,3091.2],[38.4,3014.4],[57.599999999999994,3014.4],[57.599999999999994,2860.7999999999997],[38.4,2860.7999999999997],[38.4,2764.7999999999997],[19.2,2764.7999999999997],[19.2,2572.7999999999997],[38.4,2572.7999999999997],[38.4,2534.4],[57.599999999999994,2534.4],[57.599999999999994,2476.7999999999997],[76.8,2476.7999999999997],[76.8,2438.4],[57.599999999999994,2438.4],[57.599999999999994,2419.2],[19.2,2419.2],[19.2,2380.7999999999997],[0,2380.7999999999997],[0,2323.2],[19.2,2323.2],[19.2,2284.7999999999997],[38.4,2284.7999999999997],[38.4,2265.6],[57.599999999999994,2265.6],[57.599999999999994,2246.4],[76.8,2246.4],[76.8,2227.2],[211.2,2227.2],[211.2,2246.4],[249.6,2246.4],[249.6,2265.6],[288,2265.6],[288,2304],[307.2,2304],[307.2,2323.2],[326.4,2323.2],[326.4,2342.4],[345.59999999999997,2342.4],[345.59999999999997,2361.6],[364.8,2361.6],[364.8,2380.7999999999997],[403.2,2380.7999999999997],[403.2,2400],[499.2,2400],[499.2,2361.6],[518.4,2361.6],[518.4,2342.4],[537.6,2342.4],[537.6,2304],[556.8,2304],[556.8,2284.7999999999997],[576,2284.7999999999997],[576,2265.6],[614.4,2265.6],[614.4,2246.4],[844.8,2246.4],[844.8,2227.2],[864,2227.2],[864,2208],[921.5999999999999,2208],[921.5999999999999,2188.7999999999997],[1075.2,2188.7999999999997],[1075.2,2169.6],[1209.6,2169.6],[1209.6,2150.4]]]]}},{"type":"Feature","properties":{"kind":"park","id":122,"name":"Altavento Institute"},"geometry":{"type":"MultiPolygon","coordinates":[[[[-1881.6,1804.8],[-1843.1999999999998,1804.8],[-1843.1999999999998,1824],[-1651.2,1824],[-1651.2,1804.8],[-1632,1804.8],[-1632,1824],[-1574.3999999999999,1824],[-1574.3999999999999,1920],[-1555.2,1920],[-1555.2,1939.1999999999998],[-1574.3999999999999,1939.1999999999998],[-1574.3999999999999,2361.6],[-1593.6,2361.6],[-1593.6,2380.7999999999997],[-1612.8,2380.7999999999997],[-1612.8,2400],[-2342.4,2400],[-2342.4,2380.7999999999997],[-2361.6,2380.7999999999997],[-2361.6,2323.2],[-2342.4,2323.2],[-2342.4,2284.7999999999997],[-2323.2,2284.7999999999997],[-2323.2,2265.6],[-2304,2265.6],[-2304,2246.4],[-2284.7999999999997,2246.4],[-2284.7999999999997,2227.2],[-2265.6,2227.2],[-2265.6,2208],[-2246.4,2208],[-2246.4,2188.7999999999997],[-2227.2,2188.7999999999997],[-2227.2,2169.6],[-2208,2169.6],[-2208,2150.4],[-2188.7999999999997,2150.4],[-2188.7999999999997,2131.2],[-2169.6,2131.2],[-2169.6,2112],[-2150.4,2112],[-2150.4,2092.7999999999997],[-2131.2,2092.7999999999997],[-2131.2,2073.6],[-2112,2073.6],[-2112,2054.4],[-2092.7999999999997,2054.4],[-2092.7999999999997,2035.1999999999998],[-2073.6,2035.1999999999998],[-2073.6,2016],[-2054.4,2016],[-2054.4,1996.8],[-2035.1999999999998,1996.8],[-2035.1999999999998,1977.6],[-2016,1977.6],[-2016,1958.3999999999999],[-1996.8,1958.3999999999999],[-1996.8,1939.1999999999998],[-1977.6,1939.1999999999998],[-1977.6,1843.1999999999998],[-1958.3999999999999,1843.1999999999998],[-1958.3999999999999,1824],[-1881.6,1824],[-1881.6,1804.8]]]]}},{"type":"Feature","properties":{"kind":"park","id":123,"name":"King College"},"geometry":{"type":"MultiPolygon","coordinates":[[[[-1555.2,1286.3999999999999],[-1497.6,1286.3999999999999],[-1497.6,1305.6],[-1459.2,1305.6],[-1459.2,1286.3999999999999],[-1267.2,1286.3999999999999],[-1267.2,1305.6],[-1132.8,1305.6],[-1132.8,1324.8],[-1113.6,1324.8],[-1113.6,1363.2],[-1094.3999999999999,1363.2],[-1094.3999999999999,1516.8],[-1075.2,1516.8],[-1075.2,1900.8],[-1094.3999999999999,1900.8],[-1094.3999999999999,1920],[-1113.6,1920],[-1113.6,1958.3999999999999],[-1132.8,1958.3999999999999],[-1132.8,1996.8],[-1152,1996.8],[-1152,2016],[-1171.2,2016],[-1171.2,2035.1999999999998],[-1190.3999999999999,2035.1999999999998],[-1190.3999999999999,2054.4],[-1209.6,2054.4],[-1209.6,2073.6],[-1228.8,2073.6],[-1228.8,2092.7999999999997],[-1420.8,2092.7999999999997],[-1420.8,2073.6],[-1440,2073.6],[-1440,2054.4],[-1459.2,2054.4],[-1459.2,2035.1999999999998],[-1478.3999999999999,2035.1999999999998],[-1478.3999999999999,2016],[-1497.6,2016],[-1497.6,1996.8],[-1516.8,1996.8],[-1516.8,1977.6],[-1536,1977.6],[-1536,1958.3999999999999],[-1555.2,1958.3999999999999],[-1555.2,1920],[-1574.3999999999999,1920],[-1574.3999999999999,1305.6],[-1555.2,1305.6],[-1555.2,1286.3999999999999]]]]}},{"type":"Feature","properties":{"kind":"park","id":124,"name":"Sterling Land"},"geometry":{"type":"MultiPolygon","coordinates":[[[[2284.7999999999997,5184],[2400,5184],[2400,5203.2],[2419.2,5203.2],[2419.2,5222.4],[2438.4,5222.4],[2438.4,5241.599999999999],[2457.6,5241.599999999999],[2457.6,5260.8],[2476.7999999999997,5260.8],[2476.7999999999997,5280],[2496,5280],[2496,5299.2],[2515.2,5299.2],[2515.2,5318.4],[2534.4,5318.4],[2534.4,5356.8],[2553.6,5356.8],[2553.6,5376],[2572.7999999999997,5376],[2572.7999999999997,5395.2],[2592,5395.2],[2592,5414.4],[2611.2,5414.4],[2611.2,5433.599999999999],[2630.4,5433.599999999999],[2630.4,5472],[2649.6,5472],[2649.6,5491.2],[2668.7999999999997,5491.2],[2668.7999999999997,5510.4],[2688,5510.4],[2688,5568],[2707.2,5568],[2707.2,5664],[2688,5664],[2688,5836.8],[2668.7999999999997,5836.8],[2668.7999999999997,5856],[2649.6,5856],[2649.6,5894.4],[2630.4,5894.4],[2630.4,5932.8],[2611.2,5932.8],[2611.2,5952],[2592,5952],[2592,5990.4],[2572.7999999999997,5990.4],[2572.7999999999997,6124.8],[2553.6,6124.8],[2553.6,6144],[2534.4,6144],[2534.4,6163.2],[2515.2,6163.2],[2515.2,6182.4],[2496,6182.4],[2496,6220.8],[2476.7999999999997,6220.8],[2476.7999999999997,6259.2],[2457.6,6259.2],[2457.6,6547.2],[2438.4,6547.2],[2438.4,6585.599999999999],[2400,6585.599999999999],[2400,6604.8],[2208,6604.8],[2208,6624],[2169.6,6624],[2169.6,6643.2],[2131.2,6643.2],[2131.2,6681.599999999999],[2112,6681.599999999999],[2112,6700.8],[2092.7999999999997,6700.8],[2092.7999999999997,6739.2],[2073.6,6739.2],[2073.6,6758.4],[2054.4,6758.4],[2054.4,6777.599999999999],[2035.1999999999998,6777.599999999999],[2035.1999999999998,6796.8],[2016,6796.8],[2016,6816],[1939.1999999999998,6816],[1939.1999999999998,6835.2],[1920,6835.2],[1920,6816],[1785.6,6816],[1785.6,6796.8],[1555.2,6796.8],[1555.2,6777.599999999999],[1440,6777.599999999999],[1440,6758.4],[1401.6,6758.4],[1401.6,6739.2],[1382.3999999999999,6739.2],[1382.3999999999999,6720],[1363.2,6720],[1363.2,6700.8],[1344,6700.8],[1344,6681.599999999999],[1324.8,6681.599999999999],[1324.8,6662.4],[1305.6,6662.4],[1305.6,6624],[1286.3999999999999,6624],[1286.3999999999999,6585.599999999999],[1267.2,6585.599999999999],[1267.2,6547.2],[1248,6547.2],[1248,6432],[1228.8,6432],[1228.8,6374.4],[1209.6,6374.4],[1209.6,6336],[1190.3999999999999,6336],[1190.3999999999999,6297.599999999999],[1171.2,6297.599999999999],[1171.2,6278.4],[1152,6278.4],[1152,6259.2],[1132.8,6259.2],[1132.8,6240],[1113.6,6240],[1113.6,6201.599999999999],[1094.3999999999999,6201.599999999999],[1094.3999999999999,6182.4],[1075.2,6182.4],[1075.2,6163.2],[1056,6163.2],[1056,6144],[1036.8,6144],[1036.8,6124.8],[1017.5999999999999,6124.8],[1017.5999999999999,5990.4],[1036.8,5990.4],[1036.8,5952],[1056,5952],[1056,5932.8],[1094.3999999999999,5932.8],[1094.3999999999999,5913.599999999999],[1113.6,5913.599999999999],[1113.6,5894.4],[1132.8,5894.4],[1132.8,5875.2],[1152,5875.2],[1152,5856],[1171.2,5856],[1171.2,5836.8],[1209.6,5836.8],[1209.6,5817.599999999999],[1228.8,5817.599999999999],[1228.8,5798.4],[1248,5798.4],[1248,5779.2],[1267.2,5779.2],[1267.2,5760],[1286.3999999999999,5760],[1286.3999999999999,5740.8],[1324.8,5740.8],[1324.8,5721.599999999999],[1344,5721.599999999999],[1344,5702.4],[1363.2,5702.4],[1363.2,5683.2],[1382.3999999999999,5683.2],[1382.3999999999999,5664],[1401.6,5664],[1401.6,5644.8],[1420.8,5644.8],[1420.8,5625.599999999999],[1459.2,5625.599999999999],[1459.2,5606.4],[1478.3999999999999,5606.4],[1478.3999999999999,5587.2],[1497.6,5587.2],[1497.6,5568],[1516.8,5568],[1516.8,5548.8],[1536,5548.8],[1536,5529.599999999999],[1574.3999999999999,5529.599999999999],[1574.3999999999999,5510.4],[1593.6,5510.4],[1593.6,5491.2],[1612.8,5491.2],[1612.8,5472],[1632,5472],[1632,5452.8],[1651.2,5452.8],[1651.2,5433.599999999999],[1689.6,5433.599999999999],[1689.6,5414.4],[1728,5414.4],[1728,5395.2],[1785.6,5395.2],[1785.6,5414.4],[1824,5414.4],[1824,5433.599999999999],[1843.1999999999998,5433.599999999999],[1843.1999999999998,5452.8],[1881.6,5452.8],[1881.6,5472],[1939.1999999999998,5472],[1939.1999999999998,5452.8],[1977.6,5452.8],[1977.6,5433.599999999999],[2016,5433.599999999999],[2016,5414.4],[2035.1999999999998,5414.4],[2035.1999999999998,5395.2],[2054.4,5395.2],[2054.4,5376],[2073.6,5376],[2073.6,5356.8],[2092.7999999999997,5356.8],[2092.7999999999997,5337.599999999999],[2131.2,5337.599999999999],[2131.2,5318.4],[2150.4,5318.4],[2150.4,5299.2],[2169.6,5299.2],[2169.6,5280],[2188.7999999999997,5280],[2188.7999999999997,5260.8],[2208,5260.8],[2208,5241.599999999999],[2227.2,5241.599999999999],[2227.2,5222.4],[2265.6,5222.4],[2265.6,5203.2],[2284.7999999999997,5203.2],[2284.7999999999997,5184]]]]}},{"type":"Feature","properties":{"kind":"park","id":125,"name":"Parque Mi Bonito Recuerdo"},"geometry":{"type":"MultiPolygon","coordinates":[[[[288,3206.4],[480,3206.4],[480,3360],[288,3360],[288,3206.4]]]]}},{"type":"Feature","properties":{"kind":"park","id":126,"name":"Dale Woods"},"geometry":{"type":"MultiPolygon","coordinates":[[[[-1017.5999999999999,6240],[-921.5999999999999,6240],[-921.5999999999999,6259.2],[-883.1999999999999,6259.2],[-883.1999999999999,6297.599999999999],[-864,6297.599999999999],[-864,6336],[-844.8,6336],[-844.8,6374.4],[-864,6374.4],[-864,6412.8],[-883.1999999999999,6412.8],[-883.1999999999999,6489.599999999999],[-902.4,6489.599999999999],[-902.4,6547.2],[-883.1999999999999,6547.2],[-883.1999999999999,6624],[-864,6624],[-864,6700.8],[-844.8,6700.8],[-844.8,6777.599999999999],[-864,6777.599999999999],[-864,6854.4],[-883.1999999999999,6854.4],[-883.1999999999999,6892.8],[-902.4,6892.8],[-902.4,6912],[-921.5999999999999,6912],[-921.5999999999999,6931.2],[-940.8,6931.2],[-940.8,6969.599999999999],[-979.1999999999999,6969.599999999999],[-979.1999999999999,6988.8],[-998.4,6988.8],[-998.4,7008],[-1017.5999999999999,7008],[-1017.5999999999999,7027.2],[-1056,7027.2],[-1056,7065.599999999999],[-1075.2,7065.599999999999],[-1075.2,7104],[-1094.3999999999999,7104],[-1094.3999999999999,7142.4],[-1113.6,7142.4],[-1113.6,7161.599999999999],[-1132.8,7161.599999999999],[-1132.8,7180.8],[-1171.2,7180.8],[-1171.2,7200],[-1363.2,7200],[-1363.2,7180.8],[-1536,7180.8],[-1536,7161.599999999999],[-1555.2,7161.599999999999],[-1555.2,7142.4],[-1574.3999999999999,7142.4],[-1574.3999999999999,7123.2],[-1593.6,7123.2],[-1593.6,6969.599999999999],[-1612.8,6969.599999999999],[-1612.8,6950.4],[-1632,6950.4],[-1632,6931.2],[-1670.3999999999999,6931.2],[-1670.3999999999999,6912],[-1689.6,6912],[-1689.6,6892.8],[-1708.8,6892.8],[-1708.8,6854.4],[-1728,6854.4],[-1728,6835.2],[-1747.2,6835.2],[-1747.2,6681.599999999999],[-1728,6681.599999999999],[-1728,6643.2],[-1708.8,6643.2],[-1708.8,6624],[-1670.3999999999999,6624],[-1670.3999999999999,6508.8],[-1651.2,6508.8],[-1651.2,6432],[-1632,6432],[-1632,6412.8],[-1612.8,6412.8],[-1612.8,6393.599999999999],[-1574.3999999999999,6393.599999999999],[-1574.3999999999999,6374.4],[-1497.6,6374.4],[-1497.6,6355.2],[-1459.2,6355.2],[-1459.2,6336],[-1420.8,6336],[-1420.8,6316.8],[-1382.3999999999999,6316.8],[-1382.3999999999999,6297.599999999999],[-1248,6297.599999999999],[-1248,6316.8],[-1132.8,6316.8],[-1132.8,6297.599999999999],[-1075.2,6297.599999999999],[-1075.2,6278.4],[-1056,6278.4],[-1056,6259.2],[-1017.5999999999999,6259.2],[-1017.5999999999999,6240]]]]}},{"type":"Feature","properties":{"kind":"park","id":127,"name":"Parque Juanita"},"geometry":{"type":"MultiPolygon","coordinates":[[[[748.8,2726.4],[902.4,2726.4],[902.4,2745.6],[883.1999999999999,2745.6],[883.1999999999999,2803.2],[902.4,2803.2],[902.4,2841.6],[883.1999999999999,2841.6],[883.1999999999999,2880],[902.4,2880],[902.4,2956.7999999999997],[729.6,2956.7999999999997],[729.6,2937.6],[748.8,2937.6],[748.8,2726.4]]]]}}]}
