{"type":"FeatureCollection","features":[{"type":"Feature","properties":{"kind":"district","id":127,"name":"Woodland Square"},"geometry":{"type":"MultiPolygon","coordinates":[[[[-1171.2,-2400],[-1017.5999999999999,-2400],[-1017.5999999999999,-2380.7999999999997],[-960,-2380.7999999999997],[-960,-2361.6],[-902.4,-2361.6],[-902.4,-2342.4],[-844.8,-2342.4],[-844.8,-2323.2],[-787.1999999999999,-2323.2],[-787.1999999999999,-2304],[-729.6,-2304],[-729.6,-2284.7999999999997],[-672,-2284.7999999999997],[-672,-2265.6],[-614.4,-2265.6],[-614.4,-2246.4],[-576,-2246.4],[-576,-2227.2],[-518.4,-2227.2],[-518.4,-2208],[-460.79999999999995,-2208],[-460.79999999999995,-2188.7999999999997],[-422.4,-2188.7999999999997],[-422.4,-2131.2],[-441.59999999999997,-2131.2],[-441.59999999999997,-2073.6],[-460.79999999999995,-2073.6],[-460.79999999999995,-2016],[-480,-2016],[-480,-1977.6],[-499.2,-1977.6],[-499.2,-1939.1999999999998],[-518.4,-1939.1999999999998],[-518.4,-1920],[-537.6,-1920],[-537.6,-1881.6],[-556.8,-1881.6],[-556.8,-1862.3999999999999],[-595.1999999999999,-1862.3999999999999],[-595.1999999999999,-1843.1999999999998],[-614.4,-1843.1999999999998],[-614.4,-1804.8],[-633.6,-1804.8],[-633.6,-1785.6],[-672,-1785.6],[-672,-1766.3999999999999],[-691.1999999999999,-1766.3999999999999],[-691.1999999999999,-1747.2],[-729.6,-1747.2],[-729.6,-1728],[-787.1999999999999,-1728],[-787.1999999999999,-1708.8],[-825.6,-1708.8],[-825.6,-1689.6],[-883.1999999999999,-1689.6],[-883.1999999999999,-1670.3999999999999],[-921.5999999999999,-1670.3999999999999],[-921.5999999999999,-1651.2],[-979.1999999999999,-1651.2],[-979.1999999999999,-1670.3999999999999],[-998.4,-1670.3999999999999],[-998.4,-1728],[-1017.5999999999999,-1728],[-1017.5999999999999,-1785.6],[-1036.8,-1785.6],[-1036.8,-1824],[-1056,-1824],[-1056,-1881.6],[-1075.2,-1881.6],[-1075.2,-1939.1999999999998],[-1094.3999999999999,-1939.1999999999998],[-1094.3999999999999,-1977.6],[-1113.6,-1977.6],[-1113.6,-2035.1999999999998],[-1132.8,-2035.1999999999998],[-1132.8,-2073.6],[-1152,-2073.6],[-1152,-2112],[-1171.2,-2112],[-1171.2,-2188.7999999999997],[-1190.3999999999999,-2188.7999999999997],[-1190.3999999999999,-2227.2],[-1209.6,-2227.2],[-1209.6,-2284.7999999999997],[-1228.8,-2284.7999999999997],[-1228.8,-2342.4],[-1209.6,-2342.4],[-1209.6,-2361.6],[-1190.3999999999999,-2361.6],[-1190.3999999999999,-2380.7999999999997],[-1171.2,-2380.7999999999997],[-1171.2,-2400]]],[[[-384,-2169.6],[-345.59999999999997,-2169.6],[-345.59999999999997,-2150.4],[-288,-2150.4],[-288,-2131.2],[-230.39999999999998,-2131.2],[-230.39999999999998,-2112],[-192,-2112],[-192,-2092.7999999999997],[-172.79999999999998,-2092.7999999999997],[-172.79999999999998,-2073.6],[-153.6,-2073.6],[-153.6,-2054.4],[-134.4,-2054.4],[-134.4,-2035.1999999999998],[-115.19999999999999,-2035.1999999999998],[-115.19999999999999,-1977.6],[-96,-1977.6],[-96,-1824],[-115.19999999999999,-1824],[-115.19999999999999,-1804.8],[-96,-1804.8],[-96,-1785.6],[-115.19999999999999,-1785.6],[-115.19999999999999,-1708.8],[-134.4,-1708.8],[-134.4,-1670.3999999999999],[-153.6,-1670.3999999999999],[-153.6,-1632],[-172.79999999999998,-1632],[-172.79999999999998,-1593.6],[-192,-1593.6],[-192,-1555.2],[-211.2,-1555.2],[-211.2,-1536],[-230.39999999999998,-1536],[-230.39999999999998,-1516.8],[-249.6,-1516.8],[-249.6,-1497.6],[-268.8,-1497.6],[-268.8,-1478.3999999999999],[-288,-1478.3999999999999],[-288,-1459.2],[-326.4,-1459.2],[-326.4,-1440],[-364.8,-1440],[-364.8,-1420.8],[-422.4,-1420.8],[-422.4,-1401.6],[-460.79999999999995,-1401.6],[-460.79999999999995,-1382.3999999999999],[-518.4,-1382.3999999999999],[-518.4,-1363.2],[-576,-1363.2],[-576,-1344],[-614.4,-1344],[-614.4,-1324.8],[-672,-1324.8],[-672,-1305.6],[-806.4,-1305.6],[-806.4,-1324.8],[-844.8,-1324.8],[-844.8,-1344],[-864,-1344],[-864,-1382.3999999999999],[-883.1999999999999,-1382.3999999999999],[-883.1999999999999,-1420.8],[-902.4,-1420.8],[-902.4,-1478.3999999999999],[-921.5999999999999,-1478.3999999999999],[-921.5999999999999,-1516.8],[-940.8,-1516.8],[-940.8,-1574.3999999999999],[-960,-1574.3999999999999],[-960,-1612.8],[-940.8,-1612.8],[-940.8,-1632],[-883.1999999999999,-1632],[-883.1999999999999,-1651.2],[-825.6,-1651.2],[-825.6,-1670.3999999999999],[-787.1999999999999,-1670.3999999999999],[-787.1999999999999,-1689.6],[-729.6,-1689.6],[-729.6,-1708.8],[-691.1999999999999,-1708.8],[-691.1999999999999,-1728],[-652.8,-1728],[-652.8,-1747.2],[-633.6,-1747.2],[-633.6,-1766.3999999999999],[-614.4,-1766.3999999999999],[-614.4,-1785.6],[-576,-1785.6],[-576,-1804.8],[-556.8,-1804.8],[-556.8,-1824],[-537.6,-1824],[-537.6,-1862.3999999999999],[-518.4,-1862.3999999999999],[-518.4,-1881.6],[-499.2,-1881.6],[-499.2,-1900.8],[-480,-1900.8],[-480,-1939.1999999999998],[-460.79999999999995,-1939.1999999999998],[-460.79999999999995,-1977.6],[-441.59999999999997,-1977.6],[-441.59999999999997,-2016],[-422.4,-2016],[-422.4,-2073.6],[-403.2,-2073.6],[-403.2,-2131.2],[-384,-2131.2],[-384,-2169.6]]]]}}]}
