{"type":"FeatureCollection","features":[{"type":"Feature","properties":{"kind":"district","id":127,"name":"Beechwood District"},"geometry":{"type":"MultiPolygon","coordinates":[[[[-576,576],[-556.8,576],[-556.8,595.1999999999999],[-537.6,595.1999999999999],[-537.6,710.4],[-518.4,710.4],[-518.4,768],[-537.6,768],[-537.6,921.5999999999999],[-595.1999999999999,921.5999999999999],[-595.1999999999999,940.8],[-633.6,940.8],[-633.6,921.5999999999999],[-729.6,921.5999999999999],[-729.6,940.8],[-748.8,940.8],[-748.8,921.5999999999999],[-787.1999999999999,921.5999999999999],[-787.1999999999999,902.4],[-806.4,902.4],[-806.4,883.1999999999999],[-825.6,883.1999999999999],[-825.6,768],[-844.8,768],[-844.8,729.6],[-825.6,729.6],[-825.6,614.4],[-806.4,614.4],[-806.4,595.1999999999999],[-576,595.1999999999999],[-576,576]]]]}}]}
