{"type":"FeatureCollection","features":[{"type":"Feature","properties":{"kind":"district","id":107,"name":"Crest District"},"geometry":{"type":"MultiPolygon","coordinates":[[[[-2284.7999999999997,-1420.8],[-2131.2,-1420.8],[-2131.2,-1382.3999999999999],[-2092.7999999999997,-1382.3999999999999],[-2092.7999999999997,-1113.6],[-2304,-1113.6],[-2304,-1267.2],[-2323.2,-1267.2],[-2323.2,-1401.6],[-2284.7999999999997,-1401.6],[-2284.7999999999997,-1420.8]]]]}},{"type":"Feature","properties":{"kind":"district","id":108,"name":"Cedar Hills"},"geometry":{"type":"MultiPolygon","coordinates":[[[[-1843.1999999999998,-2726.4],[-1420.8,-2726.4],[-1420.8,-2707.2],[-1382.3999999999999,-2707.2],[-1382.3999999999999,-2668.7999999999997],[-1363.2,-2668.7999999999997],[-1363.2,-2553.6],[-1382.3999999999999,-2553.6],[-1382.3999999999999,-2534.4],[-1401.6,-2534.4],[-1401.6,-2515.2],[-1420.8,-2515.2],[-1420.8,-2496],[-1440,-2496],[-1440,-2476.7999999999997],[-1478.3999999999999,-2476.7999999999997],[-1478.3999999999999,-2457.6],[-1708.8,-2457.6],[-1708.8,-2438.4],[-1747.2,-2438.4],[-1747.2,-2419.2],[-1843.1999999999998,-2419.2],[-1843.1999999999998,-2400],[-1977.6,-2400],[-1977.6,-2419.2],[-1996.8,-2419.2],[-1996.8,-2438.4],[-2016,-2438.4],[-2016,-2457.6],[-2035.1999999999998,-2457.6],[-2035.1999999999998,-2496],[-2054.4,-2496],[-2054.4,-2534.4],[-2073.6,-2534.4],[-2073.6,-2592],[-2054.4,-2592],[-2054.4,-2611.2],[-2035.1999999999998,-2611.2],[-2035.1999999999998,-2630.4],[-2016,-2630.4],[-2016,-2649.6],[-1977.6,-2649.6],[-1977.6,-2668.7999999999997],[-1900.8,-2668.7999999999997],[-1900.8,-2688],[-1881.6,-2688],[-1881.6,-2707.2],[-1843.1999999999998,-2707.2],[-1843.1999999999998,-2726.4]]]]}},{"type":"Feature","properties":{"kind":"district","id":109,"name":"Anchor Heights"},"geometry":{"type":"MultiPolygon","coordinates":[[[[-2054.4,-2016],[-1785.6,-2016],[-1785.6,-1996.8],[-1708.8,-1996.8],[-1708.8,-1977.6],[-1689.6,-1977.6],[-1689.6,-1958.3999999999999],[-1632,-1958.3999999999999],[-1632,-1939.1999999999998],[-1612.8,-1939.1999999999998],[-1612.8,-1920],[-1593.6,-1920],[-1593.6,-1881.6],[-1574.3999999999999,-1881.6],[-1574.3999999999999,-1804.8],[-1593.6,-1804.8],[-1593.6,-1747.2],[-1612.8,-1747.2],[-1612.8,-1708.8],[-1632,-1708.8],[-1632,-1670.3999999999999],[-1670.3999999999999,-1670.3999999999999],[-1670.3999999999999,-1651.2],[-1689.6,-1651.2],[-1689.6,-1632],[-1708.8,-1632],[-1708.8,-1612.8],[-1728,-1612.8],[-1728,-1593.6],[-1747.2,-1593.6],[-1747.2,-1574.3999999999999],[-1766.3999999999999,-1574.3999999999999],[-1766.3999999999999,-1555.2],[-1785.6,-1555.2],[-1785.6,-1536],[-1804.8,-1536],[-1804.8,-1516.8],[-1824,-1516.8],[-1824,-1478.3999999999999],[-1843.1999999999998,-1478.3999999999999],[-1843.1999999999998,-1459.2],[-1862.3999999999999,-1459.2],[-1862.3999999999999,-1401.6],[-1881.6,-1401.6],[-1881.6,-1344],[-1900.8,-1344],[-1900.8,-1248],[-1920,-1248],[-1920,-1113.6],[-1900.8,-1113.6],[-1900.8,-998.4],[-1920,-998.4],[-1920,-921.5999999999999],[-1939.1999999999998,-921.5999999999999],[-1939.1999999999998,-883.1999999999999],[-1958.3999999999999,-883.1999999999999],[-1958.3999999999999,-844.8],[-1977.6,-844.8],[-1977.6,-787.1999999999999],[-1996.8,-787.1999999999999],[-1996.8,-672],[-2016,-672],[-2016,-595.1999999999999],[-2035.1999999999998,-595.1999999999999],[-2035.1999999999998,-576],[-2054.4,-576],[-2054.4,-556.8],[-2073.6,-556.8],[-2073.6,-537.6],[-2092.7999999999997,-537.6],[-2092.7999999999997,-518.4],[-2112,-518.4],[-2112,-499.2],[-2188.7999999999997,-499.2],[-2188.7999999999997,-480],[-2227.2,-480],[-2227.2,-499.2],[-2380.7999999999997,-499.2],[-2380.7999999999997,-518.4],[-2419.2,-518.4],[-2419.2,-537.6],[-2438.4,-537.6],[-2438.4,-556.8],[-2476.7999999999997,-556.8],[-2476.7999999999997,-576],[-2534.4,-576],[-2534.4,-595.1999999999999],[-2553.6,-595.1999999999999],[-2553.6,-614.4],[-2592,-614.4],[-2592,-633.6],[-2668.7999999999997,-633.6],[-2668.7999999999997,-652.8],[-2688,-652.8],[-2688,-672],[-2707.2,-672],[-2707.2,-748.8],[-2688,-748.8],[-2688,-806.4],[-2668.7999999999997,-806.4],[-2668.7999999999997,-883.1999999999999],[-2649.6,-883.1999999999999],[-2649.6,-902.4],[-2630.4,-902.4],[-2630.4,-921.5999999999999],[-2611.2,-921.5999999999999],[-2611.2,-960],[-2592,-960],[-2592,-979.1999999999999],[-2572.7999999999997,-979.1999999999999],[-2572.7999999999997,-1017.5999999999999],[-2553.6,-1017.5999999999999],[-2553.6,-1036.8],[-2515.2,-1036.8],[-2515.2,-1056],[-2476.7999999999997,-1056],[-2476.7999999999997,-1075.2],[-2438.4,-1075.2],[-2438.4,-1094.3999999999999],[-2419.2,-1094.3999999999999],[-2419.2,-1113.6],[-2400,-1113.6],[-2400,-1152],[-2380.7999999999997,-1152],[-2380.7999999999997,-1171.2],[-2361.6,-1171.2],[-2361.6,-1209.6],[-2342.4,-1209.6],[-2342.4,-1228.8],[-2304,-1228.8],[-2304,-1113.6],[-2092.7999999999997,-1113.6],[-2092.7999999999997,-1382.3999999999999],[-2131.2,-1382.3999999999999],[-2131.2,-1420.8],[-2284.7999999999997,-1420.8],[-2284.7999999999997,-1401.6],[-2323.2,-1401.6],[-2323.2,-1382.3999999999999],[-2342.4,-1382.3999999999999],[-2342.4,-1401.6],[-2361.6,-1401.6],[-2361.6,-1440],[-2380.7999999999997,-1440],[-2380.7999999999997,-1478.3999999999999],[-2400,-1478.3999999999999],[-2400,-1516.8],[-2419.2,-1516.8],[-2419.2,-1574.3999999999999],[-2438.4,-1574.3999999999999],[-2438.4,-1612.8],[-2457.6,-1612.8],[-2457.6,-1670.3999999999999],[-2476.7999999999997,-1670.3999999999999],[-2476.7999999999997,-1766.3999999999999],[-2457.6,-1766.3999999999999],[-2457.6,-1785.6],[-2438.4,-1785.6],[-2438.4,-1804.8],[-2400,-1804.8],[-2400,-1824],[-2342.4,-1824],[-2342.4,-1843.1999999999998],[-2284.7999999999997,-1843.1999999999998],[-2284.7999999999997,-1862.3999999999999],[-2246.4,-1862.3999999999999],[-2246.4,-1881.6],[-2227.2,-1881.6],[-2227.2,-1900.8],[-2208,-1900.8],[-2208,-1920],[-2188.7999999999997,-1920],[-2188.7999999999997,-1939.1999999999998],[-2169.6,-1939.1999999999998],[-2169.6,-1958.3999999999999],[-2150.4,-1958.3999999999999],[-2150.4,-1977.6],[-2112,-1977.6],[-2112,-1996.8],[-2054.4,-1996.8],[-2054.4,-2016]]]]}},{"type":"Feature","properties":{"kind":"district","id":110,"name":"Beechwood Hills"},"geometry":{"type":"MultiPolygon","coordinates":[[[[-1152,-1708.8],[-1075.2,-1708.8],[-1075.2,-1612.8],[-1094.3999999999999,-1612.8],[-1094.3999999999999,-1497.6],[-1113.6,-1497.6],[-1113.6,-1459.2],[-1132.8,-1459.2],[-1132.8,-1440],[-1171.2,-1440],[-1171.2,-1420.8],[-1190.3999999999999,-1420.8],[-1190.3999999999999,-1401.6],[-1209.6,-1401.6],[-1209.6,-1363.2],[-1171.2,-1363.2],[-1171.2,-1344],[-1152,-1344],[-1152,-1324.8],[-1132.8,-1324.8],[-1132.8,-1305.6],[-1113.6,-1305.6],[-1113.6,-1209.6],[-1094.3999999999999,-1209.6],[-1094.3999999999999,-1152],[-1075.2,-1152],[-1075.2,-1094.3999999999999],[-1094.3999999999999,-1094.3999999999999],[-1094.3999999999999,-883.1999999999999],[-1075.2,-883.1999999999999],[-1075.2,-844.8],[-1094.3999999999999,-844.8],[-1094.3999999999999,-806.4],[-1113.6,-806.4],[-1113.6,-710.4],[-1132.8,-710.4],[-1132.8,-691.1999999999999],[-1152,-691.1999999999999],[-1152,-672],[-1190.3999999999999,-672],[-1190.3999999999999,-652.8],[-1267.2,-652.8],[-1267.2,-633.6],[-1305.6,-633.6],[-1305.6,-614.4],[-1440,-614.4],[-1440,-633.6],[-1497.6,-633.6],[-1497.6,-614.4],[-1593.6,-614.4],[-1593.6,-595.1999999999999],[-1612.8,-595.1999999999999],[-1612.8,-576],[-1632,-576],[-1632,-556.8],[-1651.2,-556.8],[-1651.2,-537.6],[-1670.3999999999999,-537.6],[-1670.3999999999999,-499.2],[-1689.6,-499.2],[-1689.6,-480],[-1728,-480],[-1728,-499.2],[-1785.6,-499.2],[-1785.6,-518.4],[-1804.8,-518.4],[-1804.8,-537.6],[-1824,-537.6],[-1824,-576],[-1843.1999999999998,-576],[-1843.1999999999998,-633.6],[-1824,-633.6],[-1824,-710.4],[-1804.8,-710.4],[-1804.8,-768],[-1785.6,-768],[-1785.6,-825.6],[-1766.3999999999999,-825.6],[-1766.3999999999999,-940.8],[-1747.2,-940.8],[-1747.2,-1017.5999999999999],[-1728,-1017.5999999999999],[-1728,-1094.3999999999999],[-1708.8,-1094.3999999999999],[-1708.8,-1152],[-1689.6,-1152],[-1689.6,-1324.8],[-1670.3999999999999,-1324.8],[-1670.3999999999999,-1401.6],[-1651.2,-1401.6],[-1651.2,-1440],[-1632,-1440],[-1632,-1459.2],[-1612.8,-1459.2],[-1612.8,-1478.3999999999999],[-1593.6,-1478.3999999999999],[-1593.6,-1497.6],[-1574.3999999999999,-1497.6],[-1574.3999999999999,-1516.8],[-1555.2,-1516.8],[-1555.2,-1536],[-1536,-1536],[-1536,-1555.2],[-1516.8,-1555.2],[-1516.8,-1593.6],[-1497.6,-1593.6],[-1497.6,-1612.8],[-1440,-1612.8],[-1440,-1632],[-1401.6,-1632],[-1401.6,-1651.2],[-1248,-1651.2],[-1248,-1670.3999999999999],[-1190.3999999999999,-1670.3999999999999],[-1190.3999999999999,-1689.6],[-1152,-1689.6],[-1152,-1708.8]]]]}},{"type":"Feature","properties":{"kind":"district","id":111,"name":"Lake Park"},"geometry":{"type":"MultiPolygon","coordinates":[[[[-614.4,1420.8],[-518.4,1420.8],[-518.4,1440],[-480,1440],[-480,1459.2],[-460.79999999999995,1459.2],[-460.79999999999995,1497.6],[-441.59999999999997,1497.6],[-441.59999999999997,1555.2],[-422.4,1555.2],[-422.4,1689.6],[-441.59999999999997,1689.6],[-441.59999999999997,1747.2],[-460.79999999999995,1747.2],[-460.79999999999995,1824],[-441.59999999999997,1824],[-441.59999999999997,1862.3999999999999],[-422.4,1862.3999999999999],[-422.4,1920],[-441.59999999999997,1920],[-441.59999999999997,1939.1999999999998],[-460.79999999999995,1939.1999999999998],[-460.79999999999995,1958.3999999999999],[-499.2,1958.3999999999999],[-499.2,1977.6],[-537.6,1977.6],[-537.6,1996.8],[-556.8,1996.8],[-556.8,2016],[-576,2016],[-576,2035.1999999999998],[-595.1999999999999,2035.1999999999998],[-595.1999999999999,2054.4],[-614.4,2054.4],[-614.4,2092.7999999999997],[-633.6,2092.7999999999997],[-633.6,2150.4],[-652.8,2150.4],[-652.8,2188.7999999999997],[-672,2188.7999999999997],[-672,2208],[-691.1999999999999,2208],[-691.1999999999999,2227.2],[-710.4,2227.2],[-710.4,2246.4],[-921.5999999999999,2246.4],[-921.5999999999999,2265.6],[-940.8,2265.6],[-940.8,2246.4],[-960,2246.4],[-960,2227.2],[-1036.8,2227.2],[-1036.8,2246.4],[-1075.2,2246.4],[-1075.2,2227.2],[-1113.6,2227.2],[-1113.6,2208],[-1132.8,2208],[-1132.8,2188.7999999999997],[-1152,2188.7999999999997],[-1152,2150.4],[-1171.2,2150.4],[-1171.2,2035.1999999999998],[-1190.3999999999999,2035.1999999999998],[-1190.3999999999999,1996.8],[-1094.3999999999999,1996.8],[-1094.3999999999999,1977.6],[-1075.2,1977.6],[-1075.2,1958.3999999999999],[-1056,1958.3999999999999],[-1056,1939.1999999999998],[-1036.8,1939.1999999999998],[-1036.8,1920],[-1017.5999999999999,1920],[-1017.5999999999999,1881.6],[-998.4,1881.6],[-998.4,1862.3999999999999],[-979.1999999999999,1862.3999999999999],[-979.1999999999999,1728],[-998.4,1728],[-998.4,1708.8],[-1036.8,1708.8],[-1036.8,1632],[-864,1632],[-864,1612.8],[-825.6,1612.8],[-825.6,1593.6],[-748.8,1593.6],[-748.8,1612.8],[-729.6,1612.8],[-729.6,1632],[-672,1632],[-672,1612.8],[-652.8,1612.8],[-652.8,1593.6],[-633.6,1593.6],[-633.6,1440],[-614.4,1440],[-614.4,1420.8]]]]}},{"type":"Feature","properties":{"kind":"district","id":112,"name":"High Park"},"geometry":{"type":"MultiPolygon","coordinates":[[[[211.2,-2764.7999999999997],[345.59999999999997,-2764.7999999999997],[345.59999999999997,-2745.6],[364.8,-2745.6],[364.8,-2726.4],[384,-2726.4],[384,-2707.2],[480,-2707.2],[480,-2688],[576,-2688],[576,-2668.7999999999997],[614.4,-2668.7999999999997],[614.4,-2649.6],[652.8,-2649.6],[652.8,-2611.2],[672,-2611.2],[672,-2553.6],[691.1999999999999,-2553.6],[691.1999999999999,-2534.4],[672,-2534.4],[672,-2496],[614.4,-2496],[614.4,-2476.7999999999997],[595.1999999999999,-2476.7999999999997],[595.1999999999999,-2457.6],[576,-2457.6],[576,-2419.2],[556.8,-2419.2],[556.8,-2380.7999999999997],[537.6,-2380.7999999999997],[537.6,-2073.6],[556.8,-2073.6],[556.8,-2035.1999999999998],[576,-2035.1999999999998],[576,-2016],[595.1999999999999,-2016],[595.1999999999999,-1977.6],[614.4,-1977.6],[614.4,-1939.1999999999998],[633.6,-1939.1999999999998],[633.6,-1747.2],[614.4,-1747.2],[614.4,-1728],[595.1999999999999,-1728],[595.1999999999999,-1689.6],[556.8,-1689.6],[556.8,-1670.3999999999999],[422.4,-1670.3999999999999],[422.4,-1689.6],[403.2,-1689.6],[403.2,-1728],[384,-1728],[384,-1785.6],[364.8,-1785.6],[364.8,-1804.8],[345.59999999999997,-1804.8],[345.59999999999997,-1843.1999999999998],[326.4,-1843.1999999999998],[326.4,-1862.3999999999999],[288,-1862.3999999999999],[288,-1881.6],[268.8,-1881.6],[268.8,-1900.8],[192,-1900.8],[192,-1920],[-153.6,-1920],[-153.6,-1939.1999999999998],[-230.39999999999998,-1939.1999999999998],[-230.39999999999998,-1958.3999999999999],[-268.8,-1958.3999999999999],[-268.8,-1977.6],[-288,-1977.6],[-288,-1996.8],[-326.4,-1996.8],[-326.4,-2016],[-345.59999999999997,-2016],[-345.59999999999997,-2035.1999999999998],[-384,-2035.1999999999998],[-384,-2054.4],[-403.2,-2054.4],[-403.2,-2073.6],[-422.4,-2073.6],[-422.4,-2092.7999999999997],[-441.59999999999997,-2092.7999999999997],[-441.59999999999997,-2112],[-595.1999999999999,-2112],[-595.1999999999999,-2131.2],[-633.6,-2131.2],[-633.6,-2150.4],[-652.8,-2150.4],[-652.8,-2169.6],[-672,-2169.6],[-672,-2188.7999999999997],[-691.1999999999999,-2188.7999999999997],[-691.1999999999999,-2227.2],[-710.4,-2227.2],[-710.4,-2246.4],[-729.6,-2246.4],[-729.6,-2265.6],[-748.8,-2265.6],[-748.8,-2284.7999999999997],[-825.6,-2284.7999999999997],[-825.6,-2304],[-864,-2304],[-864,-2323.2],[-883.1999999999999,-2323.2],[-883.1999999999999,-2304],[-902.4,-2304],[-902.4,-2323.2],[-1056,-2323.2],[-1056,-2342.4],[-1094.3999999999999,-2342.4],[-1094.3999999999999,-2361.6],[-1113.6,-2361.6],[-1113.6,-2380.7999999999997],[-1132.8,-2380.7999999999997],[-1132.8,-2419.2],[-1152,-2419.2],[-1152,-2496],[-1132.8,-2496],[-1132.8,-2534.4],[-1113.6,-2534.4],[-1113.6,-2553.6],[-1094.3999999999999,-2553.6],[-1094.3999999999999,-2572.7999999999997],[-1075.2,-2572.7999999999997],[-1075.2,-2592],[-1056,-2592],[-1056,-2611.2],[-1017.5999999999999,-2611.2],[-1017.5999999999999,-2630.4],[-960,-2630.4],[-960,-2649.6],[-902.4,-2649.6],[-902.4,-2668.7999999999997],[-844.8,-2668.7999999999997],[-844.8,-2688],[-556.8,-2688],[-556.8,-2668.7999999999997],[-403.2,-2668.7999999999997],[-403.2,-2649.6],[-288,-2649.6],[-288,-2668.7999999999997],[-249.6,-2668.7999999999997],[-249.6,-2688],[-172.79999999999998,-2688],[-172.79999999999998,-2668.7999999999997],[-115.19999999999999,-2668.7999999999997],[-115.19999999999999,-2649.6],[-76.8,-2649.6],[-76.8,-2630.4],[-57.599999999999994,-2630.4],[-57.599999999999994,-2611.2],[134.4,-2611.2],[134.4,-2649.6],[153.6,-2649.6],[153.6,-2668.7999999999997],[172.79999999999998,-2668.7999999999997],[172.79999999999998,-2707.2],[192,-2707.2],[192,-2745.6],[211.2,-2745.6],[211.2,-2764.7999999999997]]]]}},{"type":"Feature","properties":{"kind":"district","id":113,"name":"Olive Heights"},"geometry":{"type":"MultiPolygon","coordinates":[[[[2304,-2803.2],[2707.2,-2803.2],[2707.2,-2784],[2726.4,-2784],[2726.4,-2764.7999999999997],[2745.6,-2764.7999999999997],[2745.6,-2745.6],[2764.7999999999997,-2745.6],[2764.7999999999997,-2726.4],[2784,-2726.4],[2784,-2688],[2803.2,-2688],[2803.2,-2611.2],[2822.4,-2611.2],[2822.4,-2092.7999999999997],[2803.2,-2092.7999999999997],[2803.2,-1228.8],[2822.4,-1228.8],[2822.4,-1132.8],[2803.2,-1132.8],[2803.2,-1094.3999999999999],[2784,-1094.3999999999999],[2784,-1056],[2764.7999999999997,-1056],[2764.7999999999997,-1036.8],[2745.6,-1036.8],[2745.6,-1017.5999999999999],[2726.4,-1017.5999999999999],[2726.4,-998.4],[2707.2,-998.4],[2707.2,-960],[2688,-960],[2688,-940.8],[2668.7999999999997,-940.8],[2668.7999999999997,-921.5999999999999],[2649.6,-921.5999999999999],[2649.6,-902.4],[2630.4,-902.4],[2630.4,-844.8],[2611.2,-844.8],[2611.2,-825.6],[2592,-825.6],[2592,-787.1999999999999],[2572.7999999999997,-787.1999999999999],[2572.7999999999997,-748.8],[2553.6,-748.8],[2553.6,-710.4],[2534.4,-710.4],[2534.4,-691.1999999999999],[2515.2,-691.1999999999999],[2515.2,-576],[2496,-576],[2496,-518.4],[2476.7999999999997,-518.4],[2476.7999999999997,-499.2],[2457.6,-499.2],[2457.6,-460.79999999999995],[2438.4,-460.79999999999995],[2438.4,-422.4],[2419.2,-422.4],[2419.2,-384],[2400,-384],[2400,-364.8],[2380.7999999999997,-364.8],[2380.7999999999997,-345.59999999999997],[2342.4,-345.59999999999997],[2342.4,-326.4],[2323.2,-326.4],[2323.2,-345.59999999999997],[2284.7999999999997,-345.59999999999997],[2284.7999999999997,-652.8],[2304,-652.8],[2304,-729.6],[2323.2,-729.6],[2323.2,-768],[2304,-768],[2304,-844.8],[2284.7999999999997,-844.8],[2284.7999999999997,-1132.8],[2304,-1132.8],[2304,-1171.2],[2323.2,-1171.2],[2323.2,-1248],[2304,-1248],[2304,-1305.6],[2323.2,-1305.6],[2323.2,-1382.3999999999999],[2304,-1382.3999999999999],[2304,-1420.8],[2284.7999999999997,-1420.8],[2284.7999999999997,-1958.3999999999999],[2304,-1958.3999999999999],[2304,-2054.4],[2323.2,-2054.4],[2323.2,-2073.6],[2304,-2073.6],[2304,-2150.4],[2284.7999999999997,-2150.4],[2284.7999999999997,-2496],[2304,-2496],[2304,-2553.6],[2323.2,-2553.6],[2323.2,-2611.2],[2304,-2611.2],[2304,-2630.4],[2284.7999999999997,-2630.4],[2284.7999999999997,-2649.6],[2265.6,-2649.6],[2265.6,-2764.7999999999997],[2284.7999999999997,-2764.7999999999997],[2284.7999999999997,-2784],[2304,-2784],[2304,-2803.2]]]]}},{"type":"Feature","properties":{"kind":"district","id":114,"name":"Magnolia Park"},"geometry":{"type":"MultiPolygon","coordinates":[[[[1324.8,-2803.2],[2265.6,-2803.2],[2265.6,-2649.6],[2208,-2649.6],[2208,-2630.4],[2188.7999999999997,-2630.4],[2188.7999999999997,-2611.2],[2169.6,-2611.2],[2169.6,-2572.7999999999997],[2188.7999999999997,-2572.7999999999997],[2188.7999999999997,-2515.2],[2208,-2515.2],[2208,-2150.4],[2188.7999999999997,-2150.4],[2188.7999999999997,-2073.6],[2169.6,-2073.6],[2169.6,-2054.4],[2188.7999999999997,-2054.4],[2188.7999999999997,-1958.3999999999999],[2208,-1958.3999999999999],[2208,-1363.2],[2188.7999999999997,-1363.2],[2188.7999999999997,-1324.8],[2092.7999999999997,-1324.8],[2092.7999999999997,-1305.6],[1785.6,-1305.6],[1785.6,-1324.8],[1728,-1324.8],[1728,-1344],[1708.8,-1344],[1708.8,-1363.2],[1689.6,-1363.2],[1689.6,-1382.3999999999999],[1670.3999999999999,-1382.3999999999999],[1670.3999999999999,-1401.6],[1651.2,-1401.6],[1651.2,-1420.8],[1632,-1420.8],[1632,-1440],[1612.8,-1440],[1612.8,-1459.2],[1593.6,-1459.2],[1593.6,-1516.8],[1574.3999999999999,-1516.8],[1574.3999999999999,-1536],[1516.8,-1536],[1516.8,-1516.8],[1497.6,-1516.8],[1497.6,-1478.3999999999999],[1478.3999999999999,-1478.3999999999999],[1478.3999999999999,-1440],[1459.2,-1440],[1459.2,-1420.8],[1440,-1420.8],[1440,-1382.3999999999999],[1401.6,-1382.3999999999999],[1401.6,-1363.2],[1382.3999999999999,-1363.2],[1382.3999999999999,-1344],[1363.2,-1344],[1363.2,-1324.8],[1305.6,-1324.8],[1305.6,-1305.6],[1056,-1305.6],[1056,-1324.8],[1036.8,-1324.8],[1036.8,-1344],[1017.5999999999999,-1344],[1017.5999999999999,-1382.3999999999999],[998.4,-1382.3999999999999],[998.4,-1478.3999999999999],[979.1999999999999,-1478.3999999999999],[979.1999999999999,-1555.2],[960,-1555.2],[960,-1670.3999999999999],[940.8,-1670.3999999999999],[940.8,-1939.1999999999998],[921.5999999999999,-1939.1999999999998],[921.5999999999999,-1977.6],[902.4,-1977.6],[902.4,-1996.8],[883.1999999999999,-1996.8],[883.1999999999999,-2035.1999999999998],[864,-2035.1999999999998],[864,-2092.7999999999997],[844.8,-2092.7999999999997],[844.8,-2169.6],[825.6,-2169.6],[825.6,-2246.4],[844.8,-2246.4],[844.8,-2304],[864,-2304],[864,-2361.6],[883.1999999999999,-2361.6],[883.1999999999999,-2380.7999999999997],[902.4,-2380.7999999999997],[902.4,-2400],[921.5999999999999,-2400],[921.5999999999999,-2438.4],[940.8,-2438.4],[940.8,-2457.6],[960,-2457.6],[960,-2476.7999999999997],[979.1999999999999,-2476.7999999999997],[979.1999999999999,-2496],[998.4,-2496],[998.4,-2534.4],[1017.5999999999999,-2534.4],[1017.5999999999999,-2572.7999999999997],[1036.8,-2572.7999999999997],[1036.8,-2592],[1056,-2592],[1056,-2630.4],[1075.2,-2630.4],[1075.2,-2649.6],[1094.3999999999999,-2649.6],[1094.3999999999999,-2668.7999999999997],[1113.6,-2668.7999999999997],[1113.6,-2688],[1132.8,-2688],[1132.8,-2707.2],[1152,-2707.2],[1152,-2726.4],[1171.2,-2726.4],[1171.2,-2745.6],[1209.6,-2745.6],[1209.6,-2764.7999999999997],[1248,-2764.7999999999997],[1248,-2784],[1324.8,-2784],[1324.8,-2803.2]]]]}},{"type":"Feature","properties":{"kind":"district","id":115,"name":"Foggy District"},"geometry":{"type":"MultiPolygon","coordinates":[[[[1152,-1248],[1305.6,-1248],[1305.6,-1228.8],[1382.3999999999999,-1228.8],[1382.3999999999999,-1209.6],[1401.6,-1209.6],[1401.6,-1190.3999999999999],[1420.8,-1190.3999999999999],[1420.8,-1171.2],[1440,-1171.2],[1440,-1152],[1459.2,-1152],[1459.2,-1113.6],[1478.3999999999999,-1113.6],[1478.3999999999999,-1075.2],[1497.6,-1075.2],[1497.6,-1036.8],[1516.8,-1036.8],[1516.8,-1017.5999999999999],[1574.3999999999999,-1017.5999999999999],[1574.3999999999999,-1036.8],[1593.6,-1036.8],[1593.6,-1075.2],[1612.8,-1075.2],[1612.8,-1113.6],[1632,-1113.6],[1632,-1132.8],[1651.2,-1132.8],[1651.2,-1152],[1670.3999999999999,-1152],[1670.3999999999999,-1171.2],[1689.6,-1171.2],[1689.6,-1190.3999999999999],[1708.8,-1190.3999999999999],[1708.8,-1209.6],[1728,-1209.6],[1728,-1228.8],[1785.6,-1228.8],[1785.6,-1248],[2092.7999999999997,-1248],[2092.7999999999997,-1228.8],[2188.7999999999997,-1228.8],[2188.7999999999997,-1190.3999999999999],[2208,-1190.3999999999999],[2208,-844.8],[2188.7999999999997,-844.8],[2188.7999999999997,-768],[2169.6,-768],[2169.6,-729.6],[2188.7999999999997,-729.6],[2188.7999999999997,-652.8],[2208,-652.8],[2208,-364.8],[2131.2,-364.8],[2131.2,-384],[2092.7999999999997,-384],[2092.7999999999997,-403.2],[2054.4,-403.2],[2054.4,-422.4],[2016,-422.4],[2016,-441.59999999999997],[1996.8,-441.59999999999997],[1996.8,-460.79999999999995],[1977.6,-460.79999999999995],[1977.6,-480],[1958.3999999999999,-480],[1958.3999999999999,-499.2],[1939.1999999999998,-499.2],[1939.1999999999998,-518.4],[1920,-518.4],[1920,-537.6],[1881.6,-537.6],[1881.6,-556.8],[1862.3999999999999,-556.8],[1862.3999999999999,-576],[1824,-576],[1824,-595.1999999999999],[1804.8,-595.1999999999999],[1804.8,-614.4],[1785.6,-614.4],[1785.6,-633.6],[1728,-633.6],[1728,-652.8],[1708.8,-652.8],[1708.8,-672],[1670.3999999999999,-672],[1670.3999999999999,-691.1999999999999],[1632,-691.1999999999999],[1632,-710.4],[1612.8,-710.4],[1612.8,-729.6],[1574.3999999999999,-729.6],[1574.3999999999999,-748.8],[1497.6,-748.8],[1497.6,-768],[1440,-768],[1440,-787.1999999999999],[1305.6,-787.1999999999999],[1305.6,-806.4],[1267.2,-806.4],[1267.2,-825.6],[1228.8,-825.6],[1228.8,-844.8],[1209.6,-844.8],[1209.6,-864],[1171.2,-864],[1171.2,-883.1999999999999],[1152,-883.1999999999999],[1152,-902.4],[1132.8,-902.4],[1132.8,-921.5999999999999],[1113.6,-921.5999999999999],[1113.6,-940.8],[1094.3999999999999,-940.8],[1094.3999999999999,-960],[1075.2,-960],[1075.2,-998.4],[1056,-998.4],[1056,-1036.8],[1036.8,-1036.8],[1036.8,-1075.2],[1017.5999999999999,-1075.2],[1017.5999999999999,-1190.3999999999999],[1036.8,-1190.3999999999999],[1036.8,-1209.6],[1056,-1209.6],[1056,-1228.8],[1152,-1228.8],[1152,-1248]]]]}},{"type":"Feature","properties":{"kind":"district","id":116,"name":"Green District"},"geometry":{"type":"MultiPolygon","coordinates":[[[[1632,1670.3999999999999],[1670.3999999999999,1670.3999999999999],[1670.3999999999999,1689.6],[1728,1689.6],[1728,1708.8],[1747.2,1708.8],[1747.2,1728],[1766.3999999999999,1728],[1766.3999999999999,1747.2],[1804.8,1747.2],[1804.8,1766.3999999999999],[1824,1766.3999999999999],[1824,1785.6],[1843.1999999999998,1785.6],[1843.1999999999998,1804.8],[1862.3999999999999,1804.8],[1862.3999999999999,1862.3999999999999],[1881.6,1862.3999999999999],[1881.6,1920],[1900.8,1920],[1900.8,1977.6],[1881.6,1977.6],[1881.6,2035.1999999999998],[1862.3999999999999,2035.1999999999998],[1862.3999999999999,2054.4],[1843.1999999999998,2054.4],[1843.1999999999998,2073.6],[1824,2073.6],[1824,2092.7999999999997],[1708.8,2092.7999999999997],[1708.8,2112],[1689.6,2112],[1689.6,2092.7999999999997],[1632,2092.7999999999997],[1632,2073.6],[1612.8,2073.6],[1612.8,2054.4],[1593.6,2054.4],[1593.6,2035.1999999999998],[1574.3999999999999,2035.1999999999998],[1574.3999999999999,2016],[1555.2,2016],[1555.2,1996.8],[1536,1996.8],[1536,1958.3999999999999],[1516.8,1958.3999999999999],[1516.8,1939.1999999999998],[1497.6,1939.1999999999998],[1497.6,1900.8],[1478.3999999999999,1900.8],[1478.3999999999999,1824],[1497.6,1824],[1497.6,1785.6],[1516.8,1785.6],[1516.8,1747.2],[1536,1747.2],[1536,1728],[1555.2,1728],[1555.2,1708.8],[1574.3999999999999,1708.8],[1574.3999999999999,1689.6],[1632,1689.6],[1632,1670.3999999999999]]]]}},{"type":"Feature","properties":{"kind":"district","id":117,"name":"Hemlock Heights"},"geometry":{"type":"MultiPolygon","coordinates":[[[[384,864],[768,864],[768,883.1999999999999],[806.4,883.1999999999999],[806.4,902.4],[921.5999999999999,902.4],[921.5999999999999,940.8],[940.8,940.8],[940.8,960],[960,960],[960,998.4],[1017.5999999999999,998.4],[1017.5999999999999,960],[1036.8,960],[1036.8,940.8],[1056,940.8],[1056,921.5999999999999],[1075.2,921.5999999999999],[1075.2,902.4],[1190.3999999999999,902.4],[1190.3999999999999,883.1999999999999],[1228.8,883.1999999999999],[1228.8,864],[1382.3999999999999,864],[1382.3999999999999,883.1999999999999],[1536,883.1999999999999],[1536,902.4],[1612.8,902.4],[1612.8,921.5999999999999],[1632,921.5999999999999],[1632,940.8],[1651.2,940.8],[1651.2,960],[1670.3999999999999,960],[1670.3999999999999,979.1999999999999],[1689.6,979.1999999999999],[1689.6,998.4],[1708.8,998.4],[1708.8,1036.8],[1728,1036.8],[1728,1075.2],[1747.2,1075.2],[1747.2,1094.3999999999999],[1766.3999999999999,1094.3999999999999],[1766.3999999999999,1132.8],[1785.6,1132.8],[1785.6,1171.2],[1804.8,1171.2],[1804.8,1228.8],[1824,1228.8],[1824,1305.6],[1843.1999999999998,1305.6],[1843.1999999999998,1324.8],[1862.3999999999999,1324.8],[1862.3999999999999,1344],[1920,1344],[1920,1382.3999999999999],[1939.1999999999998,1382.3999999999999],[1939.1999999999998,1420.8],[1958.3999999999999,1420.8],[1958.3999999999999,1497.6],[1862.3999999999999,1497.6],[1862.3999999999999,1478.3999999999999],[1843.1999999999998,1478.3999999999999],[1843.1999999999998,1459.2],[1824,1459.2],[1824,1440],[1804.8,1440],[1804.8,1420.8],[1785.6,1420.8],[1785.6,1401.6],[1747.2,1401.6],[1747.2,1382.3999999999999],[1632,1382.3999999999999],[1632,1401.6],[1555.2,1401.6],[1555.2,1420.8],[1516.8,1420.8],[1516.8,1440],[1478.3999999999999,1440],[1478.3999999999999,1459.2],[1440,1459.2],[1440,1478.3999999999999],[1420.8,1478.3999999999999],[1420.8,1497.6],[1382.3999999999999,1497.6],[1382.3999999999999,1516.8],[1363.2,1516.8],[1363.2,1536],[1344,1536],[1344,1555.2],[1324.8,1555.2],[1324.8,1574.3999999999999],[1305.6,1574.3999999999999],[1305.6,1612.8],[1286.3999999999999,1612.8],[1286.3999999999999,1632],[1267.2,1632],[1267.2,1689.6],[1248,1689.6],[1248,1728],[1228.8,1728],[1228.8,1747.2],[1209.6,1747.2],[1209.6,1766.3999999999999],[1190.3999999999999,1766.3999999999999],[1190.3999999999999,1785.6],[1171.2,1785.6],[1171.2,1804.8],[1132.8,1804.8],[1132.8,1824],[1113.6,1824],[1113.6,1843.1999999999998],[1075.2,1843.1999999999998],[1075.2,1862.3999999999999],[1056,1862.3999999999999],[1056,1881.6],[1036.8,1881.6],[1036.8,1900.8],[998.4,1900.8],[998.4,1920],[979.1999999999999,1920],[979.1999999999999,1939.1999999999998],[960,1939.1999999999998],[960,1958.3999999999999],[921.5999999999999,1958.3999999999999],[921.5999999999999,1977.6],[864,1977.6],[864,1996.8],[787.1999999999999,1996.8],[787.1999999999999,2016],[748.8,2016],[748.8,2035.1999999999998],[691.1999999999999,2035.1999999999998],[691.1999999999999,2054.4],[614.4,2054.4],[614.4,2073.6],[518.4,2073.6],[518.4,2092.7999999999997],[460.79999999999995,2092.7999999999997],[460.79999999999995,2112],[422.4,2112],[422.4,2131.2],[384,2131.2],[384,2150.4],[364.8,2150.4],[364.8,2169.6],[345.59999999999997,2169.6],[345.59999999999997,2304],[326.4,2304],[326.4,2342.4],[230.39999999999998,2342.4],[230.39999999999998,2323.2],[211.2,2323.2],[211.2,2188.7999999999997],[192,2188.7999999999997],[192,1977.6],[172.79999999999998,1977.6],[172.79999999999998,1593.6],[192,1593.6],[192,1382.3999999999999],[172.79999999999998,1382.3999999999999],[172.79999999999998,1075.2],[192,1075.2],[192,1036.8],[211.2,1036.8],[211.2,1017.5999999999999],[230.39999999999998,1017.5999999999999],[230.39999999999998,998.4],[268.8,998.4],[268.8,979.1999999999999],[307.2,979.1999999999999],[307.2,940.8],[326.4,940.8],[326.4,902.4],[345.59999999999997,902.4],[345.59999999999997,883.1999999999999],[384,883.1999999999999],[384,864]]]]}},{"type":"Feature","properties":{"kind":"district","id":118,"name":"Valley District"},"geometry":{"type":"MultiPolygon","coordinates":[[[[2227.2,-57.599999999999994],[2304,-57.599999999999994],[2304,-38.4],[2438.4,-38.4],[2438.4,-19.2],[2592,-19.2],[2592,0],[2611.2,0],[2611.2,19.2],[2649.6,19.2],[2649.6,38.4],[2668.7999999999997,38.4],[2668.7999999999997,76.8],[2688,76.8],[2688,134.4],[2668.7999999999997,134.4],[2668.7999999999997,211.2],[2649.6,211.2],[2649.6,230.39999999999998],[2630.4,230.39999999999998],[2630.4,249.6],[2611.2,249.6],[2611.2,288],[2592,288],[2592,345.59999999999997],[2572.7999999999997,345.59999999999997],[2572.7999999999997,384],[2553.6,384],[2553.6,403.2],[2534.4,403.2],[2534.4,441.59999999999997],[2515.2,441.59999999999997],[2515.2,460.79999999999995],[2496,460.79999999999995],[2496,499.2],[2476.7999999999997,499.2],[2476.7999999999997,518.4],[2457.6,518.4],[2457.6,556.8],[2438.4,556.8],[2438.4,576],[2419.2,576],[2419.2,595.1999999999999],[2400,595.1999999999999],[2400,614.4],[2380.7999999999997,614.4],[2380.7999999999997,633.6],[2361.6,633.6],[2361.6,652.8],[2323.2,652.8],[2323.2,672],[2304,672],[2304,710.4],[2284.7999999999997,710.4],[2284.7999999999997,729.6],[2265.6,729.6],[2265.6,748.8],[2246.4,748.8],[2246.4,768],[2227.2,768],[2227.2,787.1999999999999],[2208,787.1999999999999],[2208,806.4],[2188.7999999999997,806.4],[2188.7999999999997,844.8],[2169.6,844.8],[2169.6,864],[2150.4,864],[2150.4,902.4],[2131.2,902.4],[2131.2,940.8],[2112,940.8],[2112,998.4],[2092.7999999999997,998.4],[2092.7999999999997,1113.6],[2073.6,1113.6],[2073.6,1286.3999999999999],[2054.4,1286.3999999999999],[2054.4,1420.8],[2035.1999999999998,1420.8],[2035.1999999999998,1440],[1996.8,1440],[1996.8,1420.8],[1977.6,1420.8],[1977.6,1382.3999999999999],[1958.3999999999999,1382.3999999999999],[1958.3999999999999,1344],[1939.1999999999998,1344],[1939.1999999999998,1324.8],[1958.3999999999999,1324.8],[1958.3999999999999,1228.8],[1939.1999999999998,1228.8],[1939.1999999999998,1209.6],[1920,1209.6],[1920,1190.3999999999999],[1900.8,1190.3999999999999],[1900.8,1171.2],[1881.6,1171.2],[1881.6,1152],[1862.3999999999999,1152],[1862.3999999999999,1132.8],[1843.1999999999998,1132.8],[1843.1999999999998,1094.3999999999999],[1824,1094.3999999999999],[1824,1075.2],[1804.8,1075.2],[1804.8,998.4],[1785.6,998.4],[1785.6,960],[1766.3999999999999,960],[1766.3999999999999,940.8],[1747.2,940.8],[1747.2,883.1999999999999],[1728,883.1999999999999],[1728,748.8],[1747.2,748.8],[1747.2,729.6],[1766.3999999999999,729.6],[1766.3999999999999,672],[1785.6,672],[1785.6,652.8],[1804.8,652.8],[1804.8,633.6],[1824,633.6],[1824,595.1999999999999],[1843.1999999999998,595.1999999999999],[1843.1999999999998,576],[1881.6,576],[1881.6,556.8],[1920,556.8],[1920,537.6],[1939.1999999999998,537.6],[1939.1999999999998,518.4],[1977.6,518.4],[1977.6,460.79999999999995],[1996.8,460.79999999999995],[1996.8,441.59999999999997],[2016,441.59999999999997],[2016,384],[2035.1999999999998,384],[2035.1999999999998,364.8],[2054.4,364.8],[2054.4,326.4],[2073.6,326.4],[2073.6,307.2],[2092.7999999999997,307.2],[2092.7999999999997,288],[2112,288],[2112,268.8],[2131.2,268.8],[2131.2,230.39999999999998],[2150.4,230.39999999999998],[2150.4,192],[2169.6,192],[2169.6,153.6],[2188.7999999999997,153.6],[2188.7999999999997,115.19999999999999],[2208,115.19999999999999],[2208,57.599999999999994],[2227.2,57.599999999999994],[2227.2,-57.599999999999994]]]]}},{"type":"Feature","properties":{"kind":"district","id":119,"name":"Thornton Heights"},"geometry":{"type":"MultiPolygon","coordinates":[[[[364.8,-806.4],[422.4,-806.4],[422.4,-768],[441.59999999999997,-768],[441.59999999999997,-729.6],[422.4,-729.6],[422.4,-710.4],[403.2,-710.4],[403.2,-691.1999999999999],[384,-691.1999999999999],[384,-499.2],[403.2,-499.2],[403.2,-441.59999999999997],[422.4,-441.59999999999997],[422.4,-384],[441.59999999999997,-384],[441.59999999999997,-364.8],[460.79999999999995,-364.8],[460.79999999999995,-345.59999999999997],[480,-345.59999999999997],[480,-326.4],[499.2,-326.4],[499.2,-288],[518.4,-288],[518.4,-249.6],[537.6,-249.6],[537.6,-230.39999999999998],[556.8,-230.39999999999998],[556.8,-192],[576,-192],[576,-172.79999999999998],[595.1999999999999,-172.79999999999998],[595.1999999999999,-134.4],[614.4,-134.4],[614.4,-96],[633.6,-96],[633.6,-76.8],[652.8,-76.8],[652.8,-38.4],[672,-38.4],[672,-19.2],[691.1999999999999,-19.2],[691.1999999999999,19.2],[710.4,19.2],[710.4,57.599999999999994],[729.6,57.599999999999994],[729.6,76.8],[748.8,76.8],[748.8,115.19999999999999],[768,115.19999999999999],[768,134.4],[787.1999999999999,134.4],[787.1999999999999,153.6],[806.4,153.6],[806.4,192],[825.6,192],[825.6,211.2],[844.8,211.2],[844.8,230.39999999999998],[864,230.39999999999998],[864,249.6],[883.1999999999999,249.6],[883.1999999999999,268.8],[960,268.8],[960,288],[979.1999999999999,288],[979.1999999999999,268.8],[1036.8,268.8],[1036.8,249.6],[1094.3999999999999,249.6],[1094.3999999999999,230.39999999999998],[1113.6,230.39999999999998],[1113.6,211.2],[1132.8,211.2],[1132.8,192],[1152,192],[1152,172.79999999999998],[1171.2,172.79999999999998],[1171.2,134.4],[1190.3999999999999,134.4],[1190.3999999999999,115.19999999999999],[1209.6,115.19999999999999],[1209.6,96],[1228.8,96],[1228.8,76.8],[1248,76.8],[1248,57.599999999999994],[1267.2,57.599999999999994],[1267.2,38.4],[1286.3999999999999,38.4],[1286.3999999999999,19.2],[1305.6,19.2],[1305.6,0],[1324.8,0],[1324.8,-19.2],[1344,-19.2],[1344,-38.4],[1363.2,-38.4],[1363.2,-57.599999999999994],[1382.3999999999999,-57.599999999999994],[1382.3999999999999,-76.8],[1420.8,-76.8],[1420.8,-96],[1459.2,-96],[1459.2,-115.19999999999999],[1478.3999999999999,-115.19999999999999],[1478.3999999999999,-134.4],[1670.3999999999999,-134.4],[1670.3999999999999,-115.19999999999999],[1689.6,-115.19999999999999],[1689.6,-134.4],[1728,-134.4],[1728,-153.6],[1804.8,-153.6],[1804.8,-134.4],[1824,-134.4],[1824,-115.19999999999999],[1843.1999999999998,-115.19999999999999],[1843.1999999999998,-96],[1862.3999999999999,-96],[1862.3999999999999,-76.8],[1881.6,-76.8],[1881.6,-57.599999999999994],[1900.8,-57.599999999999994],[1900.8,-38.4],[1996.8,-38.4],[1996.8,-57.599999999999994],[2092.7999999999997,-57.599999999999994],[2092.7999999999997,-76.8],[2150.4,-76.8],[2150.4,-57.599999999999994],[2169.6,-57.599999999999994],[2169.6,0],[2150.4,0],[2150.4,76.8],[2131.2,76.8],[2131.2,115.19999999999999],[2112,115.19999999999999],[2112,172.79999999999998],[2092.7999999999997,172.79999999999998],[2092.7999999999997,192],[2073.6,192],[2073.6,230.39999999999998],[2054.4,230.39999999999998],[2054.4,249.6],[2035.1999999999998,249.6],[2035.1999999999998,268.8],[2016,268.8],[2016,307.2],[1996.8,307.2],[1996.8,326.4],[1977.6,326.4],[1977.6,345.59999999999997],[1939.1999999999998,345.59999999999997],[1939.1999999999998,364.8],[1920,364.8],[1920,384],[1900.8,384],[1900.8,403.2],[1862.3999999999999,403.2],[1862.3999999999999,422.4],[1843.1999999999998,422.4],[1843.1999999999998,460.79999999999995],[1824,460.79999999999995],[1824,499.2],[1804.8,499.2],[1804.8,537.6],[1785.6,537.6],[1785.6,576],[1766.3999999999999,576],[1766.3999999999999,595.1999999999999],[1728,595.1999999999999],[1728,614.4],[1689.6,614.4],[1689.6,652.8],[1670.3999999999999,652.8],[1670.3999999999999,672],[1651.2,672],[1651.2,710.4],[1632,710.4],[1632,729.6],[1612.8,729.6],[1612.8,748.8],[1593.6,748.8],[1593.6,768],[1536,768],[1536,787.1999999999999],[1459.2,787.1999999999999],[1459.2,806.4],[1420.8,806.4],[1420.8,787.1999999999999],[1401.6,787.1999999999999],[1401.6,806.4],[1228.8,806.4],[1228.8,787.1999999999999],[1209.6,787.1999999999999],[1209.6,768],[1075.2,768],[1075.2,748.8],[1056,748.8],[1056,710.4],[1036.8,710.4],[1036.8,691.1999999999999],[1017.5999999999999,691.1999999999999],[1017.5999999999999,672],[998.4,672],[998.4,652.8],[979.1999999999999,652.8],[979.1999999999999,672],[960,672],[960,710.4],[921.5999999999999,710.4],[921.5999999999999,748.8],[902.4,748.8],[902.4,768],[768,768],[768,787.1999999999999],[384,787.1999999999999],[384,768],[345.59999999999997,768],[345.59999999999997,748.8],[326.4,748.8],[326.4,710.4],[307.2,710.4],[307.2,672],[288,672],[288,652.8],[249.6,652.8],[249.6,633.6],[211.2,633.6],[211.2,614.4],[192,614.4],[192,576],[172.79999999999998,576],[172.79999999999998,268.8],[192,268.8],[192,230.39999999999998],[211.2,230.39999999999998],[211.2,115.19999999999999],[230.39999999999998,115.19999999999999],[230.39999999999998,96],[249.6,96],[249.6,76.8],[268.8,76.8],[268.8,57.599999999999994],[307.2,57.599999999999994],[307.2,38.4],[326.4,38.4],[326.4,0],[288,0],[288,-19.2],[268.8,-19.2],[268.8,-38.4],[249.6,-38.4],[249.6,-57.599999999999994],[230.39999999999998,-57.599999999999994],[230.39999999999998,-76.8],[211.2,-76.8],[211.2,-192],[192,-192],[192,-460.79999999999995],[211.2,-460.79999999999995],[211.2,-672],[230.39999999999998,-672],[230.39999999999998,-710.4],[249.6,-710.4],[249.6,-729.6],[288,-729.6],[288,-748.8],[307.2,-748.8],[307.2,-768],[326.4,-768],[326.4,-787.1999999999999],[364.8,-787.1999999999999],[364.8,-806.4]]]]}},{"type":"Feature","properties":{"kind":"district","id":120,"name":"Anchor Heights"},"geometry":{"type":"MultiPolygon","coordinates":[[[[-76.8,-1440],[115.19999999999999,-1440],[115.19999999999999,-1420.8],[172.79999999999998,-1420.8],[172.79999999999998,-1401.6],[249.6,-1401.6],[249.6,-1382.3999999999999],[288,-1382.3999999999999],[288,-1363.2],[345.59999999999997,-1363.2],[345.59999999999997,-1344],[403.2,-1344],[403.2,-1324.8],[441.59999999999997,-1324.8],[441.59999999999997,-1305.6],[460.79999999999995,-1305.6],[460.79999999999995,-1286.3999999999999],[499.2,-1286.3999999999999],[499.2,-1267.2],[518.4,-1267.2],[518.4,-1248],[652.8,-1248],[652.8,-1228.8],[672,-1228.8],[672,-1209.6],[691.1999999999999,-1209.6],[691.1999999999999,-1190.3999999999999],[710.4,-1190.3999999999999],[710.4,-1171.2],[729.6,-1171.2],[729.6,-1113.6],[710.4,-1113.6],[710.4,-1094.3999999999999],[672,-1094.3999999999999],[672,-1075.2],[652.8,-1075.2],[652.8,-1056],[614.4,-1056],[614.4,-1036.8],[595.1999999999999,-1036.8],[595.1999999999999,-1017.5999999999999],[556.8,-1017.5999999999999],[556.8,-998.4],[537.6,-998.4],[537.6,-979.1999999999999],[499.2,-979.1999999999999],[499.2,-960],[480,-960],[480,-940.8],[441.59999999999997,-940.8],[441.59999999999997,-921.5999999999999],[422.4,-921.5999999999999],[422.4,-902.4],[384,-902.4],[384,-883.1999999999999],[326.4,-883.1999999999999],[326.4,-864],[288,-864],[288,-844.8],[249.6,-844.8],[249.6,-825.6],[211.2,-825.6],[211.2,-806.4],[76.8,-806.4],[76.8,-825.6],[57.599999999999994,-825.6],[57.599999999999994,-844.8],[0,-844.8],[0,-864],[-19.2,-864],[-19.2,-883.1999999999999],[-57.599999999999994,-883.1999999999999],[-57.599999999999994,-902.4],[-76.8,-902.4],[-76.8,-921.5999999999999],[-96,-921.5999999999999],[-96,-940.8],[-115.19999999999999,-940.8],[-115.19999999999999,-960],[-134.4,-960],[-134.4,-998.4],[-153.6,-998.4],[-153.6,-1017.5999999999999],[-172.79999999999998,-1017.5999999999999],[-172.79999999999998,-1036.8],[-192,-1036.8],[-192,-1056],[-211.2,-1056],[-211.2,-1075.2],[-230.39999999999998,-1075.2],[-230.39999999999998,-1094.3999999999999],[-249.6,-1094.3999999999999],[-249.6,-1113.6],[-307.2,-1113.6],[-307.2,-1132.8],[-345.59999999999997,-1132.8],[-345.59999999999997,-1152],[-364.8,-1152],[-364.8,-1171.2],[-384,-1171.2],[-384,-1190.3999999999999],[-403.2,-1190.3999999999999],[-403.2,-1209.6],[-422.4,-1209.6],[-422.4,-1228.8],[-441.59999999999997,-1228.8],[-441.59999999999997,-1248],[-480,-1248],[-480,-1267.2],[-499.2,-1267.2],[-499.2,-1324.8],[-480,-1324.8],[-480,-1344],[-460.79999999999995,-1344],[-460.79999999999995,-1363.2],[-268.8,-1363.2],[-268.8,-1382.3999999999999],[-211.2,-1382.3999999999999],[-211.2,-1401.6],[-134.4,-1401.6],[-134.4,-1420.8],[-76.8,-1420.8],[-76.8,-1440]]]]}},{"type":"Feature","properties":{"kind":"district","id":121,"name":"Elk District"},"geometry":{"type":"MultiPolygon","coordinates":[[[[2457.6,652.8],[2534.4,652.8],[2534.4,672],[2572.7999999999997,672],[2572.7999999999997,691.1999999999999],[2592,691.1999999999999],[2592,710.4],[2611.2,710.4],[2611.2,729.6],[2630.4,729.6],[2630.4,1209.6],[2611.2,1209.6],[2611.2,1459.2],[2592,1459.2],[2592,1516.8],[2572.7999999999997,1516.8],[2572.7999999999997,1574.3999999999999],[2553.6,1574.3999999999999],[2553.6,1612.8],[2534.4,1612.8],[2534.4,1632],[2515.2,1632],[2515.2,1670.3999999999999],[2496,1670.3999999999999],[2496,1689.6],[2476.7999999999997,1689.6],[2476.7999999999997,1708.8],[2457.6,1708.8],[2457.6,1728],[2438.4,1728],[2438.4,1766.3999999999999],[2419.2,1766.3999999999999],[2419.2,1804.8],[2400,1804.8],[2400,1843.1999999999998],[2380.7999999999997,1843.1999999999998],[2380.7999999999997,1862.3999999999999],[2361.6,1862.3999999999999],[2361.6,1900.8],[2342.4,1900.8],[2342.4,1920],[2323.2,1920],[2323.2,1939.1999999999998],[2265.6,1939.1999999999998],[2265.6,1920],[2246.4,1920],[2246.4,1881.6],[2227.2,1881.6],[2227.2,1689.6],[2246.4,1689.6],[2246.4,1632],[2265.6,1632],[2265.6,1555.2],[2284.7999999999997,1555.2],[2284.7999999999997,1516.8],[2304,1516.8],[2304,1440],[2323.2,1440],[2323.2,1401.6],[2342.4,1401.6],[2342.4,1305.6],[2361.6,1305.6],[2361.6,1017.5999999999999],[2342.4,1017.5999999999999],[2342.4,998.4],[2361.6,998.4],[2361.6,729.6],[2380.7999999999997,729.6],[2380.7999999999997,710.4],[2400,710.4],[2400,691.1999999999999],[2419.2,691.1999999999999],[2419.2,672],[2457.6,672],[2457.6,652.8]]]]}},{"type":"Feature","properties":{"kind":"district","id":122,"name":"Sycamore Square"},"geometry":{"type":"MultiPolygon","coordinates":[[[[-940.8,-1267.2],[-672,-1267.2],[-672,-1248],[-595.1999999999999,-1248],[-595.1999999999999,-1228.8],[-556.8,-1228.8],[-556.8,-1209.6],[-518.4,-1209.6],[-518.4,-1190.3999999999999],[-480,-1190.3999999999999],[-480,-1171.2],[-460.79999999999995,-1171.2],[-460.79999999999995,-1152],[-441.59999999999997,-1152],[-441.59999999999997,-1132.8],[-422.4,-1132.8],[-422.4,-1113.6],[-403.2,-1113.6],[-403.2,-1094.3999999999999],[-364.8,-1094.3999999999999],[-364.8,-1056],[-345.59999999999997,-1056],[-345.59999999999997,-1017.5999999999999],[-326.4,-1017.5999999999999],[-326.4,-998.4],[-307.2,-998.4],[-307.2,-979.1999999999999],[-268.8,-979.1999999999999],[-268.8,-960],[-249.6,-960],[-249.6,-940.8],[-230.39999999999998,-940.8],[-230.39999999999998,-921.5999999999999],[-172.79999999999998,-921.5999999999999],[-172.79999999999998,-902.4],[-153.6,-902.4],[-153.6,-883.1999999999999],[-134.4,-883.1999999999999],[-134.4,-864],[-115.19999999999999,-864],[-115.19999999999999,-844.8],[-96,-844.8],[-96,-825.6],[-76.8,-825.6],[-76.8,-787.1999999999999],[-57.599999999999994,-787.1999999999999],[-57.599999999999994,-768],[-19.2,-768],[-19.2,-748.8],[0,-748.8],[0,-729.6],[38.4,-729.6],[38.4,-710.4],[57.599999999999994,-710.4],[57.599999999999994,-691.1999999999999],[76.8,-691.1999999999999],[76.8,-672],[96,-672],[96,-576],[115.19999999999999,-576],[115.19999999999999,-211.2],[96,-211.2],[96,-153.6],[76.8,-153.6],[76.8,-38.4],[38.4,-38.4],[38.4,-19.2],[0,-19.2],[0,0],[-19.2,0],[-19.2,38.4],[0,38.4],[0,57.599999999999994],[19.2,57.599999999999994],[19.2,76.8],[38.4,76.8],[38.4,96],[76.8,96],[76.8,211.2],[96,211.2],[96,249.6],[115.19999999999999,249.6],[115.19999999999999,576],[96,576],[96,614.4],[76.8,614.4],[76.8,633.6],[38.4,633.6],[38.4,652.8],[0,652.8],[0,672],[-19.2,672],[-19.2,691.1999999999999],[-38.4,691.1999999999999],[-38.4,729.6],[-57.599999999999994,729.6],[-57.599999999999994,768],[-96,768],[-96,787.1999999999999],[-825.6,787.1999999999999],[-825.6,768],[-844.8,768],[-844.8,748.8],[-979.1999999999999,748.8],[-979.1999999999999,729.6],[-998.4,729.6],[-998.4,691.1999999999999],[-1017.5999999999999,691.1999999999999],[-1017.5999999999999,249.6],[-998.4,249.6],[-998.4,153.6],[-979.1999999999999,153.6],[-979.1999999999999,115.19999999999999],[-998.4,115.19999999999999],[-998.4,38.4],[-1017.5999999999999,38.4],[-1017.5999999999999,-345.59999999999997],[-998.4,-345.59999999999997],[-998.4,-384],[-979.1999999999999,-384],[-979.1999999999999,-460.79999999999995],[-960,-460.79999999999995],[-960,-499.2],[-921.5999999999999,-499.2],[-921.5999999999999,-518.4],[-844.8,-518.4],[-844.8,-537.6],[-806.4,-537.6],[-806.4,-556.8],[-787.1999999999999,-556.8],[-787.1999999999999,-614.4],[-806.4,-614.4],[-806.4,-633.6],[-844.8,-633.6],[-844.8,-652.8],[-921.5999999999999,-652.8],[-921.5999999999999,-672],[-960,-672],[-960,-710.4],[-979.1999999999999,-710.4],[-979.1999999999999,-768],[-998.4,-768],[-998.4,-825.6],[-1017.5999999999999,-825.6],[-1017.5999999999999,-883.1999999999999],[-998.4,-883.1999999999999],[-998.4,-921.5999999999999],[-979.1999999999999,-921.5999999999999],[-979.1999999999999,-1075.2],[-998.4,-1075.2],[-998.4,-1113.6],[-1017.5999999999999,-1113.6],[-1017.5999999999999,-1132.8],[-998.4,-1132.8],[-998.4,-1171.2],[-979.1999999999999,-1171.2],[-979.1999999999999,-1248],[-940.8,-1248],[-940.8,-1267.2]]]]}},{"type":"Feature","properties":{"kind":"district","id":123,"name":"Beech Park"},"geometry":{"type":"MultiPolygon","coordinates":[[[[-1555.2,-556.8],[-1286.3999999999999,-556.8],[-1286.3999999999999,-537.6],[-1248,-537.6],[-1248,-518.4],[-1152,-518.4],[-1152,-499.2],[-1132.8,-499.2],[-1132.8,-460.79999999999995],[-1113.6,-460.79999999999995],[-1113.6,-384],[-1094.3999999999999,-384],[-1094.3999999999999,-345.59999999999997],[-1075.2,-345.59999999999997],[-1075.2,-38.4],[-1094.3999999999999,-38.4],[-1094.3999999999999,57.599999999999994],[-1113.6,57.599999999999994],[-1113.6,134.4],[-1132.8,134.4],[-1132.8,153.6],[-1113.6,153.6],[-1113.6,230.39999999999998],[-1094.3999999999999,230.39999999999998],[-1094.3999999999999,691.1999999999999],[-1113.6,691.1999999999999],[-1113.6,710.4],[-1132.8,710.4],[-1132.8,729.6],[-1171.2,729.6],[-1171.2,748.8],[-1267.2,748.8],[-1267.2,768],[-1708.8,768],[-1708.8,748.8],[-1900.8,748.8],[-1900.8,768],[-2246.4,768],[-2246.4,748.8],[-2265.6,748.8],[-2265.6,729.6],[-2304,729.6],[-2304,614.4],[-2323.2,614.4],[-2323.2,576],[-2342.4,576],[-2342.4,403.2],[-2323.2,403.2],[-2323.2,345.59999999999997],[-2304,345.59999999999997],[-2304,307.2],[-2284.7999999999997,307.2],[-2284.7999999999997,268.8],[-2265.6,268.8],[-2265.6,249.6],[-2246.4,249.6],[-2246.4,211.2],[-2227.2,211.2],[-2227.2,192],[-2208,192],[-2208,172.79999999999998],[-2188.7999999999997,172.79999999999998],[-2188.7999999999997,153.6],[-2150.4,153.6],[-2150.4,134.4],[-2131.2,134.4],[-2131.2,115.19999999999999],[-2112,115.19999999999999],[-2112,96],[-2073.6,96],[-2073.6,76.8],[-2054.4,76.8],[-2054.4,57.599999999999994],[-2016,57.599999999999994],[-2016,38.4],[-1996.8,38.4],[-1996.8,19.2],[-1939.1999999999998,19.2],[-1939.1999999999998,0],[-1900.8,0],[-1900.8,-19.2],[-1862.3999999999999,-19.2],[-1862.3999999999999,-38.4],[-1843.1999999999998,-38.4],[-1843.1999999999998,-57.599999999999994],[-1824,-57.599999999999994],[-1824,-76.8],[-1804.8,-76.8],[-1804.8,-96],[-1785.6,-96],[-1785.6,-134.4],[-1747.2,-134.4],[-1747.2,-153.6],[-1728,-153.6],[-1728,-172.79999999999998],[-1708.8,-172.79999999999998],[-1708.8,-211.2],[-1689.6,-211.2],[-1689.6,-230.39999999999998],[-1670.3999999999999,-230.39999999999998],[-1670.3999999999999,-268.8],[-1651.2,-268.8],[-1651.2,-307.2],[-1632,-307.2],[-1632,-364.8],[-1612.8,-364.8],[-1612.8,-499.2],[-1593.6,-499.2],[-1593.6,-518.4],[-1574.3999999999999,-518.4],[-1574.3999999999999,-537.6],[-1555.2,-537.6],[-1555.2,-556.8]]]]}},{"type":"Feature","properties":{"kind":"district","id":124,"name":"Hillside Square"},"geometry":{"type":"MultiPolygon","coordinates":[[[[-825.6,844.8],[-115.19999999999999,844.8],[-115.19999999999999,864],[-76.8,864],[-76.8,883.1999999999999],[-57.599999999999994,883.1999999999999],[-57.599999999999994,902.4],[-38.4,902.4],[-38.4,960],[-19.2,960],[-19.2,979.1999999999999],[0,979.1999999999999],[0,998.4],[57.599999999999994,998.4],[57.599999999999994,1017.5999999999999],[76.8,1017.5999999999999],[76.8,1036.8],[96,1036.8],[96,1075.2],[115.19999999999999,1075.2],[115.19999999999999,1171.2],[96,1171.2],[96,1401.6],[76.8,1401.6],[76.8,1574.3999999999999],[96,1574.3999999999999],[96,1881.6],[115.19999999999999,1881.6],[115.19999999999999,2112],[96,2112],[96,2131.2],[38.4,2131.2],[38.4,2150.4],[0,2150.4],[0,2169.6],[-57.599999999999994,2169.6],[-57.599999999999994,2188.7999999999997],[-96,2188.7999999999997],[-96,2169.6],[-115.19999999999999,2169.6],[-115.19999999999999,2131.2],[-96,2131.2],[-96,2092.7999999999997],[-76.8,2092.7999999999997],[-76.8,2054.4],[-57.599999999999994,2054.4],[-57.599999999999994,2035.1999999999998],[-38.4,2035.1999999999998],[-38.4,1996.8],[-19.2,1996.8],[-19.2,1843.1999999999998],[-38.4,1843.1999999999998],[-38.4,1766.3999999999999],[-57.599999999999994,1766.3999999999999],[-57.599999999999994,1670.3999999999999],[-76.8,1670.3999999999999],[-76.8,1536],[-96,1536],[-96,1478.3999999999999],[-115.19999999999999,1478.3999999999999],[-115.19999999999999,1459.2],[-134.4,1459.2],[-134.4,1420.8],[-153.6,1420.8],[-153.6,1401.6],[-172.79999999999998,1401.6],[-172.79999999999998,1382.3999999999999],[-211.2,1382.3999999999999],[-211.2,1363.2],[-249.6,1363.2],[-249.6,1344],[-268.8,1344],[-268.8,1324.8],[-307.2,1324.8],[-307.2,1305.6],[-345.59999999999997,1305.6],[-345.59999999999997,1324.8],[-518.4,1324.8],[-518.4,1305.6],[-537.6,1305.6],[-537.6,1286.3999999999999],[-576,1286.3999999999999],[-576,1267.2],[-595.1999999999999,1267.2],[-595.1999999999999,1248],[-614.4,1248],[-614.4,1228.8],[-672,1228.8],[-672,1209.6],[-806.4,1209.6],[-806.4,1190.3999999999999],[-883.1999999999999,1190.3999999999999],[-883.1999999999999,1171.2],[-921.5999999999999,1171.2],[-921.5999999999999,1152],[-940.8,1152],[-940.8,1132.8],[-960,1132.8],[-960,1113.6],[-998.4,1113.6],[-998.4,1094.3999999999999],[-1036.8,1094.3999999999999],[-1036.8,1075.2],[-1056,1075.2],[-1056,1056],[-1075.2,1056],[-1075.2,979.1999999999999],[-1036.8,979.1999999999999],[-1036.8,960],[-1017.5999999999999,960],[-1017.5999999999999,940.8],[-998.4,940.8],[-998.4,921.5999999999999],[-979.1999999999999,921.5999999999999],[-979.1999999999999,883.1999999999999],[-864,883.1999999999999],[-864,864],[-825.6,864],[-825.6,844.8]]],[[[-57.599999999999994,2208],[-19.2,2208],[-19.2,2227.2],[38.4,2227.2],[38.4,2246.4],[134.4,2246.4],[134.4,2265.6],[153.6,2265.6],[153.6,2400],[172.79999999999998,2400],[172.79999999999998,2476.7999999999997],[211.2,2476.7999999999997],[211.2,2457.6],[249.6,2457.6],[249.6,2496],[268.8,2496],[268.8,2572.7999999999997],[288,2572.7999999999997],[288,2611.2],[249.6,2611.2],[249.6,2630.4],[134.4,2630.4],[134.4,2649.6],[38.4,2649.6],[38.4,2630.4],[19.2,2630.4],[19.2,2611.2],[0,2611.2],[0,2572.7999999999997],[-19.2,2572.7999999999997],[-19.2,2553.6],[-38.4,2553.6],[-38.4,2323.2],[-57.599999999999994,2323.2],[-57.599999999999994,2284.7999999999997],[-76.8,2284.7999999999997],[-76.8,2227.2],[-57.599999999999994,2227.2],[-57.599999999999994,2208]]]]}},{"type":"Feature","properties":{"kind":"district","id":125,"name":"Washington District"},"geometry":{"type":"MultiPolygon","coordinates":[[[[-2092.7999999999997,-230.39999999999998],[-1958.3999999999999,-230.39999999999998],[-1958.3999999999999,-211.2],[-1939.1999999999998,-211.2],[-1939.1999999999998,-172.79999999999998],[-1920,-172.79999999999998],[-1920,-134.4],[-1939.1999999999998,-134.4],[-1939.1999999999998,-115.19999999999999],[-1958.3999999999999,-115.19999999999999],[-1958.3999999999999,-96],[-1977.6,-96],[-1977.6,-76.8],[-1996.8,-76.8],[-1996.8,-57.599999999999994],[-2016,-57.599999999999994],[-2016,-38.4],[-2035.1999999999998,-38.4],[-2035.1999999999998,-19.2],[-2054.4,-19.2],[-2054.4,0],[-2092.7999999999997,0],[-2092.7999999999997,19.2],[-2112,19.2],[-2112,38.4],[-2131.2,38.4],[-2131.2,57.599999999999994],[-2169.6,57.599999999999994],[-2169.6,76.8],[-2188.7999999999997,76.8],[-2188.7999999999997,96],[-2227.2,96],[-2227.2,115.19999999999999],[-2246.4,115.19999999999999],[-2246.4,134.4],[-2265.6,134.4],[-2265.6,153.6],[-2284.7999999999997,153.6],[-2284.7999999999997,172.79999999999998],[-2304,172.79999999999998],[-2304,211.2],[-2323.2,211.2],[-2323.2,230.39999999999998],[-2342.4,230.39999999999998],[-2342.4,268.8],[-2361.6,268.8],[-2361.6,307.2],[-2380.7999999999997,307.2],[-2380.7999999999997,364.8],[-2400,364.8],[-2400,556.8],[-2419.2,556.8],[-2419.2,595.1999999999999],[-2400,595.1999999999999],[-2400,614.4],[-2419.2,614.4],[-2419.2,1075.2],[-2438.4,1075.2],[-2438.4,1094.3999999999999],[-2496,1094.3999999999999],[-2496,1075.2],[-2553.6,1075.2],[-2553.6,1056],[-2572.7999999999997,1056],[-2572.7999999999997,1036.8],[-2592,1036.8],[-2592,998.4],[-2611.2,998.4],[-2611.2,960],[-2630.4,960],[-2630.4,921.5999999999999],[-2649.6,921.5999999999999],[-2649.6,864],[-2668.7999999999997,864],[-2668.7999999999997,787.1999999999999],[-2688,787.1999999999999],[-2688,710.4],[-2707.2,710.4],[-2707.2,614.4],[-2726.4,614.4],[-2726.4,556.8],[-2745.6,556.8],[-2745.6,537.6],[-2764.7999999999997,537.6],[-2764.7999999999997,499.2],[-2803.2,499.2],[-2803.2,480],[-2822.4,480],[-2822.4,460.79999999999995],[-2841.6,460.79999999999995],[-2841.6,422.4],[-2860.7999999999997,422.4],[-2860.7999999999997,364.8],[-2880,364.8],[-2880,115.19999999999999],[-2860.7999999999997,115.19999999999999],[-2860.7999999999997,57.599999999999994],[-2841.6,57.599999999999994],[-2841.6,19.2],[-2822.4,19.2],[-2822.4,0],[-2803.2,0],[-2803.2,-19.2],[-2784,-19.2],[-2784,-38.4],[-2764.7999999999997,-38.4],[-2764.7999999999997,-57.599999999999994],[-2726.4,-57.599999999999994],[-2726.4,-76.8],[-2707.2,-76.8],[-2707.2,-96],[-2688,-96],[-2688,-115.19999999999999],[-2649.6,-115.19999999999999],[-2649.6,-134.4],[-2572.7999999999997,-134.4],[-2572.7999999999997,-115.19999999999999],[-2534.4,-115.19999999999999],[-2534.4,-96],[-2515.2,-96],[-2515.2,-76.8],[-2496,-76.8],[-2496,-57.599999999999994],[-2476.7999999999997,-57.599999999999994],[-2476.7999999999997,-38.4],[-2457.6,-38.4],[-2457.6,-19.2],[-2438.4,-19.2],[-2438.4,0],[-2419.2,0],[-2419.2,19.2],[-2304,19.2],[-2304,-19.2],[-2284.7999999999997,-19.2],[-2284.7999999999997,-57.599999999999994],[-2265.6,-57.599999999999994],[-2265.6,-96],[-2246.4,-96],[-2246.4,-115.19999999999999],[-2227.2,-115.19999999999999],[-2227.2,-153.6],[-2208,-153.6],[-2208,-172.79999999999998],[-2169.6,-172.79999999999998],[-2169.6,-192],[-2131.2,-192],[-2131.2,-211.2],[-2092.7999999999997,-211.2],[-2092.7999999999997,-230.39999999999998]]]]}},{"type":"Feature","properties":{"kind":"district","id":126,"name":"Umber Heights"},"geometry":{"type":"MultiPolygon","coordinates":[[[[-2342.4,1324.8],[-2323.2,1324.8],[-2323.2,1344],[-2304,1344],[-2304,1363.2],[-2246.4,1363.2],[-2246.4,1382.3999999999999],[-2208,1382.3999999999999],[-2208,1401.6],[-2188.7999999999997,1401.6],[-2188.7999999999997,1420.8],[-2169.6,1420.8],[-2169.6,1440],[-2131.2,1440],[-2131.2,1459.2],[-2073.6,1459.2],[-2073.6,1478.3999999999999],[-1843.1999999999998,1478.3999999999999],[-1843.1999999999998,1459.2],[-1785.6,1459.2],[-1785.6,1440],[-1670.3999999999999,1440],[-1670.3999999999999,1459.2],[-1574.3999999999999,1459.2],[-1574.3999999999999,1478.3999999999999],[-1536,1478.3999999999999],[-1536,1497.6],[-1516.8,1497.6],[-1516.8,1516.8],[-1497.6,1516.8],[-1497.6,1536],[-1478.3999999999999,1536],[-1478.3999999999999,1555.2],[-1459.2,1555.2],[-1459.2,1574.3999999999999],[-1440,1574.3999999999999],[-1440,1593.6],[-1420.8,1593.6],[-1420.8,1612.8],[-1286.3999999999999,1612.8],[-1286.3999999999999,1593.6],[-1075.2,1593.6],[-1075.2,1708.8],[-1132.8,1708.8],[-1132.8,1728],[-1152,1728],[-1152,1785.6],[-1190.3999999999999,1785.6],[-1190.3999999999999,1804.8],[-1228.8,1804.8],[-1228.8,1996.8],[-1209.6,1996.8],[-1209.6,2188.7999999999997],[-1228.8,2188.7999999999997],[-1228.8,2208],[-1248,2208],[-1248,2246.4],[-1267.2,2246.4],[-1267.2,2265.6],[-1363.2,2265.6],[-1363.2,2284.7999999999997],[-1401.6,2284.7999999999997],[-1401.6,2304],[-1459.2,2304],[-1459.2,2323.2],[-1651.2,2323.2],[-1651.2,2342.4],[-1804.8,2342.4],[-1804.8,2323.2],[-1881.6,2323.2],[-1881.6,2304],[-1939.1999999999998,2304],[-1939.1999999999998,2284.7999999999997],[-1958.3999999999999,2284.7999999999997],[-1958.3999999999999,2265.6],[-1996.8,2265.6],[-1996.8,2246.4],[-2016,2246.4],[-2016,2227.2],[-2035.1999999999998,2227.2],[-2035.1999999999998,2208],[-2054.4,2208],[-2054.4,2169.6],[-2073.6,2169.6],[-2073.6,2131.2],[-2092.7999999999997,2131.2],[-2092.7999999999997,2112],[-2112,2112],[-2112,2073.6],[-2150.4,2073.6],[-2150.4,2054.4],[-2169.6,2054.4],[-2169.6,2035.1999999999998],[-2227.2,2035.1999999999998],[-2227.2,2016],[-2246.4,2016],[-2246.4,1996.8],[-2265.6,1996.8],[-2265.6,1977.6],[-2284.7999999999997,1977.6],[-2284.7999999999997,1958.3999999999999],[-2304,1958.3999999999999],[-2304,1939.1999999999998],[-2323.2,1939.1999999999998],[-2323.2,1920],[-2342.4,1920],[-2342.4,1900.8],[-2361.6,1900.8],[-2361.6,1881.6],[-2380.7999999999997,1881.6],[-2380.7999999999997,1862.3999999999999],[-2400,1862.3999999999999],[-2400,1843.1999999999998],[-2419.2,1843.1999999999998],[-2419.2,1824],[-2438.4,1824],[-2438.4,1804.8],[-2457.6,1804.8],[-2457.6,1785.6],[-2476.7999999999997,1785.6],[-2476.7999999999997,1728],[-2496,1728],[-2496,1708.8],[-2515.2,1708.8],[-2515.2,1632],[-2496,1632],[-2496,1612.8],[-2476.7999999999997,1612.8],[-2476.7999999999997,1593.6],[-2457.6,1593.6],[-2457.6,1574.3999999999999],[-2438.4,1574.3999999999999],[-2438.4,1536],[-2419.2,1536],[-2419.2,1516.8],[-2400,1516.8],[-2400,1478.3999999999999],[-2380.7999999999997,1478.3999999999999],[-2380.7999999999997,1420.8],[-2361.6,1420.8],[-2361.6,1344],[-2342.4,1344],[-2342.4,1324.8]]]]}},{"type":"Feature","properties":{"kind":"district","id":127,"name":"Park Square"},"geometry":{"type":"MultiPolygon","coordinates":[[[[-2572.7999999999997,1267.2],[-2496,1267.2],[-2496,1286.3999999999999],[-2438.4,1286.3999999999999],[-2438.4,1305.6],[-2419.2,1305.6],[-2419.2,1382.3999999999999],[-2438.4,1382.3999999999999],[-2438.4,1440],[-2457.6,1440],[-2457.6,1478.3999999999999],[-2476.7999999999997,1478.3999999999999],[-2476.7999999999997,1516.8],[-2496,1516.8],[-2496,1536],[-2515.2,1536],[-2515.2,1555.2],[-2534.4,1555.2],[-2534.4,1574.3999999999999],[-2553.6,1574.3999999999999],[-2553.6,1593.6],[-2572.7999999999997,1593.6],[-2572.7999999999997,1612.8],[-2592,1612.8],[-2592,1632],[-2611.2,1632],[-2611.2,1651.2],[-2630.4,1651.2],[-2630.4,1670.3999999999999],[-2649.6,1670.3999999999999],[-2649.6,1689.6],[-2668.7999999999997,1689.6],[-2668.7999999999997,1708.8],[-2688,1708.8],[-2688,1728],[-2707.2,1728],[-2707.2,1766.3999999999999],[-2688,1766.3999999999999],[-2688,1785.6],[-2572.7999999999997,1785.6],[-2572.7999999999997,1804.8],[-2553.6,1804.8],[-2553.6,1824],[-2515.2,1824],[-2515.2,1843.1999999999998],[-2496,1843.1999999999998],[-2496,1862.3999999999999],[-2476.7999999999997,1862.3999999999999],[-2476.7999999999997,1881.6],[-2457.6,1881.6],[-2457.6,1900.8],[-2438.4,1900.8],[-2438.4,1920],[-2419.2,1920],[-2419.2,1939.1999999999998],[-2400,1939.1999999999998],[-2400,1958.3999999999999],[-2380.7999999999997,1958.3999999999999],[-2380.7999999999997,1977.6],[-2361.6,1977.6],[-2361.6,1996.8],[-2342.4,1996.8],[-2342.4,2016],[-2323.2,2016],[-2323.2,2035.1999999999998],[-2304,2035.1999999999998],[-2304,2054.4],[-2284.7999999999997,2054.4],[-2284.7999999999997,2073.6],[-2265.6,2073.6],[-2265.6,2112],[-2246.4,2112],[-2246.4,2150.4],[-2227.2,2150.4],[-2227.2,2188.7999999999997],[-2188.7999999999997,2188.7999999999997],[-2188.7999999999997,2208],[-2169.6,2208],[-2169.6,2227.2],[-2131.2,2227.2],[-2131.2,2246.4],[-2092.7999999999997,2246.4],[-2092.7999999999997,2265.6],[-2073.6,2265.6],[-2073.6,2284.7999999999997],[-2054.4,2284.7999999999997],[-2054.4,2304],[-2035.1999999999998,2304],[-2035.1999999999998,2323.2],[-1996.8,2323.2],[-1996.8,2342.4],[-1958.3999999999999,2342.4],[-1958.3999999999999,2361.6],[-1920,2361.6],[-1920,2380.7999999999997],[-1862.3999999999999,2380.7999999999997],[-1862.3999999999999,2400],[-1555.2,2400],[-1555.2,2380.7999999999997],[-1382.3999999999999,2380.7999999999997],[-1382.3999999999999,2400],[-1228.8,2400],[-1228.8,2419.2],[-1209.6,2419.2],[-1209.6,2438.4],[-1190.3999999999999,2438.4],[-1190.3999999999999,2476.7999999999997],[-1171.2,2476.7999999999997],[-1171.2,2496],[-1132.8,2496],[-1132.8,2457.6],[-1113.6,2457.6],[-1113.6,2438.4],[-1094.3999999999999,2438.4],[-1094.3999999999999,2400],[-1075.2,2400],[-1075.2,2380.7999999999997],[-1056,2380.7999999999997],[-1056,2361.6],[-960,2361.6],[-960,2342.4],[-940.8,2342.4],[-940.8,2323.2],[-825.6,2323.2],[-825.6,2304],[-787.1999999999999,2304],[-787.1999999999999,2284.7999999999997],[-748.8,2284.7999999999997],[-748.8,2304],[-729.6,2304],[-729.6,2323.2],[-710.4,2323.2],[-710.4,2496],[-691.1999999999999,2496],[-691.1999999999999,2515.2],[-710.4,2515.2],[-710.4,2553.6],[-729.6,2553.6],[-729.6,2572.7999999999997],[-748.8,2572.7999999999997],[-748.8,2592],[-844.8,2592],[-844.8,2572.7999999999997],[-902.4,2572.7999999999997],[-902.4,2592],[-998.4,2592],[-998.4,2611.2],[-1017.5999999999999,2611.2],[-1017.5999999999999,2630.4],[-1036.8,2630.4],[-1036.8,2649.6],[-1056,2649.6],[-1056,2668.7999999999997],[-1075.2,2668.7999999999997],[-1075.2,2688],[-1094.3999999999999,2688],[-1094.3999999999999,2707.2],[-1132.8,2707.2],[-1132.8,2726.4],[-1171.2,2726.4],[-1171.2,2745.6],[-1228.8,2745.6],[-1228.8,2726.4],[-1267.2,2726.4],[-1267.2,2707.2],[-1286.3999999999999,2707.2],[-1286.3999999999999,2688],[-1459.2,2688],[-1459.2,2668.7999999999997],[-1536,2668.7999999999997],[-1536,2649.6],[-1574.3999999999999,2649.6],[-1574.3999999999999,2668.7999999999997],[-1708.8,2668.7999999999997],[-1708.8,2688],[-1766.3999999999999,2688],[-1766.3999999999999,2707.2],[-1824,2707.2],[-1824,2726.4],[-1843.1999999999998,2726.4],[-1843.1999999999998,2745.6],[-1900.8,2745.6],[-1900.8,2764.7999999999997],[-1920,2764.7999999999997],[-1920,2745.6],[-1958.3999999999999,2745.6],[-1958.3999999999999,2726.4],[-2016,2726.4],[-2016,2707.2],[-2092.7999999999997,2707.2],[-2092.7999999999997,2688],[-2188.7999999999997,2688],[-2188.7999999999997,2668.7999999999997],[-2208,2668.7999999999997],[-2208,2649.6],[-2227.2,2649.6],[-2227.2,2611.2],[-2246.4,2611.2],[-2246.4,2572.7999999999997],[-2265.6,2572.7999999999997],[-2265.6,2553.6],[-2284.7999999999997,2553.6],[-2284.7999999999997,2534.4],[-2323.2,2534.4],[-2323.2,2515.2],[-2380.7999999999997,2515.2],[-2380.7999999999997,2496],[-2400,2496],[-2400,2476.7999999999997],[-2438.4,2476.7999999999997],[-2438.4,2438.4],[-2457.6,2438.4],[-2457.6,2380.7999999999997],[-2476.7999999999997,2380.7999999999997],[-2476.7999999999997,2361.6],[-2496,2361.6],[-2496,2323.2],[-2515.2,2323.2],[-2515.2,2265.6],[-2534.4,2265.6],[-2534.4,2208],[-2553.6,2208],[-2553.6,2131.2],[-2572.7999999999997,2131.2],[-2572.7999999999997,1958.3999999999999],[-2592,1958.3999999999999],[-2592,1939.1999999999998],[-2630.4,1939.1999999999998],[-2630.4,1920],[-2707.2,1920],[-2707.2,1939.1999999999998],[-2726.4,1939.1999999999998],[-2726.4,1920],[-2764.7999999999997,1920],[-2764.7999999999997,1900.8],[-2803.2,1900.8],[-2803.2,1881.6],[-2822.4,1881.6],[-2822.4,1862.3999999999999],[-2860.7999999999997,1862.3999999999999],[-2860.7999999999997,1843.1999999999998],[-2880,1843.1999999999998],[-2880,1804.8],[-2899.2,1804.8],[-2899.2,1689.6],[-2880,1689.6],[-2880,1651.2],[-2860.7999999999997,1651.2],[-2860.7999999999997,1632],[-2841.6,1632],[-2841.6,1612.8],[-2784,1612.8],[-2784,1593.6],[-2745.6,1593.6],[-2745.6,1574.3999999999999],[-2726.4,1574.3999999999999],[-2726.4,1555.2],[-2688,1555.2],[-2688,1536],[-2668.7999999999997,1536],[-2668.7999999999997,1516.8],[-2649.6,1516.8],[-2649.6,1497.6],[-2630.4,1497.6],[-2630.4,1459.2],[-2611.2,1459.2],[-2611.2,1420.8],[-2592,1420.8],[-2592,1286.3999999999999],[-2572.7999999999997,1286.3999999999999],[-2572.7999999999997,1267.2]]]]}},{"type":"Feature","properties":{"kind":"park","id":114,"name":"Spruce Garden"},"geometry":{"type":"MultiPolygon","coordinates":[[[[-1094.3999999999999,1612.8],[-921.5999999999999,1612.8],[-921.5999999999999,1824],[-960,1824],[-960,1881.6],[-979.1999999999999,1881.6],[-979.1999999999999,1920],[-1017.5999999999999,1920],[-1017.5999999999999,1958.3999999999999],[-1036.8,1958.3999999999999],[-1036.8,1996.8],[-1075.2,1996.8],[-1075.2,2016],[-1152,2016],[-1152,2035.1999999999998],[-1190.3999999999999,2035.1999999999998],[-1190.3999999999999,2016],[-1209.6,2016],[-1209.6,1996.8],[-1228.8,1996.8],[-1228.8,1804.8],[-1209.6,1804.8],[-1209.6,1785.6],[-1171.2,1785.6],[-1171.2,1766.3999999999999],[-1152,1766.3999999999999],[-1152,1728],[-1132.8,1728],[-1132.8,1708.8],[-1094.3999999999999,1708.8],[-1094.3999999999999,1689.6],[-1075.2,1689.6],[-1075.2,1670.3999999999999],[-1094.3999999999999,1670.3999999999999],[-1094.3999999999999,1612.8]]]]}},{"type":"Feature","properties":{"kind":"park","id":115,"name":"Forrest Polytechnic Institute"},"geometry":{"type":"MultiPolygon","coordinates":[[[[-576,1401.6],[-556.8,1401.6],[-556.8,1420.8],[-518.4,1420.8],[-518.4,1440],[-480,1440],[-480,1459.2],[-460.79999999999995,1459.2],[-460.79999999999995,1497.6],[-441.59999999999997,1497.6],[-441.59999999999997,1574.3999999999999],[-422.4,1574.3999999999999],[-422.4,1708.8],[-441.59999999999997,1708.8],[-441.59999999999997,1766.3999999999999],[-422.4,1766.3999999999999],[-422.4,1804.8],[-441.59999999999997,1804.8],[-441.59999999999997,1862.3999999999999],[-422.4,1862.3999999999999],[-422.4,1939.1999999999998],[-441.59999999999997,1939.1999999999998],[-441.59999999999997,1958.3999999999999],[-480,1958.3999999999999],[-480,1977.6],[-537.6,1977.6],[-537.6,1996.8],[-556.8,1996.8],[-556.8,2016],[-576,2016],[-576,2035.1999999999998],[-595.1999999999999,2035.1999999999998],[-595.1999999999999,2054.4],[-614.4,2054.4],[-614.4,2073.6],[-633.6,2073.6],[-633.6,2169.6],[-652.8,2169.6],[-652.8,2188.7999999999997],[-672,2188.7999999999997],[-672,2227.2],[-691.1999999999999,2227.2],[-691.1999999999999,2246.4],[-960,2246.4],[-960,2227.2],[-1036.8,2227.2],[-1036.8,2246.4],[-1075.2,2246.4],[-1075.2,2227.2],[-1113.6,2227.2],[-1113.6,2208],[-1132.8,2208],[-1132.8,2188.7999999999997],[-1152,2188.7999999999997],[-1152,2150.4],[-1171.2,2150.4],[-1171.2,2035.1999999999998],[-1152,2035.1999999999998],[-1152,2016],[-1075.2,2016],[-1075.2,1996.8],[-1036.8,1996.8],[-1036.8,1958.3999999999999],[-1017.5999999999999,1958.3999999999999],[-1017.5999999999999,1920],[-979.1999999999999,1920],[-979.1999999999999,1881.6],[-960,1881.6],[-960,1824],[-921.5999999999999,1824],[-921.5999999999999,1612.8],[-844.8,1612.8],[-844.8,1593.6],[-748.8,1593.6],[-748.8,1612.8],[-710.4,1612.8],[-710.4,1632],[-672,1632],[-672,1612.8],[-652.8,1612.8],[-652.8,1574.3999999999999],[-633.6,1574.3999999999999],[-633.6,1440],[-614.4,1440],[-614.4,1420.8],[-576,1420.8],[-576,1401.6]]]]}},{"type":"Feature","properties":{"kind":"park","id":117,"name":"Concord Grounds"},"geometry":{"type":"MultiPolygon","coordinates":[[[[-2323.2,1420.8],[-2284.7999999999997,1420.8],[-2284.7999999999997,1440],[-2265.6,1440],[-2265.6,1459.2],[-2246.4,1459.2],[-2246.4,1478.3999999999999],[-2227.2,1478.3999999999999],[-2227.2,1497.6],[-2208,1497.6],[-2208,1516.8],[-2188.7999999999997,1516.8],[-2188.7999999999997,1555.2],[-2208,1555.2],[-2208,1574.3999999999999],[-2227.2,1574.3999999999999],[-2227.2,1593.6],[-2246.4,1593.6],[-2246.4,1612.8],[-2265.6,1612.8],[-2265.6,1632],[-2284.7999999999997,1632],[-2284.7999999999997,1651.2],[-2304,1651.2],[-2304,1670.3999999999999],[-2323.2,1670.3999999999999],[-2323.2,1689.6],[-2342.4,1689.6],[-2342.4,1708.8],[-2361.6,1708.8],[-2361.6,1728],[-2380.7999999999997,1728],[-2380.7999999999997,1747.2],[-2400,1747.2],[-2400,1766.3999999999999],[-2419.2,1766.3999999999999],[-2419.2,1785.6],[-2438.4,1785.6],[-2438.4,1766.3999999999999],[-2457.6,1766.3999999999999],[-2457.6,1747.2],[-2476.7999999999997,1747.2],[-2476.7999999999997,1728],[-2496,1728],[-2496,1670.3999999999999],[-2476.7999999999997,1670.3999999999999],[-2476.7999999999997,1651.2],[-2457.6,1651.2],[-2457.6,1632],[-2438.4,1632],[-2438.4,1612.8],[-2419.2,1612.8],[-2419.2,1593.6],[-2400,1593.6],[-2400,1555.2],[-2380.7999999999997,1555.2],[-2380.7999999999997,1536],[-2361.6,1536],[-2361.6,1497.6],[-2342.4,1497.6],[-2342.4,1459.2],[-2323.2,1459.2],[-2323.2,1420.8]]]]}},{"type":"Feature","properties":{"kind":"park","id":118,"name":"Dale National Park"},"geometry":{"type":"MultiPolygon","coordinates":[[[[-1785.6,1459.2],[-1593.6,1459.2],[-1593.6,1478.3999999999999],[-1536,1478.3999999999999],[-1536,1516.8],[-1516.8,1516.8],[-1516.8,1536],[-1497.6,1536],[-1497.6,1574.3999999999999],[-1478.3999999999999,1574.3999999999999],[-1478.3999999999999,1593.6],[-1459.2,1593.6],[-1459.2,1612.8],[-1420.8,1612.8],[-1420.8,1632],[-1267.2,1632],[-1267.2,1612.8],[-1209.6,1612.8],[-1209.6,1593.6],[-1075.2,1593.6],[-1075.2,1612.8],[-1094.3999999999999,1612.8],[-1094.3999999999999,1670.3999999999999],[-1075.2,1670.3999999999999],[-1075.2,1689.6],[-1094.3999999999999,1689.6],[-1094.3999999999999,1708.8],[-1132.8,1708.8],[-1132.8,1728],[-1152,1728],[-1152,1766.3999999999999],[-1171.2,1766.3999999999999],[-1171.2,1785.6],[-1209.6,1785.6],[-1209.6,1804.8],[-1228.8,1804.8],[-1228.8,1939.1999999999998],[-1363.2,1939.1999999999998],[-1363.2,1920],[-1382.3999999999999,1920],[-1382.3999999999999,1900.8],[-1401.6,1900.8],[-1401.6,1881.6],[-1420.8,1881.6],[-1420.8,1862.3999999999999],[-1440,1862.3999999999999],[-1440,1843.1999999999998],[-1459.2,1843.1999999999998],[-1459.2,1824],[-1478.3999999999999,1824],[-1478.3999999999999,1804.8],[-1497.6,1804.8],[-1497.6,1785.6],[-1516.8,1785.6],[-1516.8,1766.3999999999999],[-1536,1766.3999999999999],[-1536,1747.2],[-1555.2,1747.2],[-1555.2,1728],[-1574.3999999999999,1728],[-1574.3999999999999,1708.8],[-1593.6,1708.8],[-1593.6,1689.6],[-1612.8,1689.6],[-1612.8,1670.3999999999999],[-1632,1670.3999999999999],[-1632,1651.2],[-1651.2,1651.2],[-1651.2,1632],[-1670.3999999999999,1632],[-1670.3999999999999,1612.8],[-1689.6,1612.8],[-1689.6,1593.6],[-1708.8,1593.6],[-1708.8,1574.3999999999999],[-1728,1574.3999999999999],[-1728,1555.2],[-1747.2,1555.2],[-1747.2,1536],[-1766.3999999999999,1536],[-1766.3999999999999,1516.8],[-1785.6,1516.8],[-1785.6,1459.2]]]]}},{"type":"Feature","properties":{"kind":"park","id":119,"name":"Myrtle Meadows"},"geometry":{"type":"MultiPolygon","coordinates":[[[[1670.3999999999999,-1996.8],[1689.6,-1996.8],[1689.6,-1977.6],[1728,-1977.6],[1728,-1728],[1747.2,-1728],[1747.2,-1612.8],[1728,-1612.8],[1728,-1459.2],[1632,-1459.2],[1632,-1478.3999999999999],[1612.8,-1478.3999999999999],[1612.8,-1977.6],[1670.3999999999999,-1977.6],[1670.3999999999999,-1996.8]]]]}},{"type":"Feature","properties":{"kind":"park","id":120,"name":"Heather Meadows"},"geometry":{"type":"MultiPolygon","coordinates":[[[[211.2,-2707.2],[249.6,-2707.2],[249.6,-2688],[288,-2688],[288,-2668.7999999999997],[307.2,-2668.7999999999997],[307.2,-2630.4],[288,-2630.4],[288,-2592],[268.8,-2592],[268.8,-2553.6],[249.6,-2553.6],[249.6,-2515.2],[230.39999999999998,-2515.2],[230.39999999999998,-2476.7999999999997],[211.2,-2476.7999999999997],[211.2,-2438.4],[192,-2438.4],[192,-2400],[134.4,-2400],[134.4,-2419.2],[96,-2419.2],[96,-2476.7999999999997],[76.8,-2476.7999999999997],[76.8,-2496],[38.4,-2496],[38.4,-2553.6],[57.599999999999994,-2553.6],[57.599999999999994,-2572.7999999999997],[76.8,-2572.7999999999997],[76.8,-2592],[115.19999999999999,-2592],[115.19999999999999,-2611.2],[134.4,-2611.2],[134.4,-2630.4],[153.6,-2630.4],[153.6,-2649.6],[172.79999999999998,-2649.6],[172.79999999999998,-2668.7999999999997],[192,-2668.7999999999997],[192,-2688],[211.2,-2688],[211.2,-2707.2]]]]}},{"type":"Feature","properties":{"kind":"park","id":121,"name":"Spring Park"},"geometry":{"type":"MultiPolygon","coordinates":[[[[2553.6,-2745.6],[2688,-2745.6],[2688,-2726.4],[2707.2,-2726.4],[2707.2,-2707.2],[2726.4,-2707.2],[2726.4,-2688],[2745.6,-2688],[2745.6,-2496],[2553.6,-2496],[2553.6,-2745.6]]]]}},{"type":"Feature","properties":{"kind":"park","id":122,"name":"Autumn Hill"},"geometry":{"type":"MultiPolygon","coordinates":[[[[1094.3999999999999,1574.3999999999999],[1248,1574.3999999999999],[1248,1670.3999999999999],[1228.8,1670.3999999999999],[1228.8,1728],[1209.6,1728],[1209.6,1747.2],[1190.3999999999999,1747.2],[1190.3999999999999,1766.3999999999999],[1152,1766.3999999999999],[1152,1785.6],[1094.3999999999999,1785.6],[1094.3999999999999,1766.3999999999999],[1075.2,1766.3999999999999],[1075.2,1747.2],[1094.3999999999999,1747.2],[1094.3999999999999,1574.3999999999999]]]]}},{"type":"Feature","properties":{"kind":"park","id":123,"name":"Manor City Park"},"geometry":{"type":"MultiPolygon","coordinates":[[[[499.2,1056],[576,1056],[576,1267.2],[364.8,1267.2],[364.8,1190.3999999999999],[384,1190.3999999999999],[384,1132.8],[403.2,1132.8],[403.2,1113.6],[422.4,1113.6],[422.4,1094.3999999999999],[441.59999999999997,1094.3999999999999],[441.59999999999997,1075.2],[499.2,1075.2],[499.2,1056]]]]}},{"type":"Feature","properties":{"kind":"park","id":124,"name":"Grove Garden"},"geometry":{"type":"MultiPolygon","coordinates":[[[[2092.7999999999997,652.8],[2112,652.8],[2112,672],[2131.2,672],[2131.2,652.8],[2169.6,652.8],[2169.6,672],[2188.7999999999997,672],[2188.7999999999997,691.1999999999999],[2208,691.1999999999999],[2208,729.6],[2188.7999999999997,729.6],[2188.7999999999997,748.8],[2169.6,748.8],[2169.6,768],[2150.4,768],[2150.4,806.4],[2131.2,806.4],[2131.2,825.6],[2112,825.6],[2112,844.8],[2092.7999999999997,844.8],[2092.7999999999997,864],[2073.6,864],[2073.6,883.1999999999999],[2054.4,883.1999999999999],[2054.4,921.5999999999999],[2035.1999999999998,921.5999999999999],[2035.1999999999998,940.8],[2016,940.8],[2016,960],[1996.8,960],[1996.8,979.1999999999999],[1958.3999999999999,979.1999999999999],[1958.3999999999999,960],[1939.1999999999998,960],[1939.1999999999998,921.5999999999999],[1920,921.5999999999999],[1920,883.1999999999999],[1900.8,883.1999999999999],[1900.8,787.1999999999999],[1920,787.1999999999999],[1920,768],[1996.8,768],[1996.8,748.8],[2016,748.8],[2016,729.6],[2035.1999999999998,729.6],[2035.1999999999998,710.4],[2054.4,710.4],[2054.4,691.1999999999999],[2073.6,691.1999999999999],[2073.6,672],[2092.7999999999997,672],[2092.7999999999997,652.8]]]]}},{"type":"Feature","properties":{"kind":"park","id":125,"name":"Aspen Meadows"},"geometry":{"type":"MultiPolygon","coordinates":[[[[-460.79999999999995,-96],[-19.2,-96],[-19.2,-76.8],[0,-76.8],[0,-38.4],[-19.2,-38.4],[-19.2,38.4],[-96,38.4],[-96,57.599999999999994],[-153.6,57.599999999999994],[-153.6,76.8],[-211.2,76.8],[-211.2,96],[-268.8,96],[-268.8,115.19999999999999],[-307.2,115.19999999999999],[-307.2,134.4],[-364.8,134.4],[-364.8,153.6],[-460.79999999999995,153.6],[-460.79999999999995,-96]]]]}},{"type":"Feature","properties":{"kind":"park","id":126,"name":"Ivy Park"},"geometry":{"type":"MultiPolygon","coordinates":[[[[-1651.2,-460.79999999999995],[-1536,-460.79999999999995],[-1536,115.19999999999999],[-1574.3999999999999,115.19999999999999],[-1574.3999999999999,153.6],[-1747.2,153.6],[-1747.2,134.4],[-1766.3999999999999,134.4],[-1766.3999999999999,115.19999999999999],[-1785.6,115.19999999999999],[-1785.6,96],[-1804.8,96],[-1804.8,57.599999999999994],[-1824,57.599999999999994],[-1824,38.4],[-1843.1999999999998,38.4],[-1843.1999999999998,0],[-1862.3999999999999,0],[-1862.3999999999999,-19.2],[-1881.6,-19.2],[-1881.6,-76.8],[-1843.1999999999998,-76.8],[-1843.1999999999998,-96],[-1824,-96],[-1824,-134.4],[-1804.8,-134.4],[-1804.8,-153.6],[-1785.6,-153.6],[-1785.6,-172.79999999999998],[-1766.3999999999999,-172.79999999999998],[-1766.3999999999999,-192],[-1747.2,-192],[-1747.2,-211.2],[-1728,-211.2],[-1728,-230.39999999999998],[-1708.8,-230.39999999999998],[-1708.8,-268.8],[-1689.6,-268.8],[-1689.6,-307.2],[-1670.3999999999999,-307.2],[-1670.3999999999999,-364.8],[-1651.2,-364.8],[-1651.2,-460.79999999999995]]]]}},{"type":"Feature","properties":{"kind":"park","id":127,"name":"Linden Woods"},"geometry":{"type":"MultiPolygon","coordinates":[[[[-825.6,844.8],[-115.19999999999999,844.8],[-115.19999999999999,864],[-76.8,864],[-76.8,883.1999999999999],[-57.599999999999994,883.1999999999999],[-57.599999999999994,902.4],[-38.4,902.4],[-38.4,960],[-19.2,960],[-19.2,979.1999999999999],[0,979.1999999999999],[0,998.4],[57.599999999999994,998.4],[57.599999999999994,1017.5999999999999],[76.8,1017.5999999999999],[76.8,1036.8],[96,1036.8],[96,1075.2],[115.19999999999999,1075.2],[115.19999999999999,1171.2],[96,1171.2],[96,1401.6],[76.8,1401.6],[76.8,1574.3999999999999],[96,1574.3999999999999],[96,1881.6],[115.19999999999999,1881.6],[115.19999999999999,2112],[96,2112],[96,2131.2],[38.4,2131.2],[38.4,2150.4],[0,2150.4],[0,2169.6],[-57.599999999999994,2169.6],[-57.599999999999994,2188.7999999999997],[-115.19999999999999,2188.7999999999997],[-115.19999999999999,2150.4],[-96,2150.4],[-96,2092.7999999999997],[-76.8,2092.7999999999997],[-76.8,2054.4],[-57.599999999999994,2054.4],[-57.599999999999994,2035.1999999999998],[-38.4,2035.1999999999998],[-38.4,1996.8],[-19.2,1996.8],[-19.2,1843.1999999999998],[-38.4,1843.1999999999998],[-38.4,1766.3999999999999],[-57.599999999999994,1766.3999999999999],[-57.599999999999994,1689.6],[-76.8,1689.6],[-76.8,1536],[-96,1536],[-96,1497.6],[-115.19999999999999,1497.6],[-115.19999999999999,1459.2],[-134.4,1459.2],[-134.4,1420.8],[-153.6,1420.8],[-153.6,1401.6],[-172.79999999999998,1401.6],[-172.79999999999998,1382.3999999999999],[-211.2,1382.3999999999999],[-211.2,1363.2],[-249.6,1363.2],[-249.6,1344],[-268.8,1344],[-268.8,1324.8],[-326.4,1324.8],[-326.4,1305.6],[-345.59999999999997,1305.6],[-345.59999999999997,1324.8],[-518.4,1324.8],[-518.4,1305.6],[-537.6,1305.6],[-537.6,1286.3999999999999],[-576,1286.3999999999999],[-576,1267.2],[-595.1999999999999,1267.2],[-595.1999999999999,1248],[-633.6,1248],[-633.6,1228.8],[-672,1228.8],[-672,1209.6],[-806.4,1209.6],[-806.4,1190.3999999999999],[-864,1190.3999999999999],[-864,1171.2],[-902.4,1171.2],[-902.4,1152],[-940.8,1152],[-940.8,1132.8],[-960,1132.8],[-960,1113.6],[-940.8,1113.6],[-940.8,1075.2],[-998.4,1075.2],[-998.4,1056],[-1036.8,1056],[-1036.8,960],[-1017.5999999999999,960],[-1017.5999999999999,940.8],[-998.4,940.8],[-998.4,921.5999999999999],[-979.1999999999999,921.5999999999999],[-979.1999999999999,883.1999999999999],[-864,883.1999999999999],[-864,864],[-825.6,864],[-825.6,844.8]],[[-96,1113.6],[-96,1132.8],[-57.599999999999994,1132.8],[-57.599999999999994,1113.6],[-96,1113.6]]]]}}]}
