{"type":"FeatureCollection","features":[{"type":"Feature","properties":{"kind":"district","id":108,"name":"Crest District"},"geometry":{"type":"MultiPolygon","coordinates":[[[[-2592,-1766.3999999999999],[-2534.4,-1766.3999999999999],[-2534.4,-1747.2],[-2419.2,-1747.2],[-2419.2,-1728],[-2380.7999999999997,-1728],[-2380.7999999999997,-1689.6],[-2361.6,-1689.6],[-2361.6,-1651.2],[-2342.4,-1651.2],[-2342.4,-1555.2],[-2361.6,-1555.2],[-2361.6,-1420.8],[-2342.4,-1420.8],[-2342.4,-1401.6],[-2361.6,-1401.6],[-2361.6,-1363.2],[-2380.7999999999997,-1363.2],[-2380.7999999999997,-1344],[-2457.6,-1344],[-2457.6,-1363.2],[-2476.7999999999997,-1363.2],[-2476.7999999999997,-1382.3999999999999],[-2496,-1382.3999999999999],[-2496,-1401.6],[-2534.4,-1401.6],[-2534.4,-1382.3999999999999],[-2553.6,-1382.3999999999999],[-2553.6,-1363.2],[-2649.6,-1363.2],[-2649.6,-1382.3999999999999],[-2688,-1382.3999999999999],[-2688,-1401.6],[-2707.2,-1401.6],[-2707.2,-1440],[-2726.4,-1440],[-2726.4,-1555.2],[-2745.6,-1555.2],[-2745.6,-1651.2],[-2764.7999999999997,-1651.2],[-2764.7999999999997,-1670.3999999999999],[-2745.6,-1670.3999999999999],[-2745.6,-1708.8],[-2707.2,-1708.8],[-2707.2,-1728],[-2649.6,-1728],[-2649.6,-1747.2],[-2592,-1747.2],[-2592,-1766.3999999999999]]]]}},{"type":"Feature","properties":{"kind":"district","id":109,"name":"Crescent Park"},"geometry":{"type":"MultiPolygon","coordinates":[[[[-537.6,-3283.2],[-422.4,-3283.2],[-422.4,-3264],[-384,-3264],[-384,-3244.7999999999997],[-364.8,-3244.7999999999997],[-364.8,-3225.6],[-345.59999999999997,-3225.6],[-345.59999999999997,-3206.4],[-307.2,-3206.4],[-307.2,-3187.2],[-249.6,-3187.2],[-249.6,-3168],[-230.39999999999998,-3168],[-230.39999999999998,-3148.7999999999997],[-211.2,-3148.7999999999997],[-211.2,-3052.7999999999997],[-230.39999999999998,-3052.7999999999997],[-230.39999999999998,-3033.6],[-249.6,-3033.6],[-249.6,-3014.4],[-288,-3014.4],[-288,-2995.2],[-326.4,-2995.2],[-326.4,-2976],[-422.4,-2976],[-422.4,-2956.7999999999997],[-614.4,-2956.7999999999997],[-614.4,-2937.6],[-691.1999999999999,-2937.6],[-691.1999999999999,-2956.7999999999997],[-729.6,-2956.7999999999997],[-729.6,-2976],[-748.8,-2976],[-748.8,-3014.4],[-768,-3014.4],[-768,-3033.6],[-748.8,-3033.6],[-748.8,-3072],[-729.6,-3072],[-729.6,-3110.4],[-710.4,-3110.4],[-710.4,-3148.7999999999997],[-691.1999999999999,-3148.7999999999997],[-691.1999999999999,-3168],[-672,-3168],[-672,-3206.4],[-652.8,-3206.4],[-652.8,-3244.7999999999997],[-614.4,-3244.7999999999997],[-614.4,-3264],[-537.6,-3264],[-537.6,-3283.2]]]]}},{"type":"Feature","properties":{"kind":"district","id":110,"name":"Poplar Square"},"geometry":{"type":"MultiPolygon","coordinates":[[[[-192,-3072],[-76.8,-3072],[-76.8,-3052.7999999999997],[-57.599999999999994,-3052.7999999999997],[-57.599999999999994,-3033.6],[-19.2,-3033.6],[-19.2,-3014.4],[0,-3014.4],[0,-2995.2],[19.2,-2995.2],[19.2,-2976],[57.599999999999994,-2976],[57.599999999999994,-2956.7999999999997],[96,-2956.7999999999997],[96,-2937.6],[115.19999999999999,-2937.6],[115.19999999999999,-2918.4],[134.4,-2918.4],[134.4,-2899.2],[172.79999999999998,-2899.2],[172.79999999999998,-2880],[192,-2880],[192,-2784],[172.79999999999998,-2784],[172.79999999999998,-2764.7999999999997],[-76.8,-2764.7999999999997],[-76.8,-2784],[-172.79999999999998,-2784],[-172.79999999999998,-2803.2],[-230.39999999999998,-2803.2],[-230.39999999999998,-2822.4],[-249.6,-2822.4],[-249.6,-2841.6],[-268.8,-2841.6],[-268.8,-2860.7999999999997],[-288,-2860.7999999999997],[-288,-2880],[-307.2,-2880],[-307.2,-2918.4],[-326.4,-2918.4],[-326.4,-2995.2],[-288,-2995.2],[-288,-3014.4],[-249.6,-3014.4],[-249.6,-3033.6],[-230.39999999999998,-3033.6],[-230.39999999999998,-3052.7999999999997],[-192,-3052.7999999999997],[-192,-3072]]]]}},{"type":"Feature","properties":{"kind":"district","id":111,"name":"Valley Park"},"geometry":{"type":"MultiPolygon","coordinates":[[[[0,-3244.7999999999997],[76.8,-3244.7999999999997],[76.8,-3225.6],[96,-3225.6],[96,-3206.4],[134.4,-3206.4],[134.4,-3187.2],[230.39999999999998,-3187.2],[230.39999999999998,-3168],[307.2,-3168],[307.2,-3148.7999999999997],[345.59999999999997,-3148.7999999999997],[345.59999999999997,-3129.6],[364.8,-3129.6],[364.8,-3110.4],[384,-3110.4],[384,-3091.2],[403.2,-3091.2],[403.2,-2956.7999999999997],[384,-2956.7999999999997],[384,-2937.6],[364.8,-2937.6],[364.8,-2918.4],[268.8,-2918.4],[268.8,-2937.6],[249.6,-2937.6],[249.6,-2956.7999999999997],[230.39999999999998,-2956.7999999999997],[230.39999999999998,-2995.2],[211.2,-2995.2],[211.2,-3033.6],[172.79999999999998,-3033.6],[172.79999999999998,-3052.7999999999997],[96,-3052.7999999999997],[96,-3072],[57.599999999999994,-3072],[57.599999999999994,-3091.2],[19.2,-3091.2],[19.2,-3110.4],[-19.2,-3110.4],[-19.2,-3129.6],[-38.4,-3129.6],[-38.4,-3206.4],[-19.2,-3206.4],[-19.2,-3225.6],[0,-3225.6],[0,-3244.7999999999997]]]]}},{"type":"Feature","properties":{"kind":"district","id":112,"name":"Aspen Hills"},"geometry":{"type":"MultiPolygon","coordinates":[[[[998.4,-4819.2],[1555.2,-4819.2],[1555.2,-4780.8],[1574.3999999999999,-4780.8],[1574.3999999999999,-4665.599999999999],[1593.6,-4665.599999999999],[1593.6,-4588.8],[1612.8,-4588.8],[1612.8,-4550.4],[1632,-4550.4],[1632,-4512],[1670.3999999999999,-4512],[1670.3999999999999,-4492.8],[1689.6,-4492.8],[1689.6,-4454.4],[1708.8,-4454.4],[1708.8,-4416],[1728,-4416],[1728,-4300.8],[1708.8,-4300.8],[1708.8,-4262.4],[1689.6,-4262.4],[1689.6,-4243.2],[1670.3999999999999,-4243.2],[1670.3999999999999,-4224],[1632,-4224],[1632,-4204.8],[1593.6,-4204.8],[1593.6,-4185.599999999999],[1574.3999999999999,-4185.599999999999],[1574.3999999999999,-4166.4],[1536,-4166.4],[1536,-4147.2],[1420.8,-4147.2],[1420.8,-4166.4],[1382.3999999999999,-4166.4],[1382.3999999999999,-4185.599999999999],[1344,-4185.599999999999],[1344,-4224],[1324.8,-4224],[1324.8,-4262.4],[1305.6,-4262.4],[1305.6,-4281.599999999999],[1286.3999999999999,-4281.599999999999],[1286.3999999999999,-4300.8],[1267.2,-4300.8],[1267.2,-4320],[1248,-4320],[1248,-4358.4],[1228.8,-4358.4],[1228.8,-4396.8],[1209.6,-4396.8],[1209.6,-4416],[1190.3999999999999,-4416],[1190.3999999999999,-4435.2],[1171.2,-4435.2],[1171.2,-4454.4],[1152,-4454.4],[1152,-4473.599999999999],[1132.8,-4473.599999999999],[1132.8,-4492.8],[1113.6,-4492.8],[1113.6,-4512],[1094.3999999999999,-4512],[1094.3999999999999,-4531.2],[1075.2,-4531.2],[1075.2,-4569.599999999999],[1056,-4569.599999999999],[1056,-4588.8],[1036.8,-4588.8],[1036.8,-4608],[1017.5999999999999,-4608],[1017.5999999999999,-4646.4],[998.4,-4646.4],[998.4,-4684.8],[979.1999999999999,-4684.8],[979.1999999999999,-4780.8],[998.4,-4780.8],[998.4,-4819.2]]]]}},{"type":"Feature","properties":{"kind":"district","id":113,"name":"Linden Square"},"geometry":{"type":"MultiPolygon","coordinates":[[[[2572.7999999999997,-3206.4],[2726.4,-3206.4],[2726.4,-3187.2],[2764.7999999999997,-3187.2],[2764.7999999999997,-3168],[2784,-3168],[2784,-3148.7999999999997],[2803.2,-3148.7999999999997],[2803.2,-3129.6],[2822.4,-3129.6],[2822.4,-3110.4],[2841.6,-3110.4],[2841.6,-3091.2],[2860.7999999999997,-3091.2],[2860.7999999999997,-3072],[2880,-3072],[2880,-3052.7999999999997],[2899.2,-3052.7999999999997],[2899.2,-2899.2],[3014.4,-2899.2],[3014.4,-2880],[3033.6,-2880],[3033.6,-2841.6],[3052.7999999999997,-2841.6],[3052.7999999999997,-2822.4],[3072,-2822.4],[3072,-2784],[3091.2,-2784],[3091.2,-2764.7999999999997],[3110.4,-2764.7999999999997],[3110.4,-2726.4],[3129.6,-2726.4],[3129.6,-2707.2],[3148.7999999999997,-2707.2],[3148.7999999999997,-2649.6],[3168,-2649.6],[3168,-2611.2],[3187.2,-2611.2],[3187.2,-2572.7999999999997],[3206.4,-2572.7999999999997],[3206.4,-2534.4],[3225.6,-2534.4],[3225.6,-2496],[3244.7999999999997,-2496],[3244.7999999999997,-2438.4],[3264,-2438.4],[3264,-2361.6],[3283.2,-2361.6],[3283.2,-2304],[3302.4,-2304],[3302.4,-2073.6],[3321.6,-2073.6],[3321.6,-1939.1999999999998],[3302.4,-1939.1999999999998],[3302.4,-1900.8],[3283.2,-1900.8],[3283.2,-1881.6],[3244.7999999999997,-1881.6],[3244.7999999999997,-1862.3999999999999],[3206.4,-1862.3999999999999],[3206.4,-1843.1999999999998],[3187.2,-1843.1999999999998],[3187.2,-1824],[3129.6,-1824],[3129.6,-1804.8],[3072,-1804.8],[3072,-1824],[3014.4,-1824],[3014.4,-1843.1999999999998],[2995.2,-1843.1999999999998],[2995.2,-1862.3999999999999],[2976,-1862.3999999999999],[2976,-1881.6],[2841.6,-1881.6],[2841.6,-1900.8],[2822.4,-1900.8],[2822.4,-1920],[2764.7999999999997,-1920],[2764.7999999999997,-1939.1999999999998],[2726.4,-1939.1999999999998],[2726.4,-1958.3999999999999],[2707.2,-1958.3999999999999],[2707.2,-1977.6],[2668.7999999999997,-1977.6],[2668.7999999999997,-1996.8],[2649.6,-1996.8],[2649.6,-2016],[2611.2,-2016],[2611.2,-2035.1999999999998],[2592,-2035.1999999999998],[2592,-2054.4],[2572.7999999999997,-2054.4],[2572.7999999999997,-2092.7999999999997],[2553.6,-2092.7999999999997],[2553.6,-2112],[2534.4,-2112],[2534.4,-2131.2],[2515.2,-2131.2],[2515.2,-2169.6],[2496,-2169.6],[2496,-2188.7999999999997],[2476.7999999999997,-2188.7999999999997],[2476.7999999999997,-2227.2],[2438.4,-2227.2],[2438.4,-2246.4],[2419.2,-2246.4],[2419.2,-2265.6],[2400,-2265.6],[2400,-2304],[2380.7999999999997,-2304],[2380.7999999999997,-2380.7999999999997],[2361.6,-2380.7999999999997],[2361.6,-2419.2],[2342.4,-2419.2],[2342.4,-2457.6],[2323.2,-2457.6],[2323.2,-2476.7999999999997],[2304,-2476.7999999999997],[2304,-2515.2],[2284.7999999999997,-2515.2],[2284.7999999999997,-2534.4],[2265.6,-2534.4],[2265.6,-2592],[2246.4,-2592],[2246.4,-2668.7999999999997],[2227.2,-2668.7999999999997],[2227.2,-2803.2],[2246.4,-2803.2],[2246.4,-2956.7999999999997],[2265.6,-2956.7999999999997],[2265.6,-3014.4],[2284.7999999999997,-3014.4],[2284.7999999999997,-3033.6],[2304,-3033.6],[2304,-3052.7999999999997],[2323.2,-3052.7999999999997],[2323.2,-3072],[2342.4,-3072],[2342.4,-3091.2],[2400,-3091.2],[2400,-3110.4],[2419.2,-3110.4],[2419.2,-3129.6],[2457.6,-3129.6],[2457.6,-3148.7999999999997],[2496,-3148.7999999999997],[2496,-3168],[2515.2,-3168],[2515.2,-3187.2],[2572.7999999999997,-3187.2],[2572.7999999999997,-3206.4]]]]}},{"type":"Feature","properties":{"kind":"district","id":114,"name":"Chester Heights"},"geometry":{"type":"MultiPolygon","coordinates":[[[[1574.3999999999999,-4032],[1747.2,-4032],[1747.2,-4012.7999999999997],[1785.6,-4012.7999999999997],[1785.6,-3993.6],[1862.3999999999999,-3993.6],[1862.3999999999999,-3974.3999999999996],[1900.8,-3974.3999999999996],[1900.8,-3955.2],[1920,-3955.2],[1920,-3936],[1939.1999999999998,-3936],[1939.1999999999998,-3916.7999999999997],[1977.6,-3916.7999999999997],[1977.6,-3897.6],[1996.8,-3897.6],[1996.8,-3859.2],[2016,-3859.2],[2016,-3840],[2035.1999999999998,-3840],[2035.1999999999998,-3820.7999999999997],[2054.4,-3820.7999999999997],[2054.4,-3763.2],[2073.6,-3763.2],[2073.6,-3724.7999999999997],[2092.7999999999997,-3724.7999999999997],[2092.7999999999997,-3686.3999999999996],[2112,-3686.3999999999996],[2112,-3648],[2131.2,-3648],[2131.2,-3609.6],[2150.4,-3609.6],[2150.4,-3571.2],[2169.6,-3571.2],[2169.6,-3552],[2188.7999999999997,-3552],[2188.7999999999997,-3494.4],[2208,-3494.4],[2208,-3417.6],[2227.2,-3417.6],[2227.2,-3360],[2246.4,-3360],[2246.4,-3225.6],[2265.6,-3225.6],[2265.6,-3206.4],[2246.4,-3206.4],[2246.4,-3129.6],[2227.2,-3129.6],[2227.2,-3091.2],[2208,-3091.2],[2208,-3072],[2188.7999999999997,-3072],[2188.7999999999997,-3052.7999999999997],[2169.6,-3052.7999999999997],[2169.6,-3033.6],[2112,-3033.6],[2112,-3014.4],[2054.4,-3014.4],[2054.4,-2995.2],[1996.8,-2995.2],[1996.8,-2976],[1862.3999999999999,-2976],[1862.3999999999999,-2995.2],[1824,-2995.2],[1824,-3014.4],[1766.3999999999999,-3014.4],[1766.3999999999999,-3033.6],[1728,-3033.6],[1728,-3052.7999999999997],[1708.8,-3052.7999999999997],[1708.8,-3072],[1689.6,-3072],[1689.6,-3091.2],[1670.3999999999999,-3091.2],[1670.3999999999999,-3110.4],[1651.2,-3110.4],[1651.2,-3129.6],[1612.8,-3129.6],[1612.8,-3148.7999999999997],[1593.6,-3148.7999999999997],[1593.6,-3168],[1574.3999999999999,-3168],[1574.3999999999999,-3187.2],[1555.2,-3187.2],[1555.2,-3225.6],[1536,-3225.6],[1536,-3264],[1516.8,-3264],[1516.8,-3302.4],[1497.6,-3302.4],[1497.6,-3340.7999999999997],[1478.3999999999999,-3340.7999999999997],[1478.3999999999999,-3379.2],[1459.2,-3379.2],[1459.2,-3494.4],[1440,-3494.4],[1440,-3686.3999999999996],[1420.8,-3686.3999999999996],[1420.8,-3705.6],[1440,-3705.6],[1440,-3878.3999999999996],[1459.2,-3878.3999999999996],[1459.2,-3916.7999999999997],[1478.3999999999999,-3916.7999999999997],[1478.3999999999999,-3955.2],[1497.6,-3955.2],[1497.6,-3974.3999999999996],[1516.8,-3974.3999999999996],[1516.8,-3993.6],[1536,-3993.6],[1536,-4012.7999999999997],[1574.3999999999999,-4012.7999999999997],[1574.3999999999999,-4032]]]]}},{"type":"Feature","properties":{"kind":"district","id":115,"name":"Elm Hills"},"geometry":{"type":"MultiPolygon","coordinates":[[[[230.39999999999998,-4819.2],[537.6,-4819.2],[537.6,-4800],[556.8,-4800],[556.8,-4780.8],[595.1999999999999,-4780.8],[595.1999999999999,-4761.599999999999],[633.6,-4761.599999999999],[633.6,-4742.4],[652.8,-4742.4],[652.8,-4723.2],[691.1999999999999,-4723.2],[691.1999999999999,-4704],[710.4,-4704],[710.4,-4684.8],[729.6,-4684.8],[729.6,-4665.599999999999],[768,-4665.599999999999],[768,-4646.4],[806.4,-4646.4],[806.4,-4627.2],[825.6,-4627.2],[825.6,-4608],[844.8,-4608],[844.8,-4588.8],[883.1999999999999,-4588.8],[883.1999999999999,-4569.599999999999],[921.5999999999999,-4569.599999999999],[921.5999999999999,-4550.4],[940.8,-4550.4],[940.8,-4512],[960,-4512],[960,-4492.8],[998.4,-4492.8],[998.4,-4473.599999999999],[1017.5999999999999,-4473.599999999999],[1017.5999999999999,-4454.4],[1036.8,-4454.4],[1036.8,-4435.2],[1056,-4435.2],[1056,-4416],[1075.2,-4416],[1075.2,-4396.8],[1094.3999999999999,-4396.8],[1094.3999999999999,-4377.599999999999],[1113.6,-4377.599999999999],[1113.6,-4358.4],[1132.8,-4358.4],[1132.8,-4320],[1152,-4320],[1152,-4300.8],[1171.2,-4300.8],[1171.2,-4262.4],[1190.3999999999999,-4262.4],[1190.3999999999999,-4147.2],[1171.2,-4147.2],[1171.2,-4089.6],[1152,-4089.6],[1152,-4070.3999999999996],[1132.8,-4070.3999999999996],[1132.8,-4051.2],[1113.6,-4051.2],[1113.6,-4032],[1056,-4032],[1056,-4012.7999999999997],[979.1999999999999,-4012.7999999999997],[979.1999999999999,-4032],[883.1999999999999,-4032],[883.1999999999999,-4051.2],[864,-4051.2],[864,-4070.3999999999996],[787.1999999999999,-4070.3999999999996],[787.1999999999999,-4051.2],[768,-4051.2],[768,-4032],[748.8,-4032],[748.8,-4012.7999999999997],[729.6,-4012.7999999999997],[729.6,-3993.6],[710.4,-3993.6],[710.4,-3974.3999999999996],[691.1999999999999,-3974.3999999999996],[691.1999999999999,-3955.2],[652.8,-3955.2],[652.8,-3936],[633.6,-3936],[633.6,-3916.7999999999997],[595.1999999999999,-3916.7999999999997],[595.1999999999999,-3897.6],[518.4,-3897.6],[518.4,-3878.3999999999996],[480,-3878.3999999999996],[480,-3859.2],[364.8,-3859.2],[364.8,-3878.3999999999996],[307.2,-3878.3999999999996],[307.2,-3897.6],[288,-3897.6],[288,-3916.7999999999997],[268.8,-3916.7999999999997],[268.8,-3936],[249.6,-3936],[249.6,-3955.2],[230.39999999999998,-3955.2],[230.39999999999998,-3974.3999999999996],[211.2,-3974.3999999999996],[211.2,-4012.7999999999997],[192,-4012.7999999999997],[192,-4032],[153.6,-4032],[153.6,-4051.2],[134.4,-4051.2],[134.4,-4089.6],[115.19999999999999,-4089.6],[115.19999999999999,-4147.2],[96,-4147.2],[96,-4185.599999999999],[76.8,-4185.599999999999],[76.8,-4243.2],[57.599999999999994,-4243.2],[57.599999999999994,-4339.2],[76.8,-4339.2],[76.8,-4512],[96,-4512],[96,-4550.4],[115.19999999999999,-4550.4],[115.19999999999999,-4588.8],[134.4,-4588.8],[134.4,-4742.4],[153.6,-4742.4],[153.6,-4761.599999999999],[172.79999999999998,-4761.599999999999],[172.79999999999998,-4780.8],[192,-4780.8],[192,-4800],[230.39999999999998,-4800],[230.39999999999998,-4819.2]]]]}},{"type":"Feature","properties":{"kind":"district","id":116,"name":"Birch Park"},"geometry":{"type":"MultiPolygon","coordinates":[[[[-326.4,-4800],[-192,-4800],[-192,-4780.8],[-153.6,-4780.8],[-153.6,-4761.599999999999],[-134.4,-4761.599999999999],[-134.4,-4780.8],[-115.19999999999999,-4780.8],[-115.19999999999999,-4800],[-57.599999999999994,-4800],[-57.599999999999994,-4780.8],[-38.4,-4780.8],[-38.4,-4761.599999999999],[0,-4761.599999999999],[0,-4742.4],[19.2,-4742.4],[19.2,-4684.8],[38.4,-4684.8],[38.4,-4531.2],[19.2,-4531.2],[19.2,-4473.599999999999],[0,-4473.599999999999],[0,-4435.2],[-19.2,-4435.2],[-19.2,-4416],[-38.4,-4416],[-38.4,-4396.8],[-57.599999999999994,-4396.8],[-57.599999999999994,-4281.599999999999],[-76.8,-4281.599999999999],[-76.8,-4224],[-96,-4224],[-96,-4204.8],[-115.19999999999999,-4204.8],[-115.19999999999999,-4185.599999999999],[-134.4,-4185.599999999999],[-134.4,-4166.4],[-153.6,-4166.4],[-153.6,-4147.2],[-192,-4147.2],[-192,-4128],[-345.59999999999997,-4128],[-345.59999999999997,-4108.8],[-384,-4108.8],[-384,-4128],[-403.2,-4128],[-403.2,-4108.8],[-480,-4108.8],[-480,-4128],[-499.2,-4128],[-499.2,-4166.4],[-518.4,-4166.4],[-518.4,-4224],[-499.2,-4224],[-499.2,-4300.8],[-480,-4300.8],[-480,-4339.2],[-460.79999999999995,-4339.2],[-460.79999999999995,-4358.4],[-441.59999999999997,-4358.4],[-441.59999999999997,-4377.599999999999],[-403.2,-4377.599999999999],[-403.2,-4684.8],[-384,-4684.8],[-384,-4742.4],[-364.8,-4742.4],[-364.8,-4761.599999999999],[-345.59999999999997,-4761.599999999999],[-345.59999999999997,-4780.8],[-326.4,-4780.8],[-326.4,-4800]]]]}},{"type":"Feature","properties":{"kind":"district","id":117,"name":"Robin District"},"geometry":{"type":"MultiPolygon","coordinates":[[[[-1574.3999999999999,-1728],[-1497.6,-1728],[-1497.6,-1708.8],[-1478.3999999999999,-1708.8],[-1478.3999999999999,-1689.6],[-1459.2,-1689.6],[-1459.2,-1670.3999999999999],[-1363.2,-1670.3999999999999],[-1363.2,-1651.2],[-1305.6,-1651.2],[-1305.6,-1632],[-1248,-1632],[-1248,-1612.8],[-1209.6,-1612.8],[-1209.6,-1593.6],[-1152,-1593.6],[-1152,-1555.2],[-1132.8,-1555.2],[-1132.8,-1536],[-1113.6,-1536],[-1113.6,-1516.8],[-1094.3999999999999,-1516.8],[-1094.3999999999999,-1497.6],[-1075.2,-1497.6],[-1075.2,-1478.3999999999999],[-1056,-1478.3999999999999],[-1056,-1459.2],[-1036.8,-1459.2],[-1036.8,-1440],[-1017.5999999999999,-1440],[-1017.5999999999999,-1420.8],[-998.4,-1420.8],[-998.4,-1248],[-1017.5999999999999,-1248],[-1017.5999999999999,-1209.6],[-1036.8,-1209.6],[-1036.8,-1190.3999999999999],[-1056,-1190.3999999999999],[-1056,-1171.2],[-1132.8,-1171.2],[-1132.8,-1152],[-1209.6,-1152],[-1209.6,-1171.2],[-1286.3999999999999,-1171.2],[-1286.3999999999999,-1190.3999999999999],[-1344,-1190.3999999999999],[-1344,-1209.6],[-1401.6,-1209.6],[-1401.6,-1228.8],[-1440,-1228.8],[-1440,-1248],[-1459.2,-1248],[-1459.2,-1228.8],[-1497.6,-1228.8],[-1497.6,-1248],[-1536,-1248],[-1536,-1267.2],[-1555.2,-1267.2],[-1555.2,-1286.3999999999999],[-1593.6,-1286.3999999999999],[-1593.6,-1305.6],[-1651.2,-1305.6],[-1651.2,-1324.8],[-1708.8,-1324.8],[-1708.8,-1344],[-1728,-1344],[-1728,-1363.2],[-1747.2,-1363.2],[-1747.2,-1420.8],[-1766.3999999999999,-1420.8],[-1766.3999999999999,-1478.3999999999999],[-1785.6,-1478.3999999999999],[-1785.6,-1497.6],[-1766.3999999999999,-1497.6],[-1766.3999999999999,-1574.3999999999999],[-1747.2,-1574.3999999999999],[-1747.2,-1612.8],[-1708.8,-1612.8],[-1708.8,-1632],[-1689.6,-1632],[-1689.6,-1651.2],[-1670.3999999999999,-1651.2],[-1670.3999999999999,-1670.3999999999999],[-1651.2,-1670.3999999999999],[-1651.2,-1689.6],[-1612.8,-1689.6],[-1612.8,-1708.8],[-1574.3999999999999,-1708.8],[-1574.3999999999999,-1728]]]]}},{"type":"Feature","properties":{"kind":"district","id":118,"name":"Barlow Hills"},"geometry":{"type":"MultiPolygon","coordinates":[[[[-1382.3999999999999,-1209.6],[-1344,-1209.6],[-1344,-1190.3999999999999],[-1286.3999999999999,-1190.3999999999999],[-1286.3999999999999,-1171.2],[-1209.6,-1171.2],[-1209.6,-1152],[-1171.2,-1152],[-1171.2,-1056],[-1190.3999999999999,-1056],[-1190.3999999999999,-1036.8],[-1209.6,-1036.8],[-1209.6,-1017.5999999999999],[-1228.8,-1017.5999999999999],[-1228.8,-998.4],[-1248,-998.4],[-1248,-979.1999999999999],[-1267.2,-979.1999999999999],[-1267.2,-960],[-1286.3999999999999,-960],[-1286.3999999999999,-940.8],[-1305.6,-940.8],[-1305.6,-921.5999999999999],[-1324.8,-921.5999999999999],[-1324.8,-902.4],[-1344,-902.4],[-1344,-883.1999999999999],[-1420.8,-883.1999999999999],[-1420.8,-902.4],[-1440,-902.4],[-1440,-921.5999999999999],[-1459.2,-921.5999999999999],[-1459.2,-940.8],[-1478.3999999999999,-940.8],[-1478.3999999999999,-960],[-1497.6,-960],[-1497.6,-979.1999999999999],[-1516.8,-979.1999999999999],[-1516.8,-1017.5999999999999],[-1536,-1017.5999999999999],[-1536,-1056],[-1516.8,-1056],[-1516.8,-1094.3999999999999],[-1497.6,-1094.3999999999999],[-1497.6,-1113.6],[-1478.3999999999999,-1113.6],[-1478.3999999999999,-1132.8],[-1459.2,-1132.8],[-1459.2,-1152],[-1420.8,-1152],[-1420.8,-1171.2],[-1401.6,-1171.2],[-1401.6,-1190.3999999999999],[-1382.3999999999999,-1190.3999999999999],[-1382.3999999999999,-1209.6]]]]}},{"type":"Feature","properties":{"kind":"district","id":119,"name":"Briarwood Park"},"geometry":{"type":"MultiPolygon","coordinates":[[[[-1036.8,-1209.6],[-998.4,-1209.6],[-998.4,-1171.2],[-979.1999999999999,-1171.2],[-979.1999999999999,-1036.8],[-960,-1036.8],[-960,-979.1999999999999],[-979.1999999999999,-979.1999999999999],[-979.1999999999999,-960],[-998.4,-960],[-998.4,-940.8],[-1056,-940.8],[-1056,-921.5999999999999],[-1171.2,-921.5999999999999],[-1171.2,-940.8],[-1209.6,-940.8],[-1209.6,-921.5999999999999],[-1267.2,-921.5999999999999],[-1267.2,-940.8],[-1286.3999999999999,-940.8],[-1286.3999999999999,-960],[-1267.2,-960],[-1267.2,-979.1999999999999],[-1248,-979.1999999999999],[-1248,-998.4],[-1228.8,-998.4],[-1228.8,-1017.5999999999999],[-1209.6,-1017.5999999999999],[-1209.6,-1036.8],[-1190.3999999999999,-1036.8],[-1190.3999999999999,-1056],[-1171.2,-1056],[-1171.2,-1132.8],[-1152,-1132.8],[-1152,-1152],[-1132.8,-1152],[-1132.8,-1171.2],[-1056,-1171.2],[-1056,-1190.3999999999999],[-1036.8,-1190.3999999999999],[-1036.8,-1209.6]]]]}},{"type":"Feature","properties":{"kind":"district","id":120,"name":"Brook District"},"geometry":{"type":"MultiPolygon","coordinates":[[[[1209.6,-2188.7999999999997],[1382.3999999999999,-2188.7999999999997],[1382.3999999999999,-2169.6],[1440,-2169.6],[1440,-2150.4],[1536,-2150.4],[1536,-2131.2],[1555.2,-2131.2],[1555.2,-2112],[1593.6,-2112],[1593.6,-2092.7999999999997],[1632,-2092.7999999999997],[1632,-2073.6],[1651.2,-2073.6],[1651.2,-2054.4],[1689.6,-2054.4],[1689.6,-2035.1999999999998],[1708.8,-2035.1999999999998],[1708.8,-2016],[1728,-2016],[1728,-1996.8],[1747.2,-1996.8],[1747.2,-1977.6],[1766.3999999999999,-1977.6],[1766.3999999999999,-1958.3999999999999],[1785.6,-1958.3999999999999],[1785.6,-1939.1999999999998],[1804.8,-1939.1999999999998],[1804.8,-1920],[1824,-1920],[1824,-1900.8],[1843.1999999999998,-1900.8],[1843.1999999999998,-1881.6],[1862.3999999999999,-1881.6],[1862.3999999999999,-1843.1999999999998],[1881.6,-1843.1999999999998],[1881.6,-1824],[1900.8,-1824],[1900.8,-1804.8],[1920,-1804.8],[1920,-1766.3999999999999],[1939.1999999999998,-1766.3999999999999],[1939.1999999999998,-1728],[1958.3999999999999,-1728],[1958.3999999999999,-1689.6],[1977.6,-1689.6],[1977.6,-1651.2],[1996.8,-1651.2],[1996.8,-1632],[2016,-1632],[2016,-1612.8],[2035.1999999999998,-1612.8],[2035.1999999999998,-1574.3999999999999],[2054.4,-1574.3999999999999],[2054.4,-1555.2],[2073.6,-1555.2],[2073.6,-1459.2],[2092.7999999999997,-1459.2],[2092.7999999999997,-1401.6],[2112,-1401.6],[2112,-1305.6],[2131.2,-1305.6],[2131.2,-1209.6],[2150.4,-1209.6],[2150.4,-1036.8],[2169.6,-1036.8],[2169.6,-979.1999999999999],[2188.7999999999997,-979.1999999999999],[2188.7999999999997,-729.6],[2169.6,-729.6],[2169.6,-595.1999999999999],[2150.4,-595.1999999999999],[2150.4,-403.2],[2131.2,-403.2],[2131.2,-345.59999999999997],[2112,-345.59999999999997],[2112,-307.2],[2092.7999999999997,-307.2],[2092.7999999999997,-249.6],[2073.6,-249.6],[2073.6,-172.79999999999998],[2054.4,-172.79999999999998],[2054.4,-115.19999999999999],[2035.1999999999998,-115.19999999999999],[2035.1999999999998,-19.2],[2016,-19.2],[2016,38.4],[1996.8,38.4],[1996.8,57.599999999999994],[1977.6,57.599999999999994],[1977.6,76.8],[1958.3999999999999,76.8],[1958.3999999999999,172.79999999999998],[1939.1999999999998,172.79999999999998],[1939.1999999999998,192],[1920,192],[1920,211.2],[1900.8,211.2],[1900.8,230.39999999999998],[1881.6,230.39999999999998],[1881.6,249.6],[1862.3999999999999,249.6],[1862.3999999999999,288],[1843.1999999999998,288],[1843.1999999999998,326.4],[1824,326.4],[1824,345.59999999999997],[1804.8,345.59999999999997],[1804.8,384],[1785.6,384],[1785.6,403.2],[1766.3999999999999,403.2],[1766.3999999999999,422.4],[1747.2,422.4],[1747.2,441.59999999999997],[1728,441.59999999999997],[1728,460.79999999999995],[1708.8,460.79999999999995],[1708.8,480],[1670.3999999999999,480],[1670.3999999999999,499.2],[1651.2,499.2],[1651.2,518.4],[1612.8,518.4],[1612.8,537.6],[1555.2,537.6],[1555.2,556.8],[1516.8,556.8],[1516.8,576],[1478.3999999999999,576],[1478.3999999999999,595.1999999999999],[1305.6,595.1999999999999],[1305.6,576],[1267.2,576],[1267.2,556.8],[1248,556.8],[1248,537.6],[1228.8,537.6],[1228.8,499.2],[1209.6,499.2],[1209.6,480],[1190.3999999999999,480],[1190.3999999999999,403.2],[1171.2,403.2],[1171.2,326.4],[1152,326.4],[1152,268.8],[1132.8,268.8],[1132.8,192],[1113.6,192],[1113.6,134.4],[1094.3999999999999,134.4],[1094.3999999999999,38.4],[1075.2,38.4],[1075.2,-57.599999999999994],[1056,-57.599999999999994],[1056,-192],[1036.8,-192],[1036.8,-326.4],[1017.5999999999999,-326.4],[1017.5999999999999,-403.2],[1036.8,-403.2],[1036.8,-614.4],[1056,-614.4],[1056,-672],[1075.2,-672],[1075.2,-748.8],[1094.3999999999999,-748.8],[1094.3999999999999,-806.4],[1113.6,-806.4],[1113.6,-864],[1132.8,-864],[1132.8,-902.4],[1113.6,-902.4],[1113.6,-960],[1094.3999999999999,-960],[1094.3999999999999,-1056],[1075.2,-1056],[1075.2,-1152],[1056,-1152],[1056,-1248],[1036.8,-1248],[1036.8,-1324.8],[1017.5999999999999,-1324.8],[1017.5999999999999,-1363.2],[998.4,-1363.2],[998.4,-1440],[979.1999999999999,-1440],[979.1999999999999,-1497.6],[960,-1497.6],[960,-1574.3999999999999],[940.8,-1574.3999999999999],[940.8,-1708.8],[921.5999999999999,-1708.8],[921.5999999999999,-1824],[940.8,-1824],[940.8,-1881.6],[960,-1881.6],[960,-1939.1999999999998],[979.1999999999999,-1939.1999999999998],[979.1999999999999,-1977.6],[998.4,-1977.6],[998.4,-1996.8],[1017.5999999999999,-1996.8],[1017.5999999999999,-2016],[1036.8,-2016],[1036.8,-2054.4],[1056,-2054.4],[1056,-2073.6],[1075.2,-2073.6],[1075.2,-2112],[1094.3999999999999,-2112],[1094.3999999999999,-2131.2],[1113.6,-2131.2],[1113.6,-2150.4],[1152,-2150.4],[1152,-2169.6],[1209.6,-2169.6],[1209.6,-2188.7999999999997]]]]}},{"type":"Feature","properties":{"kind":"district","id":121,"name":"Linden District"},"geometry":{"type":"MultiPolygon","coordinates":[[[[-864,-1440],[-729.6,-1440],[-729.6,-1420.8],[-672,-1420.8],[-672,-1401.6],[-595.1999999999999,-1401.6],[-595.1999999999999,-1382.3999999999999],[-518.4,-1382.3999999999999],[-518.4,-1363.2],[-422.4,-1363.2],[-422.4,-1344],[-345.59999999999997,-1344],[-345.59999999999997,-1324.8],[-192,-1324.8],[-192,-1305.6],[-153.6,-1305.6],[-153.6,-1286.3999999999999],[-115.19999999999999,-1286.3999999999999],[-115.19999999999999,-1267.2],[-96,-1267.2],[-96,-1248],[-57.599999999999994,-1248],[-57.599999999999994,-1228.8],[-38.4,-1228.8],[-38.4,-1209.6],[0,-1209.6],[0,-1190.3999999999999],[38.4,-1190.3999999999999],[38.4,-1171.2],[57.599999999999994,-1171.2],[57.599999999999994,-1152],[76.8,-1152],[76.8,-1132.8],[96,-1132.8],[96,-998.4],[76.8,-998.4],[76.8,-960],[57.599999999999994,-960],[57.599999999999994,-940.8],[19.2,-940.8],[19.2,-921.5999999999999],[-57.599999999999994,-921.5999999999999],[-57.599999999999994,-902.4],[-76.8,-902.4],[-76.8,-921.5999999999999],[-134.4,-921.5999999999999],[-134.4,-940.8],[-172.79999999999998,-940.8],[-172.79999999999998,-960],[-192,-960],[-192,-979.1999999999999],[-230.39999999999998,-979.1999999999999],[-230.39999999999998,-998.4],[-249.6,-998.4],[-249.6,-1017.5999999999999],[-288,-1017.5999999999999],[-288,-1036.8],[-307.2,-1036.8],[-307.2,-1056],[-422.4,-1056],[-422.4,-1075.2],[-499.2,-1075.2],[-499.2,-1094.3999999999999],[-595.1999999999999,-1094.3999999999999],[-595.1999999999999,-1113.6],[-672,-1113.6],[-672,-1132.8],[-748.8,-1132.8],[-748.8,-1152],[-825.6,-1152],[-825.6,-1171.2],[-883.1999999999999,-1171.2],[-883.1999999999999,-1190.3999999999999],[-902.4,-1190.3999999999999],[-902.4,-1209.6],[-921.5999999999999,-1209.6],[-921.5999999999999,-1248],[-940.8,-1248],[-940.8,-1363.2],[-921.5999999999999,-1363.2],[-921.5999999999999,-1401.6],[-902.4,-1401.6],[-902.4,-1420.8],[-864,-1420.8],[-864,-1440]]]]}},{"type":"Feature","properties":{"kind":"district","id":122,"name":"Umber Square"},"geometry":{"type":"MultiPolygon","coordinates":[[[[422.4,-2496],[595.1999999999999,-2496],[595.1999999999999,-2476.7999999999997],[633.6,-2476.7999999999997],[633.6,-2457.6],[672,-2457.6],[672,-2438.4],[691.1999999999999,-2438.4],[691.1999999999999,-2419.2],[710.4,-2419.2],[710.4,-2400],[729.6,-2400],[729.6,-2380.7999999999997],[748.8,-2380.7999999999997],[748.8,-2361.6],[768,-2361.6],[768,-2342.4],[787.1999999999999,-2342.4],[787.1999999999999,-2323.2],[806.4,-2323.2],[806.4,-2284.7999999999997],[825.6,-2284.7999999999997],[825.6,-2246.4],[844.8,-2246.4],[844.8,-2208],[864,-2208],[864,-2150.4],[883.1999999999999,-2150.4],[883.1999999999999,-1920],[864,-1920],[864,-1881.6],[844.8,-1881.6],[844.8,-1862.3999999999999],[825.6,-1862.3999999999999],[825.6,-1843.1999999999998],[806.4,-1843.1999999999998],[806.4,-1824],[787.1999999999999,-1824],[787.1999999999999,-1804.8],[768,-1804.8],[768,-1785.6],[729.6,-1785.6],[729.6,-1766.3999999999999],[691.1999999999999,-1766.3999999999999],[691.1999999999999,-1747.2],[576,-1747.2],[576,-1766.3999999999999],[537.6,-1766.3999999999999],[537.6,-1785.6],[499.2,-1785.6],[499.2,-1766.3999999999999],[403.2,-1766.3999999999999],[403.2,-1785.6],[364.8,-1785.6],[364.8,-1804.8],[326.4,-1804.8],[326.4,-1843.1999999999998],[307.2,-1843.1999999999998],[307.2,-1881.6],[288,-1881.6],[288,-1920],[268.8,-1920],[268.8,-1958.3999999999999],[249.6,-1958.3999999999999],[249.6,-2016],[230.39999999999998,-2016],[230.39999999999998,-2054.4],[211.2,-2054.4],[211.2,-2131.2],[192,-2131.2],[192,-2265.6],[211.2,-2265.6],[211.2,-2323.2],[230.39999999999998,-2323.2],[230.39999999999998,-2361.6],[249.6,-2361.6],[249.6,-2380.7999999999997],[268.8,-2380.7999999999997],[268.8,-2400],[288,-2400],[288,-2419.2],[307.2,-2419.2],[307.2,-2438.4],[345.59999999999997,-2438.4],[345.59999999999997,-2457.6],[384,-2457.6],[384,-2476.7999999999997],[422.4,-2476.7999999999997],[422.4,-2496]]]]}},{"type":"Feature","properties":{"kind":"district","id":123,"name":"Umber District"},"geometry":{"type":"MultiPolygon","coordinates":[[[[-480,-2880],[-288,-2880],[-288,-2860.7999999999997],[-268.8,-2860.7999999999997],[-268.8,-2841.6],[-249.6,-2841.6],[-249.6,-2822.4],[-230.39999999999998,-2822.4],[-230.39999999999998,-2803.2],[-211.2,-2803.2],[-211.2,-2784],[-192,-2784],[-192,-2745.6],[-172.79999999999998,-2745.6],[-172.79999999999998,-2688],[-153.6,-2688],[-153.6,-2668.7999999999997],[-134.4,-2668.7999999999997],[-134.4,-2649.6],[-115.19999999999999,-2649.6],[-115.19999999999999,-2611.2],[-96,-2611.2],[-96,-2572.7999999999997],[-76.8,-2572.7999999999997],[-76.8,-2496],[-57.599999999999994,-2496],[-57.599999999999994,-2457.6],[-38.4,-2457.6],[-38.4,-2419.2],[-19.2,-2419.2],[-19.2,-2380.7999999999997],[0,-2380.7999999999997],[0,-2361.6],[19.2,-2361.6],[19.2,-2342.4],[38.4,-2342.4],[38.4,-2304],[57.599999999999994,-2304],[57.599999999999994,-2208],[76.8,-2208],[76.8,-2150.4],[96,-2150.4],[96,-2092.7999999999997],[115.19999999999999,-2092.7999999999997],[115.19999999999999,-2035.1999999999998],[134.4,-2035.1999999999998],[134.4,-1977.6],[153.6,-1977.6],[153.6,-1785.6],[134.4,-1785.6],[134.4,-1728],[153.6,-1728],[153.6,-1593.6],[134.4,-1593.6],[134.4,-1574.3999999999999],[115.19999999999999,-1574.3999999999999],[115.19999999999999,-1555.2],[96,-1555.2],[96,-1536],[76.8,-1536],[76.8,-1516.8],[-38.4,-1516.8],[-38.4,-1536],[-57.599999999999994,-1536],[-57.599999999999994,-1555.2],[-96,-1555.2],[-96,-1593.6],[-115.19999999999999,-1593.6],[-115.19999999999999,-1632],[-134.4,-1632],[-134.4,-1651.2],[-153.6,-1651.2],[-153.6,-1670.3999999999999],[-211.2,-1670.3999999999999],[-211.2,-1689.6],[-249.6,-1689.6],[-249.6,-1708.8],[-268.8,-1708.8],[-268.8,-1728],[-307.2,-1728],[-307.2,-1747.2],[-326.4,-1747.2],[-326.4,-1766.3999999999999],[-345.59999999999997,-1766.3999999999999],[-345.59999999999997,-1785.6],[-364.8,-1785.6],[-364.8,-1804.8],[-403.2,-1804.8],[-403.2,-1824],[-422.4,-1824],[-422.4,-1843.1999999999998],[-441.59999999999997,-1843.1999999999998],[-441.59999999999997,-1881.6],[-460.79999999999995,-1881.6],[-460.79999999999995,-1920],[-480,-1920],[-480,-1958.3999999999999],[-499.2,-1958.3999999999999],[-499.2,-1977.6],[-518.4,-1977.6],[-518.4,-1996.8],[-537.6,-1996.8],[-537.6,-2016],[-556.8,-2016],[-556.8,-2035.1999999999998],[-576,-2035.1999999999998],[-576,-2054.4],[-595.1999999999999,-2054.4],[-595.1999999999999,-2073.6],[-614.4,-2073.6],[-614.4,-2112],[-633.6,-2112],[-633.6,-2150.4],[-652.8,-2150.4],[-652.8,-2169.6],[-672,-2169.6],[-672,-2208],[-691.1999999999999,-2208],[-691.1999999999999,-2246.4],[-710.4,-2246.4],[-710.4,-2284.7999999999997],[-729.6,-2284.7999999999997],[-729.6,-2361.6],[-748.8,-2361.6],[-748.8,-2476.7999999999997],[-729.6,-2476.7999999999997],[-729.6,-2553.6],[-710.4,-2553.6],[-710.4,-2611.2],[-691.1999999999999,-2611.2],[-691.1999999999999,-2649.6],[-672,-2649.6],[-672,-2688],[-652.8,-2688],[-652.8,-2726.4],[-633.6,-2726.4],[-633.6,-2745.6],[-614.4,-2745.6],[-614.4,-2764.7999999999997],[-595.1999999999999,-2764.7999999999997],[-595.1999999999999,-2784],[-576,-2784],[-576,-2803.2],[-556.8,-2803.2],[-556.8,-2822.4],[-537.6,-2822.4],[-537.6,-2841.6],[-518.4,-2841.6],[-518.4,-2860.7999999999997],[-480,-2860.7999999999997],[-480,-2880]]]]}},{"type":"Feature","properties":{"kind":"district","id":124,"name":"Primrose Hills"},"geometry":{"type":"MultiPolygon","coordinates":[[[[-902.4,-1190.3999999999999],[-883.1999999999999,-1190.3999999999999],[-883.1999999999999,-1171.2],[-825.6,-1171.2],[-825.6,-1152],[-748.8,-1152],[-748.8,-1132.8],[-672,-1132.8],[-672,-1113.6],[-595.1999999999999,-1113.6],[-595.1999999999999,-1094.3999999999999],[-499.2,-1094.3999999999999],[-499.2,-1075.2],[-422.4,-1075.2],[-422.4,-1056],[-307.2,-1056],[-307.2,-1036.8],[-288,-1036.8],[-288,-1017.5999999999999],[-249.6,-1017.5999999999999],[-249.6,-998.4],[-230.39999999999998,-998.4],[-230.39999999999998,-979.1999999999999],[-192,-979.1999999999999],[-192,-921.5999999999999],[-211.2,-921.5999999999999],[-211.2,-902.4],[-268.8,-902.4],[-268.8,-883.1999999999999],[-288,-883.1999999999999],[-288,-864],[-307.2,-864],[-307.2,-844.8],[-326.4,-844.8],[-326.4,-825.6],[-345.59999999999997,-825.6],[-345.59999999999997,-787.1999999999999],[-364.8,-787.1999999999999],[-364.8,-710.4],[-384,-710.4],[-384,-633.6],[-460.79999999999995,-633.6],[-460.79999999999995,-614.4],[-556.8,-614.4],[-556.8,-633.6],[-710.4,-633.6],[-710.4,-652.8],[-902.4,-652.8],[-902.4,-672],[-998.4,-672],[-998.4,-691.1999999999999],[-1036.8,-691.1999999999999],[-1036.8,-710.4],[-1075.2,-710.4],[-1075.2,-729.6],[-1094.3999999999999,-729.6],[-1094.3999999999999,-748.8],[-1113.6,-748.8],[-1113.6,-768],[-1132.8,-768],[-1132.8,-787.1999999999999],[-1152,-787.1999999999999],[-1152,-921.5999999999999],[-1056,-921.5999999999999],[-1056,-940.8],[-998.4,-940.8],[-998.4,-960],[-979.1999999999999,-960],[-979.1999999999999,-979.1999999999999],[-960,-979.1999999999999],[-960,-1036.8],[-979.1999999999999,-1036.8],[-979.1999999999999,-1152],[-921.5999999999999,-1152],[-921.5999999999999,-1171.2],[-902.4,-1171.2],[-902.4,-1190.3999999999999]]]]}},{"type":"Feature","properties":{"kind":"district","id":125,"name":"Hemlock Park"},"geometry":{"type":"MultiPolygon","coordinates":[[[[57.599999999999994,-960],[76.8,-960],[76.8,-940.8],[115.19999999999999,-940.8],[115.19999999999999,-921.5999999999999],[134.4,-921.5999999999999],[134.4,-883.1999999999999],[153.6,-883.1999999999999],[153.6,-864],[172.79999999999998,-864],[172.79999999999998,-844.8],[153.6,-844.8],[153.6,-595.1999999999999],[172.79999999999998,-595.1999999999999],[172.79999999999998,-556.8],[192,-556.8],[192,-537.6],[211.2,-537.6],[211.2,-518.4],[249.6,-518.4],[249.6,-499.2],[268.8,-499.2],[268.8,-480],[288,-480],[288,-364.8],[268.8,-364.8],[268.8,-345.59999999999997],[211.2,-345.59999999999997],[211.2,-326.4],[192,-326.4],[192,-345.59999999999997],[172.79999999999998,-345.59999999999997],[172.79999999999998,-326.4],[-19.2,-326.4],[-19.2,-345.59999999999997],[-38.4,-345.59999999999997],[-38.4,-364.8],[-57.599999999999994,-364.8],[-57.599999999999994,-441.59999999999997],[-38.4,-441.59999999999997],[-38.4,-499.2],[-115.19999999999999,-499.2],[-115.19999999999999,-480],[-230.39999999999998,-480],[-230.39999999999998,-460.79999999999995],[-307.2,-460.79999999999995],[-307.2,-480],[-326.4,-480],[-326.4,-499.2],[-345.59999999999997,-499.2],[-345.59999999999997,-595.1999999999999],[-364.8,-595.1999999999999],[-364.8,-633.6],[-384,-633.6],[-384,-710.4],[-364.8,-710.4],[-364.8,-787.1999999999999],[-345.59999999999997,-787.1999999999999],[-345.59999999999997,-825.6],[-326.4,-825.6],[-326.4,-844.8],[-307.2,-844.8],[-307.2,-864],[-288,-864],[-288,-883.1999999999999],[-268.8,-883.1999999999999],[-268.8,-902.4],[-211.2,-902.4],[-211.2,-921.5999999999999],[-192,-921.5999999999999],[-192,-940.8],[-134.4,-940.8],[-134.4,-921.5999999999999],[-76.8,-921.5999999999999],[-76.8,-902.4],[-57.599999999999994,-902.4],[-57.599999999999994,-921.5999999999999],[19.2,-921.5999999999999],[19.2,-940.8],[57.599999999999994,-940.8],[57.599999999999994,-960]]]]}},{"type":"Feature","properties":{"kind":"district","id":126,"name":"Belmont Square"},"geometry":{"type":"MultiPolygon","coordinates":[[[[710.4,-1152],[825.6,-1152],[825.6,-1132.8],[883.1999999999999,-1132.8],[883.1999999999999,-1113.6],[902.4,-1113.6],[902.4,-1094.3999999999999],[921.5999999999999,-1094.3999999999999],[921.5999999999999,-1075.2],[940.8,-1075.2],[940.8,-1056],[960,-1056],[960,-1036.8],[979.1999999999999,-1036.8],[979.1999999999999,-1017.5999999999999],[998.4,-1017.5999999999999],[998.4,-940.8],[979.1999999999999,-940.8],[979.1999999999999,-652.8],[960,-652.8],[960,-633.6],[940.8,-633.6],[940.8,-595.1999999999999],[921.5999999999999,-595.1999999999999],[921.5999999999999,-460.79999999999995],[902.4,-460.79999999999995],[902.4,-403.2],[921.5999999999999,-403.2],[921.5999999999999,-76.8],[902.4,-76.8],[902.4,-38.4],[883.1999999999999,-38.4],[883.1999999999999,0],[864,0],[864,38.4],[844.8,38.4],[844.8,57.599999999999994],[825.6,57.599999999999994],[825.6,76.8],[806.4,76.8],[806.4,96],[787.1999999999999,96],[787.1999999999999,115.19999999999999],[748.8,115.19999999999999],[748.8,134.4],[710.4,134.4],[710.4,153.6],[556.8,153.6],[556.8,134.4],[518.4,134.4],[518.4,115.19999999999999],[499.2,115.19999999999999],[499.2,96],[480,96],[480,57.599999999999994],[460.79999999999995,57.599999999999994],[460.79999999999995,38.4],[441.59999999999997,38.4],[441.59999999999997,19.2],[422.4,19.2],[422.4,-19.2],[403.2,-19.2],[403.2,-57.599999999999994],[384,-57.599999999999994],[384,-96],[364.8,-96],[364.8,-115.19999999999999],[345.59999999999997,-115.19999999999999],[345.59999999999997,-134.4],[326.4,-134.4],[326.4,-172.79999999999998],[307.2,-172.79999999999998],[307.2,-249.6],[288,-249.6],[288,-307.2],[268.8,-307.2],[268.8,-364.8],[288,-364.8],[288,-480],[268.8,-480],[268.8,-499.2],[249.6,-499.2],[249.6,-518.4],[211.2,-518.4],[211.2,-537.6],[192,-537.6],[192,-556.8],[211.2,-556.8],[211.2,-652.8],[192,-652.8],[192,-672],[172.79999999999998,-672],[172.79999999999998,-691.1999999999999],[153.6,-691.1999999999999],[153.6,-844.8],[172.79999999999998,-844.8],[172.79999999999998,-864],[192,-864],[192,-883.1999999999999],[211.2,-883.1999999999999],[211.2,-902.4],[230.39999999999998,-902.4],[230.39999999999998,-921.5999999999999],[249.6,-921.5999999999999],[249.6,-940.8],[268.8,-940.8],[268.8,-960],[288,-960],[288,-979.1999999999999],[307.2,-979.1999999999999],[307.2,-998.4],[326.4,-998.4],[326.4,-1017.5999999999999],[345.59999999999997,-1017.5999999999999],[345.59999999999997,-1036.8],[364.8,-1036.8],[364.8,-1056],[384,-1056],[384,-1075.2],[403.2,-1075.2],[403.2,-1094.3999999999999],[441.59999999999997,-1094.3999999999999],[441.59999999999997,-1113.6],[499.2,-1113.6],[499.2,-1132.8],[710.4,-1132.8],[710.4,-1152]]]]}},{"type":"Feature","properties":{"kind":"district","id":127,"name":"Elk District"},"geometry":{"type":"MultiPolygon","coordinates":[[[[-326.4,-288],[-249.6,-288],[-249.6,-268.8],[-230.39999999999998,-268.8],[-230.39999999999998,-249.6],[-211.2,-249.6],[-211.2,-211.2],[-172.79999999999998,-211.2],[-172.79999999999998,-192],[-153.6,-192],[-153.6,-211.2],[19.2,-211.2],[19.2,-134.4],[38.4,-134.4],[38.4,-57.599999999999994],[57.599999999999994,-57.599999999999994],[57.599999999999994,19.2],[38.4,19.2],[38.4,38.4],[0,38.4],[0,57.599999999999994],[-57.599999999999994,57.599999999999994],[-57.599999999999994,76.8],[-172.79999999999998,76.8],[-172.79999999999998,57.599999999999994],[-268.8,57.599999999999994],[-268.8,38.4],[-326.4,38.4],[-326.4,19.2],[-403.2,19.2],[-403.2,0],[-460.79999999999995,0],[-460.79999999999995,-115.19999999999999],[-480,-115.19999999999999],[-480,-230.39999999999998],[-460.79999999999995,-230.39999999999998],[-460.79999999999995,-249.6],[-403.2,-249.6],[-403.2,-268.8],[-326.4,-268.8],[-326.4,-288]]]]}}]}
