{"type":"FeatureCollection","features":[{"type":"Feature","properties":{"kind":"district","id":127,"name":"Washington District"},"geometry":{"type":"MultiPolygon","coordinates":[[[[-76.8,614.4],[-38.4,614.4],[-38.4,633.6],[38.4,633.6],[38.4,652.8],[57.599999999999994,652.8],[57.599999999999994,672],[96,672],[96,691.1999999999999],[115.19999999999999,691.1999999999999],[115.19999999999999,710.4],[134.4,710.4],[134.4,768],[153.6,768],[153.6,883.1999999999999],[134.4,883.1999999999999],[134.4,921.5999999999999],[57.599999999999994,921.5999999999999],[57.599999999999994,940.8],[-57.599999999999994,940.8],[-57.599999999999994,921.5999999999999],[-134.4,921.5999999999999],[-134.4,940.8],[-230.39999999999998,940.8],[-230.39999999999998,921.5999999999999],[-249.6,921.5999999999999],[-249.6,902.4],[-268.8,902.4],[-268.8,883.1999999999999],[-288,883.1999999999999],[-288,825.6],[-268.8,825.6],[-268.8,768],[-249.6,768],[-249.6,729.6],[-230.39999999999998,729.6],[-230.39999999999998,710.4],[-211.2,710.4],[-211.2,691.1999999999999],[-192,691.1999999999999],[-192,672],[-172.79999999999998,672],[-172.79999999999998,652.8],[-153.6,652.8],[-153.6,633.6],[-76.8,633.6],[-76.8,614.4]]]]}}]}
