{"type":"FeatureCollection","features":[{"type":"Feature","properties":{"kind":"district","id":121,"name":"Prospect Park"},"geometry":{"type":"MultiPolygon","coordinates":[[[[768,5241.599999999999],[864,5241.599999999999],[864,5356.8],[883.1999999999999,5356.8],[883.1999999999999,5376],[902.4,5376],[902.4,5414.4],[921.5999999999999,5414.4],[921.5999999999999,5433.599999999999],[940.8,5433.599999999999],[940.8,5452.8],[921.5999999999999,5452.8],[921.5999999999999,5491.2],[902.4,5491.2],[902.4,5510.4],[883.1999999999999,5510.4],[883.1999999999999,5529.599999999999],[864,5529.599999999999],[864,5568],[844.8,5568],[844.8,5587.2],[825.6,5587.2],[825.6,5606.4],[806.4,5606.4],[806.4,5625.599999999999],[768,5625.599999999999],[768,5644.8],[748.8,5644.8],[748.8,5664],[729.6,5664],[729.6,5683.2],[710.4,5683.2],[710.4,5664],[691.1999999999999,5664],[691.1999999999999,5644.8],[672,5644.8],[672,5625.599999999999],[652.8,5625.599999999999],[652.8,5568],[691.1999999999999,5568],[691.1999999999999,5548.8],[710.4,5548.8],[710.4,5529.599999999999],[729.6,5529.599999999999],[729.6,5510.4],[768,5510.4],[768,5491.2],[787.1999999999999,5491.2],[787.1999999999999,5433.599999999999],[768,5433.599999999999],[768,5395.2],[748.8,5395.2],[748.8,5356.8],[729.6,5356.8],[729.6,5337.599999999999],[710.4,5337.599999999999],[710.4,5318.4],[595.1999999999999,5318.4],[595.1999999999999,5337.599999999999],[576,5337.599999999999],[576,5356.8],[537.6,5356.8],[537.6,5376],[499.2,5376],[499.2,5356.8],[480,5356.8],[480,5299.2],[537.6,5299.2],[537.6,5280],[614.4,5280],[614.4,5260.8],[768,5260.8],[768,5241.599999999999]]]]}},{"type":"Feature","properties":{"kind":"district","id":122,"name":"Amity Square"},"geometry":{"type":"MultiPolygon","coordinates":[[[[1286.3999999999999,5126.4],[1324.8,5126.4],[1324.8,5145.599999999999],[1363.2,5145.599999999999],[1363.2,5164.8],[1401.6,5164.8],[1401.6,5184],[1440,5184],[1440,5203.2],[1478.3999999999999,5203.2],[1478.3999999999999,5222.4],[1516.8,5222.4],[1516.8,5241.599999999999],[1555.2,5241.599999999999],[1555.2,5260.8],[1593.6,5260.8],[1593.6,5280],[1632,5280],[1632,5299.2],[1670.3999999999999,5299.2],[1670.3999999999999,5318.4],[1689.6,5318.4],[1689.6,5376],[1708.8,5376],[1708.8,5414.4],[1728,5414.4],[1728,5452.8],[1747.2,5452.8],[1747.2,5472],[1766.3999999999999,5472],[1766.3999999999999,5510.4],[1785.6,5510.4],[1785.6,5548.8],[1747.2,5548.8],[1747.2,5568],[1728,5568],[1728,5548.8],[1708.8,5548.8],[1708.8,5529.599999999999],[1689.6,5529.599999999999],[1689.6,5472],[1670.3999999999999,5472],[1670.3999999999999,5452.8],[1651.2,5452.8],[1651.2,5414.4],[1632,5414.4],[1632,5376],[1612.8,5376],[1612.8,5356.8],[1574.3999999999999,5356.8],[1574.3999999999999,5337.599999999999],[1555.2,5337.599999999999],[1555.2,5318.4],[1516.8,5318.4],[1516.8,5299.2],[1459.2,5299.2],[1459.2,5280],[1420.8,5280],[1420.8,5260.8],[1401.6,5260.8],[1401.6,5241.599999999999],[1363.2,5241.599999999999],[1363.2,5222.4],[1324.8,5222.4],[1324.8,5203.2],[1286.3999999999999,5203.2],[1286.3999999999999,5184],[1267.2,5184],[1267.2,5145.599999999999],[1286.3999999999999,5145.599999999999],[1286.3999999999999,5126.4]]]]}},{"type":"Feature","properties":{"kind":"district","id":123,"name":"Lilac Hills"},"geometry":{"type":"MultiPolygon","coordinates":[[[[1209.6,5260.8],[1228.8,5260.8],[1228.8,5280],[1286.3999999999999,5280],[1286.3999999999999,5299.2],[1305.6,5299.2],[1305.6,5318.4],[1363.2,5318.4],[1363.2,5337.599999999999],[1401.6,5337.599999999999],[1401.6,5356.8],[1459.2,5356.8],[1459.2,5376],[1478.3999999999999,5376],[1478.3999999999999,5395.2],[1516.8,5395.2],[1516.8,5414.4],[1555.2,5414.4],[1555.2,5452.8],[1574.3999999999999,5452.8],[1574.3999999999999,5491.2],[1593.6,5491.2],[1593.6,5510.4],[1612.8,5510.4],[1612.8,5548.8],[1632,5548.8],[1632,5587.2],[1651.2,5587.2],[1651.2,5625.599999999999],[1670.3999999999999,5625.599999999999],[1670.3999999999999,5683.2],[1651.2,5683.2],[1651.2,5702.4],[1612.8,5702.4],[1612.8,5664],[1593.6,5664],[1593.6,5625.599999999999],[1574.3999999999999,5625.599999999999],[1574.3999999999999,5606.4],[1555.2,5606.4],[1555.2,5568],[1536,5568],[1536,5529.599999999999],[1516.8,5529.599999999999],[1516.8,5491.2],[1497.6,5491.2],[1497.6,5472],[1478.3999999999999,5472],[1478.3999999999999,5452.8],[1459.2,5452.8],[1459.2,5433.599999999999],[1401.6,5433.599999999999],[1401.6,5395.2],[1363.2,5395.2],[1363.2,5376],[1324.8,5376],[1324.8,5356.8],[1286.3999999999999,5356.8],[1286.3999999999999,5337.599999999999],[1267.2,5337.599999999999],[1267.2,5318.4],[1209.6,5318.4],[1209.6,5299.2],[1190.3999999999999,5299.2],[1190.3999999999999,5280],[1209.6,5280],[1209.6,5260.8]]]]}},{"type":"Feature","properties":{"kind":"district","id":124,"name":"King Heights"},"geometry":{"type":"MultiPolygon","coordinates":[[[[1113.6,-3379.2],[1171.2,-3379.2],[1171.2,-3360],[1228.8,-3360],[1228.8,-3340.7999999999997],[1248,-3340.7999999999997],[1248,-3321.6],[1267.2,-3321.6],[1267.2,-3283.2],[1286.3999999999999,-3283.2],[1286.3999999999999,-3244.7999999999997],[1305.6,-3244.7999999999997],[1305.6,-3206.4],[1324.8,-3206.4],[1324.8,-3168],[1344,-3168],[1344,-3148.7999999999997],[1363.2,-3148.7999999999997],[1363.2,-3110.4],[1382.3999999999999,-3110.4],[1382.3999999999999,-3052.7999999999997],[1363.2,-3052.7999999999997],[1363.2,-3014.4],[1248,-3014.4],[1248,-3033.6],[1228.8,-3033.6],[1228.8,-3072],[1209.6,-3072],[1209.6,-3091.2],[1152,-3091.2],[1152,-3110.4],[1113.6,-3110.4],[1113.6,-3129.6],[1094.3999999999999,-3129.6],[1094.3999999999999,-3148.7999999999997],[1075.2,-3148.7999999999997],[1075.2,-3340.7999999999997],[1094.3999999999999,-3340.7999999999997],[1094.3999999999999,-3360],[1113.6,-3360],[1113.6,-3379.2]]]]}},{"type":"Feature","properties":{"kind":"district","id":125,"name":"Lilac Heights"},"geometry":{"type":"MultiPolygon","coordinates":[[[[2092.7999999999997,-1651.2],[2112,-1651.2],[2112,-1632],[2150.4,-1632],[2150.4,-1612.8],[2400,-1612.8],[2400,-1593.6],[2419.2,-1593.6],[2419.2,-1574.3999999999999],[2438.4,-1574.3999999999999],[2438.4,-1516.8],[2457.6,-1516.8],[2457.6,-1459.2],[2476.7999999999997,-1459.2],[2476.7999999999997,-1420.8],[2457.6,-1420.8],[2457.6,-1440],[2400,-1440],[2400,-1459.2],[2342.4,-1459.2],[2342.4,-1478.3999999999999],[2284.7999999999997,-1478.3999999999999],[2284.7999999999997,-1497.6],[2208,-1497.6],[2208,-1516.8],[2169.6,-1516.8],[2169.6,-1536],[2131.2,-1536],[2131.2,-1555.2],[2073.6,-1555.2],[2073.6,-1632],[2092.7999999999997,-1632],[2092.7999999999997,-1651.2]]]]}},{"type":"Feature","properties":{"kind":"district","id":126,"name":"Rosewood Hills"},"geometry":{"type":"MultiPolygon","coordinates":[[[[-384,-1267.2],[-288,-1267.2],[-288,-1209.6],[-307.2,-1209.6],[-307.2,-1171.2],[-326.4,-1171.2],[-326.4,-1036.8],[-307.2,-1036.8],[-307.2,-998.4],[-288,-998.4],[-288,-979.1999999999999],[-268.8,-979.1999999999999],[-268.8,-960],[-249.6,-960],[-249.6,-940.8],[-211.2,-940.8],[-211.2,-921.5999999999999],[-153.6,-921.5999999999999],[-153.6,-902.4],[-134.4,-902.4],[-134.4,-883.1999999999999],[-153.6,-883.1999999999999],[-153.6,-844.8],[-172.79999999999998,-844.8],[-172.79999999999998,-787.1999999999999],[-192,-787.1999999999999],[-192,-806.4],[-364.8,-806.4],[-364.8,-825.6],[-403.2,-825.6],[-403.2,-1017.5999999999999],[-422.4,-1017.5999999999999],[-422.4,-1036.8],[-441.59999999999997,-1036.8],[-441.59999999999997,-1190.3999999999999],[-460.79999999999995,-1190.3999999999999],[-460.79999999999995,-1248],[-384,-1248],[-384,-1267.2]]]]}},{"type":"Feature","properties":{"kind":"district","id":127,"name":"Highland Park"},"geometry":{"type":"MultiPolygon","coordinates":[[[[-2188.7999999999997,-1113.6],[-2016,-1113.6],[-2016,-1094.3999999999999],[-1900.8,-1094.3999999999999],[-1900.8,-1075.2],[-1881.6,-1075.2],[-1881.6,-1056],[-1862.3999999999999,-1056],[-1862.3999999999999,-1036.8],[-1843.1999999999998,-1036.8],[-1843.1999999999998,-768],[-1862.3999999999999,-768],[-1862.3999999999999,-729.6],[-1881.6,-729.6],[-1881.6,-691.1999999999999],[-1862.3999999999999,-691.1999999999999],[-1862.3999999999999,-652.8],[-1881.6,-652.8],[-1881.6,-633.6],[-1900.8,-633.6],[-1900.8,-614.4],[-1920,-614.4],[-1920,-595.1999999999999],[-1939.1999999999998,-595.1999999999999],[-1939.1999999999998,-576],[-1958.3999999999999,-576],[-1958.3999999999999,-556.8],[-1996.8,-556.8],[-1996.8,-537.6],[-2016,-537.6],[-2016,-518.4],[-2035.1999999999998,-518.4],[-2035.1999999999998,-499.2],[-2054.4,-499.2],[-2054.4,-480],[-2112,-480],[-2112,-499.2],[-2131.2,-499.2],[-2131.2,-518.4],[-2150.4,-518.4],[-2150.4,-556.8],[-2188.7999999999997,-556.8],[-2188.7999999999997,-595.1999999999999],[-2208,-595.1999999999999],[-2208,-614.4],[-2227.2,-614.4],[-2227.2,-633.6],[-2246.4,-633.6],[-2246.4,-672],[-2265.6,-672],[-2265.6,-691.1999999999999],[-2284.7999999999997,-691.1999999999999],[-2284.7999999999997,-710.4],[-2304,-710.4],[-2304,-729.6],[-2323.2,-729.6],[-2323.2,-748.8],[-2380.7999999999997,-748.8],[-2380.7999999999997,-729.6],[-2438.4,-729.6],[-2438.4,-768],[-2419.2,-768],[-2419.2,-825.6],[-2400,-825.6],[-2400,-883.1999999999999],[-2419.2,-883.1999999999999],[-2419.2,-960],[-2400,-960],[-2400,-979.1999999999999],[-2323.2,-979.1999999999999],[-2323.2,-998.4],[-2304,-998.4],[-2304,-1017.5999999999999],[-2284.7999999999997,-1017.5999999999999],[-2284.7999999999997,-1036.8],[-2265.6,-1036.8],[-2265.6,-1056],[-2246.4,-1056],[-2246.4,-1075.2],[-2227.2,-1075.2],[-2227.2,-1094.3999999999999],[-2188.7999999999997,-1094.3999999999999],[-2188.7999999999997,-1113.6]]]]}}]}
